{
"type": "FeatureCollection",
"name": "20_낙동강_유역출구",
"crs": { "type": "name", "properties": { "name": "urn:ogc:def:crs:EPSG::5186" } },
"features": [
{ "type": "Feature", "properties": { "Name": "태백시(문화교)", "desc": "200101#01" }, "geometry": { "type": "Point", "coordinates": [ 379340.260315242747311, 501583.853325945441611, 0.0 ] } },
{ "type": "Feature", "properties": { "Name": "태백시(루사교)", "desc": "200101#02" }, "geometry": { "type": "Point", "coordinates": [ 381744.650673297757749, 501234.260423509753309, 0.0 ] } },
{ "type": "Feature", "properties": { "Name": "황지천", "desc": "200101#03" }, "geometry": { "type": "Point", "coordinates": [ 381621.814939261472318, 501200.769845423521474, 0.0 ] } },
{ "type": "Feature", "properties": { "Name": "봉화군(대현교)", "desc": "200102#01" }, "geometry": { "type": "Point", "coordinates": [ 381762.910168834496289, 498088.237947439192794, 0.0 ] } },
{ "type": "Feature", "properties": { "Name": "낙동강상류", "desc": "200102#02" }, "geometry": { "type": "Point", "coordinates": [ 385290.128320885938592, 486010.883199460746255, 0.0 ] } },
{ "type": "Feature", "properties": { "Name": "봉화군(광회교)", "desc": "200103#01" }, "geometry": { "type": "Point", "coordinates": [ 388012.409456796944141, 483818.876689978002105, 0.0 ] } },
{ "type": "Feature", "properties": { "Name": "회룡천", "desc": "200103#02" }, "geometry": { "type": "Point", "coordinates": [ 385363.015213620557915, 486074.169744926912244, 0.0 ] } },
{ "type": "Feature", "properties": { "Name": "봉화군(분천교)", "desc": "200103#03" }, "geometry": { "type": "Point", "coordinates": [ 383244.730079524219036, 483282.796223835495766, 0.0 ] } },
{ "type": "Feature", "properties": { "Name": "봉화군(현동교)", "desc": "200103#04" }, "geometry": { "type": "Point", "coordinates": [ 379206.200361376395449, 483381.692348153679632, 0.0 ] } },
{ "type": "Feature", "properties": { "Name": "현동천", "desc": "200104#01" }, "geometry": { "type": "Point", "coordinates": [ 379232.904185232124291, 483289.718415222596377, 0.0 ] } },
{ "type": "Feature", "properties": { "Name": "봉화군(임기리)", "desc": "200105#01" }, "geometry": { "type": "Point", "coordinates": [ 378428.370879490394145, 477967.347179140546359, 0.0 ] } },
{ "type": "Feature", "properties": { "Name": "재산천합류전", "desc": "200105#02" }, "geometry": { "type": "Point", "coordinates": [ 374009.977349532709923, 475932.626928492274601, 0.0 ] } },
{ "type": "Feature", "properties": { "Name": "동면저수지", "desc": "200106#01" }, "geometry": { "type": "Point", "coordinates": [ 380918.247394595178775, 469228.912251583533362, 0.0 ] } },
{ "type": "Feature", "properties": { "Name": "재산천", "desc": "200106#02" }, "geometry": { "type": "Point", "coordinates": [ 374012.498230016441084, 475809.301016731653363, 0.0 ] } },
{ "type": "Feature", "properties": { "Name": "운곡천합류전", "desc": "200106#03" }, "geometry": { "type": "Point", "coordinates": [ 369837.533850811829325, 475138.96056482597487, 0.0 ] } },
{ "type": "Feature", "properties": { "Name": "봉화군(도천교)", "desc": "200107#01" }, "geometry": { "type": "Point", "coordinates": [ 369640.564896210678853, 475073.347234407963697, 0.0 ] } },
{ "type": "Feature", "properties": { "Name": "봉화군(풍호리)", "desc": "200108#01" }, "geometry": { "type": "Point", "coordinates": [ 368530.203152405214496, 473570.826218659756705, 0.0 ] } },
{ "type": "Feature", "properties": { "Name": "봉화군(양삼교)", "desc": "200108#02" }, "geometry": { "type": "Point", "coordinates": [ 368329.86640368757071, 466133.724640696891584, 0.0 ] } },
{ "type": "Feature", "properties": { "Name": "도산수위표", "desc": "200108#03" }, "geometry": { "type": "Point", "coordinates": [ 369208.507789170253091, 464362.203353126184084, 0.0 ] } },
{ "type": "Feature", "properties": { "Name": "안동댐상류", "desc": "200109#01" }, "geometry": { "type": "Point", "coordinates": [ 366442.22153335204348, 459866.604349364060909, 0.0 ] } },
{ "type": "Feature", "properties": { "Name": "동계천", "desc": "200110#01" }, "geometry": { "type": "Point", "coordinates": [ 368522.335703961085528, 455095.91346364247147, 0.0 ] } },
{ "type": "Feature", "properties": { "Name": "동계천합류전", "desc": "200111#01" }, "geometry": { "type": "Point", "coordinates": [ 365913.468360499711707, 456402.050460108672269, 0.0 ] } },
{ "type": "Feature", "properties": { "Name": "동계천", "desc": "200111#02" }, "geometry": { "type": "Point", "coordinates": [ 366315.515569425537251, 456163.111415595223662, 0.0 ] } },
{ "type": "Feature", "properties": { "Name": "안동댐", "desc": "200111#03" }, "geometry": { "type": "Point", "coordinates": [ 358738.448323829565197, 444145.954969512415119, 0.0 ] } },
{ "type": "Feature", "properties": { "Name": "안동조정지", "desc": "200112#01" }, "geometry": { "type": "Point", "coordinates": [ 356265.870150042697787, 441972.77098482043948, 0.0 ] } },
{ "type": "Feature", "properties": { "Name": "반변천상류", "desc": "200201#01" }, "geometry": { "type": "Point", "coordinates": [ 392218.41574609966483, 460900.357509889523499, 0.0 ] } },
{ "type": "Feature", "properties": { "Name": "장파천", "desc": "200202#01" }, "geometry": { "type": "Point", "coordinates": [ 392393.53223076130962, 460842.598710332706105, 0.0 ] } },
{ "type": "Feature", "properties": { "Name": "영양군(양평교)", "desc": "200203#01" }, "geometry": { "type": "Point", "coordinates": [ 388354.592544517130591, 452547.574490726110525, 0.0 ] } },
{ "type": "Feature", "properties": { "Name": "동천합류전", "desc": "200203#02" }, "geometry": { "type": "Point", "coordinates": [ 386028.241710049274843, 447499.828274452360347, 0.0 ] } },
{ "type": "Feature", "properties": { "Name": "영양군(임천교)", "desc": "200204#01" }, "geometry": { "type": "Point", "coordinates": [ 384943.47837219806388, 448216.697729469509795, 0.0 ] } },
{ "type": "Feature", "properties": { "Name": "동천", "desc": "200204#02" }, "geometry": { "type": "Point", "coordinates": [ 385928.815118893166073, 447497.676311363233253, 0.0 ] } },
{ "type": "Feature", "properties": { "Name": "영양군(청암교)", "desc": "200205#01" }, "geometry": { "type": "Point", "coordinates": [ 386575.663836238323711, 446339.566678128321655, 0.0 ] } },
{ "type": "Feature", "properties": { "Name": "영양군(흥구교)", "desc": "200205#02" }, "geometry": { "type": "Point", "coordinates": [ 386339.106909309222829, 441183.266315034823492, 0.0 ] } },
{ "type": "Feature", "properties": { "Name": "화매천", "desc": "200206#01" }, "geometry": { "type": "Point", "coordinates": [ 386538.106559488049243, 441187.575126146897674, 0.0 ] } },
{ "type": "Feature", "properties": { "Name": "영양군(흥구리)", "desc": "200207#01" }, "geometry": { "type": "Point", "coordinates": [ 384984.231614851392806, 440537.154810368840117, 0.0 ] } },
{ "type": "Feature", "properties": { "Name": "서시천합류전", "desc": "200207#02" }, "geometry": { "type": "Point", "coordinates": [ 383362.718601303698961, 439546.299977915070485, 0.0 ] } },
{ "type": "Feature", "properties": { "Name": "갈평저수지", "desc": "200207#03" }, "geometry": { "type": "Point", "coordinates": [ 391133.619160969974473, 432589.778415109205525, 0.0 ] } },
{ "type": "Feature", "properties": { "Name": "고현저수지", "desc": "200207#04" }, "geometry": { "type": "Point", "coordinates": [ 388332.601589158934075, 438789.838167494977824, 0.0 ] } },
{ "type": "Feature", "properties": { "Name": "서시천", "desc": "200207#05" }, "geometry": { "type": "Point", "coordinates": [ 383760.788261843379587, 439554.781646401854232, 0.0 ] } },
{ "type": "Feature", "properties": { "Name": "청송군(광덕교)", "desc": "200207#06" }, "geometry": { "type": "Point", "coordinates": [ 382992.802812168491073, 439384.212779299821705, 0.0 ] } },
{ "type": "Feature", "properties": { "Name": "임하댐상류", "desc": "200207#07" }, "geometry": { "type": "Point", "coordinates": [ 378757.014604233612772, 435995.044354257173836, 0.0 ] } },
{ "type": "Feature", "properties": { "Name": "구천저수지", "desc": "200208#01" }, "geometry": { "type": "Point", "coordinates": [ 393466.199586319562513, 412900.39794126158813, 0.0 ] } },
{ "type": "Feature", "properties": { "Name": "용전천상류", "desc": "200208#02" }, "geometry": { "type": "Point", "coordinates": [ 387258.236975664272904, 420567.992467122268863, 0.0 ] } },
{ "type": "Feature", "properties": { "Name": "괘천합류후", "desc": "200209#01" }, "geometry": { "type": "Point", "coordinates": [ 384382.754016766091809, 427908.892791379243135, 0.0 ] } },
{ "type": "Feature", "properties": { "Name": "청송군(덕천교)", "desc": "200210#01" }, "geometry": { "type": "Point", "coordinates": [ 382064.791486228001304, 429093.52822847594507, 0.0 ] } },
{ "type": "Feature", "properties": { "Name": "청송군(송강2교)", "desc": "200210#02" }, "geometry": { "type": "Point", "coordinates": [ 381268.9644814186031, 433765.031706906971522, 0.0 ] } },
{ "type": "Feature", "properties": { "Name": "용전천하류", "desc": "200210#03" }, "geometry": { "type": "Point", "coordinates": [ 378403.442905083531514, 435031.584197362826671, 0.0 ] } },
{ "type": "Feature", "properties": { "Name": "임하댐", "desc": "200211#01" }, "geometry": { "type": "Point", "coordinates": [ 368582.192613365943544, 439367.766447570291348, 0.0 ] } },
{ "type": "Feature", "properties": { "Name": "성덕댐", "desc": "200212#01" }, "geometry": { "type": "Point", "coordinates": [ 376541.388870447874069, 406587.730174173251726, 0.0 ] } },
{ "type": "Feature", "properties": { "Name": "청송군(명당리)", "desc": "200213#01" }, "geometry": { "type": "Point", "coordinates": [ 375793.025991780508775, 411476.362559275934473, 0.0 ] } },
{ "type": "Feature", "properties": { "Name": "눌인천합류전", "desc": "200213#02" }, "geometry": { "type": "Point", "coordinates": [ 378569.967937252833508, 414863.899022689030971, 0.0 ] } },
{ "type": "Feature", "properties": { "Name": "포항시(상사4교)", "desc": "200213#03" }, "geometry": { "type": "Point", "coordinates": [ 387699.052891086321324, 408239.880050987005234, 0.0 ] } },
{ "type": "Feature", "properties": { "Name": "눌인천", "desc": "200213#04" }, "geometry": { "type": "Point", "coordinates": [ 378694.083266409463249, 414897.293990302074235, 0.0 ] } },
{ "type": "Feature", "properties": { "Name": "길안천상류", "desc": "200213#05" }, "geometry": { "type": "Point", "coordinates": [ 378665.328038829029538, 415081.75571990996832, 0.0 ] } },
{ "type": "Feature", "properties": { "Name": "안동시(대사3교)", "desc": "200214#01" }, "geometry": { "type": "Point", "coordinates": [ 375810.937093713204376, 420451.653861446655355, 0.0 ] } },
{ "type": "Feature", "properties": { "Name": "안동시(묵계교)", "desc": "200214#02" }, "geometry": { "type": "Point", "coordinates": [ 371428.757385726319626, 427611.573400773166213, 0.0 ] } },
{ "type": "Feature", "properties": { "Name": "안동시(신덕교)", "desc": "200215#01" }, "geometry": { "type": "Point", "coordinates": [ 364666.024091245257296, 437225.705951951793395, 0.0 ] } },
{ "type": "Feature", "properties": { "Name": "길안천하류", "desc": "200215#02" }, "geometry": { "type": "Point", "coordinates": [ 364368.193943964026403, 438484.483740218682215, 0.0 ] } },
{ "type": "Feature", "properties": { "Name": "임하조정지", "desc": "200216#01" }, "geometry": { "type": "Point", "coordinates": [ 365301.820552738732658, 439119.156750197988003, 0.0 ] } },
{ "type": "Feature", "properties": { "Name": "안동시(포진교)", "desc": "200216#02" }, "geometry": { "type": "Point", "coordinates": [ 360898.317470317240804, 439035.798214900307357, 0.0 ] } },
{ "type": "Feature", "properties": { "Name": "반변천하류", "desc": "200216#03" }, "geometry": { "type": "Point", "coordinates": [ 355657.51047586183995, 441221.610269792960025, 0.0 ] } },
{ "type": "Feature", "properties": { "Name": "송야천", "desc": "200301#01" }, "geometry": { "type": "Point", "coordinates": [ 349695.52976609126199, 442133.54151130648097, 0.0 ] } },
{ "type": "Feature", "properties": { "Name": "금봉저수지(의성)", "desc": "200302#01" }, "geometry": { "type": "Point", "coordinates": [ 366616.329107138910331, 417371.105712371179834, 0.0 ] } },
{ "type": "Feature", "properties": { "Name": "미천상류", "desc": "200302#02" }, "geometry": { "type": "Point", "coordinates": [ 349460.659962964360602, 426957.351090329873841, 0.0 ] } },
{ "type": "Feature", "properties": { "Name": "안동시(운산리)", "desc": "200303#01" }, "geometry": { "type": "Point", "coordinates": [ 348791.579166262876242, 432527.360944434534758, 0.0 ] } },
{ "type": "Feature", "properties": { "Name": "안동시(검암교)", "desc": "200303#02" }, "geometry": { "type": "Point", "coordinates": [ 348172.315138020843733, 439578.492096988949925, 0.0 ] } },
{ "type": "Feature", "properties": { "Name": "안동시(안동대교)", "desc": "200304#01" }, "geometry": { "type": "Point", "coordinates": [ 352187.479810724966228, 440481.129093209281564, 0.0 ] } },
{ "type": "Feature", "properties": { "Name": "송야천합류전", "desc": "200304#02" }, "geometry": { "type": "Point", "coordinates": [ 349895.014167458866723, 442106.175243713252712, 0.0 ] } },
{ "type": "Feature", "properties": { "Name": "미천합류전", "desc": "200304#03" }, "geometry": { "type": "Point", "coordinates": [ 348388.760785266582388, 440013.945601930783596, 0.0 ] } },
{ "type": "Feature", "properties": { "Name": "안동댐역조정지하류", "desc": "200304#04" }, "geometry": { "type": "Point", "coordinates": [ 338960.919950800016522, 441429.323678463115357, 0.0 ] } },
{ "type": "Feature", "properties": { "Name": "만운저수지", "desc": "200305#01" }, "geometry": { "type": "Point", "coordinates": [ 341184.653932733344845, 445381.760978924576193, 0.0 ] } },
{ "type": "Feature", "properties": { "Name": "신역천", "desc": "200305#02" }, "geometry": { "type": "Point", "coordinates": [ 338808.720267181284726, 441611.885271097591612, 0.0 ] } },
{ "type": "Feature", "properties": { "Name": "예천군(구담교)", "desc": "200306#01" }, "geometry": { "type": "Point", "coordinates": [ 330989.549997859809082, 438899.224063568108249, 0.0 ] } },
{ "type": "Feature", "properties": { "Name": "광산천합류전", "desc": "200306#02" }, "geometry": { "type": "Point", "coordinates": [ 328524.92281694751, 437320.386153354833368, 0.0 ] } },
{ "type": "Feature", "properties": { "Name": "광산천", "desc": "200307#01" }, "geometry": { "type": "Point", "coordinates": [ 328800.91173320292728, 437170.333524314162787, 0.0 ] } },
{ "type": "Feature", "properties": { "Name": "의성군(풍지교)", "desc": "200308#01" }, "geometry": { "type": "Point", "coordinates": [ 322174.298243193887174, 437659.708133363979869, 0.0 ] } },
{ "type": "Feature", "properties": { "Name": "내성천합류전", "desc": "200308#02" }, "geometry": { "type": "Point", "coordinates": [ 316199.445633114199154, 441554.506073537748307, 0.0 ] } },
{ "type": "Feature", "properties": { "Name": "낙화암천", "desc": "200401#01" }, "geometry": { "type": "Point", "coordinates": [ 350265.069026260694955, 476220.546828121819999, 0.0 ] } },
{ "type": "Feature", "properties": { "Name": "가계천합류전", "desc": "200402#01" }, "geometry": { "type": "Point", "coordinates": [ 354694.558424353133887, 479260.608832292840816, 0.0 ] } },
{ "type": "Feature", "properties": { "Name": "금봉저수지(봉화)", "desc": "200402#02" }, "geometry": { "type": "Point", "coordinates": [ 359329.240638545365073, 483078.041448550240602, 0.0 ] } },
{ "type": "Feature", "properties": { "Name": "창평천합류전", "desc": "200402#03" }, "geometry": { "type": "Point", "coordinates": [ 359148.641821122611873, 480823.207627150928602, 0.0 ] } },
{ "type": "Feature", "properties": { "Name": "창평저수지", "desc": "200402#04" }, "geometry": { "type": "Point", "coordinates": [ 361682.784957025025506, 481703.779175344097894, 0.0 ] } },
{ "type": "Feature", "properties": { "Name": "창평천", "desc": "200402#05" }, "geometry": { "type": "Point", "coordinates": [ 359149.796490073436871, 480761.545871911221184, 0.0 ] } },
{ "type": "Feature", "properties": { "Name": "가계천", "desc": "200402#06" }, "geometry": { "type": "Point", "coordinates": [ 354744.080795260670129, 479261.509927183622494, 0.0 ] } },
{ "type": "Feature", "properties": { "Name": "봉화군(봉화대교)", "desc": "200402#07" }, "geometry": { "type": "Point", "coordinates": [ 354396.168419931316748, 477959.876146464317571, 0.0 ] } },
{ "type": "Feature", "properties": { "Name": "낙화암천합류전", "desc": "200402#08" }, "geometry": { "type": "Point", "coordinates": [ 350437.911497487919405, 476254.439901242789347, 0.0 ] } },
{ "type": "Feature", "properties": { "Name": "영주시(신암교)", "desc": "200402#09" }, "geometry": { "type": "Point", "coordinates": [ 350526.688879621739034, 474035.541728470590897, 0.0 ] } },
{ "type": "Feature", "properties": { "Name": "내성천상류", "desc": "200402#10" }, "geometry": { "type": "Point", "coordinates": [ 352193.150436690892093, 466756.101436235010624, 0.0 ] } },
{ "type": "Feature", "properties": { "Name": "토일천", "desc": "200403#01" }, "geometry": { "type": "Point", "coordinates": [ 352294.53939595259726, 466634.550470680813305, 0.0 ] } },
{ "type": "Feature", "properties": { "Name": "영주댐", "desc": "200404#01" }, "geometry": { "type": "Point", "coordinates": [ 347951.517304445849732, 459588.626635678345338, 0.0 ] } },
{ "type": "Feature", "properties": { "Name": "삼가저수지", "desc": "200405#01" }, "geometry": { "type": "Point", "coordinates": [ 336317.087620234931819, 479254.516126853530295, 0.0 ] } },
{ "type": "Feature", "properties": { "Name": "서천상류", "desc": "200405#02" }, "geometry": { "type": "Point", "coordinates": [ 343292.247939917142503, 472430.51718616602011, 0.0 ] } },
{ "type": "Feature", "properties": { "Name": "단산저수지", "desc": "200406#01" }, "geometry": { "type": "Point", "coordinates": [ 342948.759929972875398, 486949.79731836594874, 0.0 ] } },
{ "type": "Feature", "properties": { "Name": "죽계천", "desc": "200406#02" }, "geometry": { "type": "Point", "coordinates": [ 343414.591548943077214, 472525.09063100948697, 0.0 ] } },
{ "type": "Feature", "properties": { "Name": "영주시(월호교)", "desc": "200407#01" }, "geometry": { "type": "Point", "coordinates": [ 344750.371632478781976, 463912.901314343325794, 0.0 ] } },
{ "type": "Feature", "properties": { "Name": "서천하류", "desc": "200407#02" }, "geometry": { "type": "Point", "coordinates": [ 345495.265706100559328, 460965.07237003184855, 0.0 ] } },
{ "type": "Feature", "properties": { "Name": "영주시(미림교)", "desc": "200408#01" }, "geometry": { "type": "Point", "coordinates": [ 346992.09779839287512, 459078.678848593495786, 0.0 ] } },
{ "type": "Feature", "properties": { "Name": "영주시(석탑교)", "desc": "200408#02" }, "geometry": { "type": "Point", "coordinates": [ 342977.075590909807943, 458671.454280162055511, 0.0 ] } },
{ "type": "Feature", "properties": { "Name": "내성천중류", "desc": "200408#03" }, "geometry": { "type": "Point", "coordinates": [ 338811.499426312977448, 456814.349270757636987, 0.0 ] } },
{ "type": "Feature", "properties": { "Name": "옥계천", "desc": "200409#01" }, "geometry": { "type": "Point", "coordinates": [ 338932.123863380926196, 457032.163611348019913, 0.0 ] } },
{ "type": "Feature", "properties": { "Name": "예천군(미호교)", "desc": "200410#01" }, "geometry": { "type": "Point", "coordinates": [ 335736.769740650139283, 453403.91078605648363, 0.0 ] } },
{ "type": "Feature", "properties": { "Name": "예천군(고평교)", "desc": "200410#02" }, "geometry": { "type": "Point", "coordinates": [ 333139.734011374530382, 447874.437319924356416, 0.0 ] } },
{ "type": "Feature", "properties": { "Name": "한천상류", "desc": "200411#01" }, "geometry": { "type": "Point", "coordinates": [ 330429.66507953661494, 454462.457257374888286, 0.0 ] } },
{ "type": "Feature", "properties": { "Name": "운암저수지", "desc": "200412#01" }, "geometry": { "type": "Point", "coordinates": [ 321968.075209743634332, 457421.313947644433938, 0.0 ] } },
{ "type": "Feature", "properties": { "Name": "금곡천", "desc": "200412#02" }, "geometry": { "type": "Point", "coordinates": [ 330362.203636893827934, 453998.899079113034531, 0.0 ] } },
{ "type": "Feature", "properties": { "Name": "예천군(신예천교)", "desc": "200412#03" }, "geometry": { "type": "Point", "coordinates": [ 329510.12350978446193, 451210.812065400357824, 0.0 ] } },
{ "type": "Feature", "properties": { "Name": "한천하류", "desc": "200413#01" }, "geometry": { "type": "Point", "coordinates": [ 326953.119497574167326, 446023.210837564314716, 0.0 ] } },
{ "type": "Feature", "properties": { "Name": "경천댐", "desc": "200414#01" }, "geometry": { "type": "Point", "coordinates": [ 317247.363922259886749, 455875.362605144269764, 0.0 ] } },
{ "type": "Feature", "properties": { "Name": "대하리천", "desc": "200415#01" }, "geometry": { "type": "Point", "coordinates": [ 313360.735087359149475, 453109.748745966237038, 0.0 ] } },
{ "type": "Feature", "properties": { "Name": "대하리천합류전", "desc": "200416#01" }, "geometry": { "type": "Point", "coordinates": [ 313412.033366627525538, 452987.095097227196675, 0.0 ] } },
{ "type": "Feature", "properties": { "Name": "예천군(산양교)", "desc": "200416#02" }, "geometry": { "type": "Point", "coordinates": [ 312800.495052144920919, 446596.651679956936277, 0.0 ] } },
{ "type": "Feature", "properties": { "Name": "금천", "desc": "200416#03" }, "geometry": { "type": "Point", "coordinates": [ 315637.451373273623176, 442656.917062403284945, 0.0 ] } },
{ "type": "Feature", "properties": { "Name": "한천합류전", "desc": "200417#01" }, "geometry": { "type": "Point", "coordinates": [ 327103.618627712887246, 445932.931260685552843, 0.0 ] } },
{ "type": "Feature", "properties": { "Name": "예천군(신음리)", "desc": "200417#02" }, "geometry": { "type": "Point", "coordinates": [ 320797.526152619044296, 443560.313613878330216, 0.0 ] } },
{ "type": "Feature", "properties": { "Name": "예천군(회룡교)", "desc": "200417#03" }, "geometry": { "type": "Point", "coordinates": [ 318081.657358120195568, 443954.269809134420939, 0.0 ] } },
{ "type": "Feature", "properties": { "Name": "금천합류전", "desc": "200417#04" }, "geometry": { "type": "Point", "coordinates": [ 316031.952271884307265, 442908.890327360597439, 0.0 ] } },
{ "type": "Feature", "properties": { "Name": "내성천하류", "desc": "200417#05" }, "geometry": { "type": "Point", "coordinates": [ 315973.562539340695366, 441705.623707286897115, 0.0 ] } },
{ "type": "Feature", "properties": { "Name": "영강상류", "desc": "200501#01" }, "geometry": { "type": "Point", "coordinates": [ 295366.563579897338059, 449746.031851049570832, 0.0 ] } },
{ "type": "Feature", "properties": { "Name": "문경시(갈마교)", "desc": "200502#01" }, "geometry": { "type": "Point", "coordinates": [ 297183.19711931492202, 449488.927801467478275, 0.0 ] } },
{ "type": "Feature", "properties": { "Name": "영강중류", "desc": "200502#02" }, "geometry": { "type": "Point", "coordinates": [ 300282.820203024253715, 452145.228669700270984, 0.0 ] } },
{ "type": "Feature", "properties": { "Name": "조령천", "desc": "200503#01" }, "geometry": { "type": "Point", "coordinates": [ 300356.60595988156274, 452207.754208859289065, 0.0 ] } },
{ "type": "Feature", "properties": { "Name": "문경시(불정동)", "desc": "200504#01" }, "geometry": { "type": "Point", "coordinates": [ 302814.496864500455558, 450232.812077672686428, 0.0 ] } },
{ "type": "Feature", "properties": { "Name": "점촌수위표", "desc": "200504#02" }, "geometry": { "type": "Point", "coordinates": [ 308885.123760337184649, 445652.021446177153848, 0.0 ] } },
{ "type": "Feature", "properties": { "Name": "상주시(상우교)", "desc": "200505#01" }, "geometry": { "type": "Point", "coordinates": [ 295428.046853663341608, 430724.503285850747488, 0.0 ] } },
{ "type": "Feature", "properties": { "Name": "이안천상류", "desc": "200505#02" }, "geometry": { "type": "Point", "coordinates": [ 298752.692747077089734, 436126.328208357677795, 0.0 ] } },
{ "type": "Feature", "properties": { "Name": "지평천합류전", "desc": "200506#01" }, "geometry": { "type": "Point", "coordinates": [ 299786.204153648228385, 439282.941232795477845, 0.0 ] } },
{ "type": "Feature", "properties": { "Name": "지평저수지", "desc": "200506#02" }, "geometry": { "type": "Point", "coordinates": [ 299859.035899394075386, 439437.938363674620632, 0.0 ] } },
{ "type": "Feature", "properties": { "Name": "상주시(이안교)", "desc": "200506#03" }, "geometry": { "type": "Point", "coordinates": [ 303768.840665064577479, 439083.3480185236549, 0.0 ] } },
{ "type": "Feature", "properties": { "Name": "이안천하류", "desc": "200506#04" }, "geometry": { "type": "Point", "coordinates": [ 309385.392909284099005, 437580.413957888958976, 0.0 ] } },
{ "type": "Feature", "properties": { "Name": "문경시(김용리)", "desc": "200507#01" }, "geometry": { "type": "Point", "coordinates": [ 308830.845732440298889, 444048.070696280279662, 0.0 ] } },
{ "type": "Feature", "properties": { "Name": "이안천합류전", "desc": "200507#02" }, "geometry": { "type": "Point", "coordinates": [ 309580.892516937281471, 437860.382918515591882, 0.0 ] } },
{ "type": "Feature", "properties": { "Name": "영강하류", "desc": "200507#03" }, "geometry": { "type": "Point", "coordinates": [ 313220.722668475937098, 437321.619590874179266, 0.0 ] } },
{ "type": "Feature", "properties": { "Name": "상주시(소천2교)", "desc": "200601#01" }, "geometry": { "type": "Point", "coordinates": [ 302997.408851700776722, 420298.294064892805181, 0.0 ] } },
{ "type": "Feature", "properties": { "Name": "상주시(화계교)", "desc": "200601#02" }, "geometry": { "type": "Point", "coordinates": [ 306104.31392773805419, 425145.338728256581817, 0.0 ] } },
{ "type": "Feature", "properties": { "Name": "병성천상류", "desc": "200601#03" }, "geometry": { "type": "Point", "coordinates": [ 306894.708555105607957, 425710.019765989389271, 0.0 ] } },
{ "type": "Feature", "properties": { "Name": "상주시(후천교)", "desc": "200602#01" }, "geometry": { "type": "Point", "coordinates": [ 303899.297606720356271, 426166.821071480284445, 0.0 ] } },
{ "type": "Feature", "properties": { "Name": "북천", "desc": "200602#02" }, "geometry": { "type": "Point", "coordinates": [ 306792.775951195391826, 425893.745989603921771, 0.0 ] } },
{ "type": "Feature", "properties": { "Name": "동천합류전", "desc": "200603#01" }, "geometry": { "type": "Point", "coordinates": [ 307945.939764894603286, 427326.281934402417392, 0.0 ] } },
{ "type": "Feature", "properties": { "Name": "오태저수지", "desc": "200603#02" }, "geometry": { "type": "Point", "coordinates": [ 301248.921854594547767, 433349.694731851574033, 0.0 ] } },
{ "type": "Feature", "properties": { "Name": "동천", "desc": "200603#03" }, "geometry": { "type": "Point", "coordinates": [ 307869.29364305047784, 427479.480709489085712, 0.0 ] } },
{ "type": "Feature", "properties": { "Name": "상주시(병성교)", "desc": "200603#04" }, "geometry": { "type": "Point", "coordinates": [ 309493.35060379805509, 427099.085254208301194, 0.0 ] } },
{ "type": "Feature", "properties": { "Name": "병성천하류", "desc": "200603#05" }, "geometry": { "type": "Point", "coordinates": [ 310840.787280620774254, 426931.260269795951899, 0.0 ] } },
{ "type": "Feature", "properties": { "Name": "문경시(이목리)", "desc": "200701#01" }, "geometry": { "type": "Point", "coordinates": [ 316113.279652826255187, 440566.694915107334964, 0.0 ] } },
{ "type": "Feature", "properties": { "Name": "문경시(말응리)", "desc": "200701#02" }, "geometry": { "type": "Point", "coordinates": [ 313097.332159199519083, 439139.100884696934372, 0.0 ] } },
{ "type": "Feature", "properties": { "Name": "영강합류전", "desc": "200701#03" }, "geometry": { "type": "Point", "coordinates": [ 313469.516658702399582, 437324.891030100523494, 0.0 ] } },
{ "type": "Feature", "properties": { "Name": "예천군(상풍교)", "desc": "200702#01" }, "geometry": { "type": "Point", "coordinates": [ 313685.925343831069767, 434121.195856270671356, 0.0 ] } },
{ "type": "Feature", "properties": { "Name": "상주보", "desc": "200702#02" }, "geometry": { "type": "Point", "coordinates": [ 312063.335478517168667, 426792.855843381490558, 0.0 ] } },
{ "type": "Feature", "properties": { "Name": "상주시(강창교)", "desc": "200703#01" }, "geometry": { "type": "Point", "coordinates": [ 311646.37760408752365, 424351.781786443898454, 0.0 ] } },
{ "type": "Feature", "properties": { "Name": "위천합류전", "desc": "200703#02" }, "geometry": { "type": "Point", "coordinates": [ 318049.864518877817318, 422617.638635931536555, 0.0 ] } },
{ "type": "Feature", "properties": { "Name": "군위군(동곡교)", "desc": "200801#01" }, "geometry": { "type": "Point", "coordinates": [ 363946.334167269349564, 397490.833579644386191, 0.0 ] } },
{ "type": "Feature", "properties": { "Name": "군위댐", "desc": "200801#02" }, "geometry": { "type": "Point", "coordinates": [ 361707.594491882249713, 392792.581661647651345, 0.0 ] } },
{ "type": "Feature", "properties": { "Name": "군위군(화수교)", "desc": "200802#01" }, "geometry": { "type": "Point", "coordinates": [ 357892.515446821169462, 393462.982336273882538, 0.0 ] } },
{ "type": "Feature", "properties": { "Name": "군위군(미성교)", "desc": "200802#02" }, "geometry": { "type": "Point", "coordinates": [ 350458.150473768124357, 399529.948157729580998, 0.0 ] } },
{ "type": "Feature", "properties": { "Name": "군위군(병수리)", "desc": "200803#01" }, "geometry": { "type": "Point", "coordinates": [ 342444.120826184051111, 398902.130867669766303, 0.0 ] } },
{ "type": "Feature", "properties": { "Name": "군위군(효령교)", "desc": "200804#01" }, "geometry": { "type": "Point", "coordinates": [ 342534.849658310296945, 396406.007515273871832, 0.0 ] } },
{ "type": "Feature", "properties": { "Name": "남천", "desc": "200804#02" }, "geometry": { "type": "Point", "coordinates": [ 341995.766585987992585, 398802.323066455661319, 0.0 ] } },
{ "type": "Feature", "properties": { "Name": "군위군(무성리)", "desc": "200805#01" }, "geometry": { "type": "Point", "coordinates": [ 340641.363528316840529, 400630.463975892460439, 0.0 ] } },
{ "type": "Feature", "properties": { "Name": "의성군(동부교)", "desc": "200805#02" }, "geometry": { "type": "Point", "coordinates": [ 334669.549895042669959, 415058.992666736070532, 0.0 ] } },
{ "type": "Feature", "properties": { "Name": "쌍계천합류전", "desc": "200805#03" }, "geometry": { "type": "Point", "coordinates": [ 337143.018034985347185, 414851.02801510161953, 0.0 ] } },
{ "type": "Feature", "properties": { "Name": "사미천합류전", "desc": "200806#01" }, "geometry": { "type": "Point", "coordinates": [ 355496.126838730531745, 404397.992075263173319, 0.0 ] } },
{ "type": "Feature", "properties": { "Name": "가음저수지", "desc": "200806#02" }, "geometry": { "type": "Point", "coordinates": [ 356583.508220518822782, 405065.047863313579001, 0.0 ] } },
{ "type": "Feature", "properties": { "Name": "사미천", "desc": "200806#03" }, "geometry": { "type": "Point", "coordinates": [ 355544.431299721356481, 404491.365725029376335, 0.0 ] } },
{ "type": "Feature", "properties": { "Name": "의성군(덕은교)", "desc": "200806#04" }, "geometry": { "type": "Point", "coordinates": [ 344511.681986282463185, 411393.579723716247827, 0.0 ] } },
{ "type": "Feature", "properties": { "Name": "쌍계천상류", "desc": "200806#05" }, "geometry": { "type": "Point", "coordinates": [ 343439.598129420890473, 412825.093882707646117, 0.0 ] } },
{ "type": "Feature", "properties": { "Name": "의성군(구미교)", "desc": "200807#01" }, "geometry": { "type": "Point", "coordinates": [ 343733.416825371677987, 413169.13993026537355, 0.0 ] } },
{ "type": "Feature", "properties": { "Name": "쌍계천하류", "desc": "200808#01" }, "geometry": { "type": "Point", "coordinates": [ 337268.23502632585587, 414822.171753756178077, 0.0 ] } },
{ "type": "Feature", "properties": { "Name": "의성군(장송교)", "desc": "200809#01" }, "geometry": { "type": "Point", "coordinates": [ 336558.595555825449992, 415520.177690943819471, 0.0 ] } },
{ "type": "Feature", "properties": { "Name": "의성군(비안교)", "desc": "200809#02" }, "geometry": { "type": "Point", "coordinates": [ 333629.243432904127985, 416183.782187373668421, 0.0 ] } },
{ "type": "Feature", "properties": { "Name": "비산천합류전", "desc": "200809#03" }, "geometry": { "type": "Point", "coordinates": [ 326552.064592937822454, 419068.529977975296788, 0.0 ] } },
{ "type": "Feature", "properties": { "Name": "조성저수지", "desc": "200809#04" }, "geometry": { "type": "Point", "coordinates": [ 328098.550155262928456, 415668.737649546645116, 0.0 ] } },
{ "type": "Feature", "properties": { "Name": "비산천", "desc": "200809#05" }, "geometry": { "type": "Point", "coordinates": [ 326878.448202858737204, 418919.133004714269191, 0.0 ] } },
{ "type": "Feature", "properties": { "Name": "의성군(용곡리)", "desc": "200809#06" }, "geometry": { "type": "Point", "coordinates": [ 325202.570321473875083, 419264.772492021438666, 0.0 ] } },
{ "type": "Feature", "properties": { "Name": "위천", "desc": "200810#01" }, "geometry": { "type": "Point", "coordinates": [ 318298.243679214618169, 422682.691661961318459, 0.0 ] } },
{ "type": "Feature", "properties": { "Name": "낙단보", "desc": "200901#01" }, "geometry": { "type": "Point", "coordinates": [ 317229.697278375853784, 418752.508602632209659, 0.0 ] } },
{ "type": "Feature", "properties": { "Name": "의성군(낙단교)", "desc": "200902#01" }, "geometry": { "type": "Point", "coordinates": [ 316784.22084492322756, 418499.84440436726436, 0.0 ] } },
{ "type": "Feature", "properties": { "Name": "구미시(일선교)", "desc": "200902#02" }, "geometry": { "type": "Point", "coordinates": [ 320629.439326752035413, 409179.522551311471034, 0.0 ] } },
{ "type": "Feature", "properties": { "Name": "구미보", "desc": "200902#03" }, "geometry": { "type": "Point", "coordinates": [ 320885.612976933422033, 405113.283573974564206, 0.0 ] } },
{ "type": "Feature", "properties": { "Name": "김천시(수달교)", "desc": "201001#01" }, "geometry": { "type": "Point", "coordinates": [ 287279.59639493515715, 376474.329742107831407, 0.0 ] } },
{ "type": "Feature", "properties": { "Name": "김천부항댐", "desc": "201001#02" }, "geometry": { "type": "Point", "coordinates": [ 290313.460915582370944, 376258.351334597216919, 0.0 ] } },
{ "type": "Feature", "properties": { "Name": "부항천합류전", "desc": "201002#01" }, "geometry": { "type": "Point", "coordinates": [ 292220.405264981207438, 376000.699875810998492, 0.0 ] } },
{ "type": "Feature", "properties": { "Name": "부항천", "desc": "201002#02" }, "geometry": { "type": "Point", "coordinates": [ 292169.005388136487454, 376123.468089474597946, 0.0 ] } },
{ "type": "Feature", "properties": { "Name": "감천상류", "desc": "201002#03" }, "geometry": { "type": "Point", "coordinates": [ 292594.267044880660251, 376189.588529018335976, 0.0 ] } },
{ "type": "Feature", "properties": { "Name": "김천시(교리교)", "desc": "201003#01" }, "geometry": { "type": "Point", "coordinates": [ 293034.13987803296186, 377242.34419994376367, 0.0 ] } },
{ "type": "Feature", "properties": { "Name": "김천시(지품교)", "desc": "201003#02" }, "geometry": { "type": "Point", "coordinates": [ 293766.612017832696438, 381380.953480634605512, 0.0 ] } },
{ "type": "Feature", "properties": { "Name": "감천중류", "desc": "201003#03" }, "geometry": { "type": "Point", "coordinates": [ 298023.78887458256213, 383616.217770044226199, 0.0 ] } },
{ "type": "Feature", "properties": { "Name": "직지사천", "desc": "201004#01" }, "geometry": { "type": "Point", "coordinates": [ 301544.47481989330845, 393058.916554754134268, 0.0 ] } },
{ "type": "Feature", "properties": { "Name": "아천", "desc": "201006#01" }, "geometry": { "type": "Point", "coordinates": [ 305693.991226650308818, 395296.947718984098174, 0.0 ] } },
{ "type": "Feature", "properties": { "Name": "율곡천", "desc": "201007#01" }, "geometry": { "type": "Point", "coordinates": [ 306045.108461871859618, 395208.713210223941132, 0.0 ] } },
{ "type": "Feature", "properties": { "Name": "대방천합류후", "desc": "201005#01" }, "geometry": { "type": "Point", "coordinates": [ 300623.288325486471877, 383984.755192428070586, 0.0 ] } },
{ "type": "Feature", "properties": { "Name": "김천시(김천교)", "desc": "201005#02" }, "geometry": { "type": "Point", "coordinates": [ 301783.513201393245254, 391859.379448915133253, 0.0 ] } },
{ "type": "Feature", "properties": { "Name": "직지사천합류전", "desc": "201005#03" }, "geometry": { "type": "Point", "coordinates": [ 301926.745207973814104, 392446.790370861126576, 0.0 ] } },
{ "type": "Feature", "properties": { "Name": "아천합류전", "desc": "201005#04" }, "geometry": { "type": "Point", "coordinates": [ 305748.465769252507016, 394927.656160863989498, 0.0 ] } },
{ "type": "Feature", "properties": { "Name": "김천수위표", "desc": "201005#05" }, "geometry": { "type": "Point", "coordinates": [ 306018.612858185020741, 395331.708773169782944, 0.0 ] } },
{ "type": "Feature", "properties": { "Name": "김천시(대동교)", "desc": "201008#01" }, "geometry": { "type": "Point", "coordinates": [ 307350.032311718910933, 396858.60445461893687, 0.0 ] } },
{ "type": "Feature", "properties": { "Name": "대천합류전", "desc": "201008#02" }, "geometry": { "type": "Point", "coordinates": [ 315535.730953719816171, 403591.639095439924859, 0.0 ] } },
{ "type": "Feature", "properties": { "Name": "옥성저수지", "desc": "201008#03" }, "geometry": { "type": "Point", "coordinates": [ 312222.03056926233694, 408727.878285649931058, 0.0 ] } },
{ "type": "Feature", "properties": { "Name": "대천", "desc": "201008#04" }, "geometry": { "type": "Point", "coordinates": [ 315634.001400417997502, 403716.265816423227079, 0.0 ] } },
{ "type": "Feature", "properties": { "Name": "구미시(선주교)", "desc": "201008#05" }, "geometry": { "type": "Point", "coordinates": [ 317677.059683125698939, 404113.585188095574267, 0.0 ] } },
{ "type": "Feature", "properties": { "Name": "감천하류", "desc": "201008#06" }, "geometry": { "type": "Point", "coordinates": [ 321278.220264413102996, 403823.808722793939523, 0.0 ] } },
{ "type": "Feature", "properties": { "Name": "감천합류전", "desc": "201101#01" }, "geometry": { "type": "Point", "coordinates": [ 321498.709690623392817, 404135.196759064332582, 0.0 ] } },
{ "type": "Feature", "properties": { "Name": "한천합류전", "desc": "201101#02" }, "geometry": { "type": "Point", "coordinates": [ 325009.944592333282344, 392684.542932538548484, 0.0 ] } },
{ "type": "Feature", "properties": { "Name": "구미시(양포교)", "desc": "201102#01" }, "geometry": { "type": "Point", "coordinates": [ 328616.238072596490383, 394093.440867219353095, 0.0 ] } },
{ "type": "Feature", "properties": { "Name": "한천", "desc": "201102#02" }, "geometry": { "type": "Point", "coordinates": [ 325432.437031408189796, 392875.581207661656663, 0.0 ] } },
{ "type": "Feature", "properties": { "Name": "구미시(구미대교)", "desc": "201103#01" }, "geometry": { "type": "Point", "coordinates": [ 325730.999801745871082, 391245.785542120574974, 0.0 ] } },
{ "type": "Feature", "properties": { "Name": "칠곡보", "desc": "201103#02" }, "geometry": { "type": "Point", "coordinates": [ 326007.493094265810214, 380705.395002769655548, 0.0 ] } },
{ "type": "Feature", "properties": { "Name": "칠곡군(호국의다리)", "desc": "201104#01" }, "geometry": { "type": "Point", "coordinates": [ 325706.635483364399988, 378974.53960046521388, 0.0 ] } },
{ "type": "Feature", "properties": { "Name": "성주군(성주대교)", "desc": "201104#02" }, "geometry": { "type": "Point", "coordinates": [ 325594.510963075212203, 365746.539195960504003, 0.0 ] } },
{ "type": "Feature", "properties": { "Name": "성주수위표", "desc": "201104#03" }, "geometry": { "type": "Point", "coordinates": [ 325220.248547762166709, 363829.740070828702301, 0.0 ] } },
{ "type": "Feature", "properties": { "Name": "백천상류", "desc": "201105#01" }, "geometry": { "type": "Point", "coordinates": [ 318824.464433093380649, 371017.149906868347898, 0.0 ] } },
{ "type": "Feature", "properties": { "Name": "봉학저수지", "desc": "201106#01" }, "geometry": { "type": "Point", "coordinates": [ 307771.092402209178545, 376824.898612418503035, 0.0 ] } },
{ "type": "Feature", "properties": { "Name": "이천", "desc": "201106#02" }, "geometry": { "type": "Point", "coordinates": [ 318725.431185499182902, 370923.325624822056852, 0.0 ] } },
{ "type": "Feature", "properties": { "Name": "성주군(도성교)", "desc": "201107#01" }, "geometry": { "type": "Point", "coordinates": [ 323314.763363562407903, 365498.58146126876818, 0.0 ] } },
{ "type": "Feature", "properties": { "Name": "백천하류", "desc": "201107#02" }, "geometry": { "type": "Point", "coordinates": [ 324319.585154707194306, 363632.034612605231814, 0.0 ] } },
{ "type": "Feature", "properties": { "Name": "대구시(매곡리)", "desc": "201108#01" }, "geometry": { "type": "Point", "coordinates": [ 330441.361790368333459, 362055.45240243175067, 0.0 ] } },
{ "type": "Feature", "properties": { "Name": "강정고령보", "desc": "201108#02" }, "geometry": { "type": "Point", "coordinates": [ 331957.721468040137552, 361368.848625517042819, 0.0 ] } },
{ "type": "Feature", "properties": { "Name": "영천댐", "desc": "201201#01" }, "geometry": { "type": "Point", "coordinates": [ 381420.252249865501653, 386980.043987976503558, 0.0 ] } },
{ "type": "Feature", "properties": { "Name": "임고천합류전", "desc": "201202#01" }, "geometry": { "type": "Point", "coordinates": [ 378324.118413499265444, 379144.696289178915322, 0.0 ] } },
{ "type": "Feature", "properties": { "Name": "임고저수지", "desc": "201202#02" }, "geometry": { "type": "Point", "coordinates": [ 385640.765484980656765, 385156.196514843730256, 0.0 ] } },
{ "type": "Feature", "properties": { "Name": "임고천", "desc": "201202#03" }, "geometry": { "type": "Point", "coordinates": [ 378448.753152519813739, 379178.066590846283361, 0.0 ] } },
{ "type": "Feature", "properties": { "Name": "영천시(단포교)", "desc": "201202#04" }, "geometry": { "type": "Point", "coordinates": [ 377556.69446770043578, 377432.950256257783622, 0.0 ] } },
{ "type": "Feature", "properties": { "Name": "자호천", "desc": "201202#05" }, "geometry": { "type": "Point", "coordinates": [ 377575.990023578400724, 376477.297823603963479, 0.0 ] } },
{ "type": "Feature", "properties": { "Name": "고촌천", "desc": "201203#01" }, "geometry": { "type": "Point", "coordinates": [ 377676.851412267773412, 376448.494618131197058, 0.0 ] } },
{ "type": "Feature", "properties": { "Name": "영천시(굼이교)", "desc": "201204#01" }, "geometry": { "type": "Point", "coordinates": [ 373047.019195097032934, 396340.267774865613319, 0.0 ] } },
{ "type": "Feature", "properties": { "Name": "보현산댐", "desc": "201204#02" }, "geometry": { "type": "Point", "coordinates": [ 375474.229954456153791, 393798.065981482563075, 0.0 ] } },
{ "type": "Feature", "properties": { "Name": "영천시(자천교)", "desc": "201204#03" }, "geometry": { "type": "Point", "coordinates": [ 372838.970019469445106, 391679.314711199258454, 0.0 ] } },
{ "type": "Feature", "properties": { "Name": "고현천", "desc": "201204#04" }, "geometry": { "type": "Point", "coordinates": [ 372374.770170653006062, 377083.126982887333725, 0.0 ] } },
{ "type": "Feature", "properties": { "Name": "고현천합류전", "desc": "201205#01" }, "geometry": { "type": "Point", "coordinates": [ 372127.213364175637253, 376924.083061424316838, 0.0 ] } },
{ "type": "Feature", "properties": { "Name": "영천시(영양교)", "desc": "201205#02" }, "geometry": { "type": "Point", "coordinates": [ 373032.735646158747841, 375492.414856484509073, 0.0 ] } },
{ "type": "Feature", "properties": { "Name": "신령천", "desc": "201205#03" }, "geometry": { "type": "Point", "coordinates": [ 373265.57774691353552, 375126.927703020628542, 0.0 ] } },
{ "type": "Feature", "properties": { "Name": "영천시(영동교)", "desc": "201206#01" }, "geometry": { "type": "Point", "coordinates": [ 374846.945475417538546, 376299.26717007800471, 0.0 ] } },
{ "type": "Feature", "properties": { "Name": "신령천합류전", "desc": "201206#02" }, "geometry": { "type": "Point", "coordinates": [ 373393.322695036767982, 375006.087459616363049, 0.0 ] } },
{ "type": "Feature", "properties": { "Name": "북안천합류전", "desc": "201206#03" }, "geometry": { "type": "Point", "coordinates": [ 373751.870109762763605, 372083.443031863076612, 0.0 ] } },
{ "type": "Feature", "properties": { "Name": "북안천", "desc": "201206#04" }, "geometry": { "type": "Point", "coordinates": [ 374027.659602542757057, 372088.88748580601532, 0.0 ] } },
{ "type": "Feature", "properties": { "Name": "금호강시점", "desc": "201206#05" }, "geometry": { "type": "Point", "coordinates": [ 373804.446649857854936, 371961.124074884573929, 0.0 ] } },
{ "type": "Feature", "properties": { "Name": "영천시(금창교)", "desc": "201207#01" }, "geometry": { "type": "Point", "coordinates": [ 369265.229246816714294, 371934.408072083897423, 0.0 ] } },
{ "type": "Feature", "properties": { "Name": "금호강상류", "desc": "201207#02" }, "geometry": { "type": "Point", "coordinates": [ 365020.696598804614041, 369571.911539431253914, 0.0 ] } },
{ "type": "Feature", "properties": { "Name": "청통천", "desc": "201208#01" }, "geometry": { "type": "Point", "coordinates": [ 365019.542490144842304, 369633.564377623726614, 0.0 ] } },
{ "type": "Feature", "properties": { "Name": "송림저수지", "desc": "201209#01" }, "geometry": { "type": "Point", "coordinates": [ 372674.502415423223283, 357907.396426960302051, 0.0 ] } },
{ "type": "Feature", "properties": { "Name": "경산시(압량교)", "desc": "201209#02" }, "geometry": { "type": "Point", "coordinates": [ 359568.74595416377997, 363088.481498626177199, 0.0 ] } },
{ "type": "Feature", "properties": { "Name": "오목천", "desc": "201209#03" }, "geometry": { "type": "Point", "coordinates": [ 356149.177359226508997, 363397.401264774787705, 0.0 ] } },
{ "type": "Feature", "properties": { "Name": "대구시(성동교)", "desc": "201210#01" }, "geometry": { "type": "Point", "coordinates": [ 355679.44062514801044, 362988.252751739462838, 0.0 ] } },
{ "type": "Feature", "properties": { "Name": "남천", "desc": "201210#02" }, "geometry": { "type": "Point", "coordinates": [ 354217.428835189435631, 363332.629618755308911, 0.0 ] } },
{ "type": "Feature", "properties": { "Name": "경산시(환상리)", "desc": "201211#01" }, "geometry": { "type": "Point", "coordinates": [ 360619.12688946898561, 366067.78652076527942, 0.0 ] } },
{ "type": "Feature", "properties": { "Name": "오목천합류전", "desc": "201211#02" }, "geometry": { "type": "Point", "coordinates": [ 356170.456939348136075, 363613.62444289738778, 0.0 ] } },
{ "type": "Feature", "properties": { "Name": "대구시(안심교)", "desc": "201211#03" }, "geometry": { "type": "Point", "coordinates": [ 354931.656197567237541, 364116.00454234413337, 0.0 ] } },
{ "type": "Feature", "properties": { "Name": "남천합류전", "desc": "201211#04" }, "geometry": { "type": "Point", "coordinates": [ 354087.115816336590797, 363607.869733494240791, 0.0 ] } },
{ "type": "Feature", "properties": { "Name": "동촌수위표", "desc": "201211#05" }, "geometry": { "type": "Point", "coordinates": [ 348232.994253767130431, 366930.256475355476141, 0.0 ] } },
{ "type": "Feature", "properties": { "Name": "공산댐", "desc": "201212#01" }, "geometry": { "type": "Point", "coordinates": [ 348932.510905554168858, 373047.23508338117972, 0.0 ] } },
{ "type": "Feature", "properties": { "Name": "대구시(동화교)", "desc": "201213#01" }, "geometry": { "type": "Point", "coordinates": [ 344445.006572726008017, 369950.777755797200371, 0.0 ] } },
{ "type": "Feature", "properties": { "Name": "동화천", "desc": "201213#02" }, "geometry": { "type": "Point", "coordinates": [ 344501.220407473505475, 369581.696277359616943, 0.0 ] } },
{ "type": "Feature", "properties": { "Name": "대구시(신암동)", "desc": "201214#01" }, "geometry": { "type": "Point", "coordinates": [ 347624.275595638668165, 367320.891979684354737, 0.0 ] } },
{ "type": "Feature", "properties": { "Name": "동화천합류전", "desc": "201214#02" }, "geometry": { "type": "Point", "coordinates": [ 344702.334536325884983, 369554.161755710665602, 0.0 ] } },
{ "type": "Feature", "properties": { "Name": "대구시(산격대교)", "desc": "201214#03" }, "geometry": { "type": "Point", "coordinates": [ 344458.644967229571193, 369118.49524355866015, 0.0 ] } },
{ "type": "Feature", "properties": { "Name": "금호강중류", "desc": "201214#04" }, "geometry": { "type": "Point", "coordinates": [ 344113.608494220592547, 368742.846851282462012, 0.0 ] } },
{ "type": "Feature", "properties": { "Name": "신천상류", "desc": "201215#01" }, "geometry": { "type": "Point", "coordinates": [ 346987.157912795781158, 357350.991911685327068, 0.0 ] } },
{ "type": "Feature", "properties": { "Name": "대구시(성북교)", "desc": "201216#01" }, "geometry": { "type": "Point", "coordinates": [ 343835.288891168311238, 367350.800250662548933, 0.0 ] } },
{ "type": "Feature", "properties": { "Name": "신천하류", "desc": "201216#02" }, "geometry": { "type": "Point", "coordinates": [ 343769.044803405937273, 368336.387887450342532, 0.0 ] } },
{ "type": "Feature", "properties": { "Name": "팔거천", "desc": "201217#01" }, "geometry": { "type": "Point", "coordinates": [ 339713.994325460982509, 367777.888408402155619, 0.0 ] } },
{ "type": "Feature", "properties": { "Name": "이언천", "desc": "201218#01" }, "geometry": { "type": "Point", "coordinates": [ 335518.913142153411172, 366509.987392705632374, 0.0 ] } },
{ "type": "Feature", "properties": { "Name": "대구시(노곡교)", "desc": "201219#01" }, "geometry": { "type": "Point", "coordinates": [ 341157.329735186183825, 368510.027111358067486, 0.0 ] } },
{ "type": "Feature", "properties": { "Name": "팔거천합류전", "desc": "201219#02" }, "geometry": { "type": "Point", "coordinates": [ 339968.714706892205868, 367535.265079383738339, 0.0 ] } },
{ "type": "Feature", "properties": { "Name": "이언천합류전", "desc": "201219#03" }, "geometry": { "type": "Point", "coordinates": [ 335619.722797807946336, 366480.704252099327277, 0.0 ] } },
{ "type": "Feature", "properties": { "Name": "대구시(강창교)", "desc": "201219#04" }, "geometry": { "type": "Point", "coordinates": [ 332915.689940053154714, 362770.613328139879741, 0.0 ] } },
{ "type": "Feature", "properties": { "Name": "금호강하류", "desc": "201219#05" }, "geometry": { "type": "Point", "coordinates": [ 332834.309014546161052, 361505.304308664810378, 0.0 ] } },
{ "type": "Feature", "properties": { "Name": "성주저수지", "desc": "201301#01" }, "geometry": { "type": "Point", "coordinates": [ 303807.033094283659011, 368761.953421037178487, 0.0 ] } },
{ "type": "Feature", "properties": { "Name": "성주군(가천교)", "desc": "201302#01" }, "geometry": { "type": "Point", "coordinates": [ 305928.615264674415812, 365426.948068992584012, 0.0 ] } },
{ "type": "Feature", "properties": { "Name": "화죽천합류전", "desc": "201302#02" }, "geometry": { "type": "Point", "coordinates": [ 306513.74880916782422, 364755.77677655388834, 0.0 ] } },
{ "type": "Feature", "properties": { "Name": "성주군(화죽교)", "desc": "201302#03" }, "geometry": { "type": "Point", "coordinates": [ 306515.608176504436415, 364601.659982192155439, 0.0 ] } },
{ "type": "Feature", "properties": { "Name": "대가천", "desc": "201302#04" }, "geometry": { "type": "Point", "coordinates": [ 315164.88597205671249, 355523.285599004244432, 0.0 ] } },
{ "type": "Feature", "properties": { "Name": "소가천합류전", "desc": "201303#01" }, "geometry": { "type": "Point", "coordinates": [ 316408.770819832978304, 350699.465930265490897, 0.0 ] } },
{ "type": "Feature", "properties": { "Name": "덕곡저수지", "desc": "201303#02" }, "geometry": { "type": "Point", "coordinates": [ 307341.146253439888824, 356534.787590137042571, 0.0 ] } },
{ "type": "Feature", "properties": { "Name": "소가천", "desc": "201303#03" }, "geometry": { "type": "Point", "coordinates": [ 316181.413407497457229, 350788.970190240768716, 0.0 ] } },
{ "type": "Feature", "properties": { "Name": "고령군(회천교)", "desc": "201303#04" }, "geometry": { "type": "Point", "coordinates": [ 315680.667162246885709, 348716.929033873428125, 0.0 ] } },
{ "type": "Feature", "properties": { "Name": "회천상류", "desc": "201303#05" }, "geometry": { "type": "Point", "coordinates": [ 315853.182702718535438, 347054.454668402555399, 0.0 ] } },
{ "type": "Feature", "properties": { "Name": "이천천합류전", "desc": "201304#01" }, "geometry": { "type": "Point", "coordinates": [ 304314.152516481699422, 349130.945285466499627, 0.0 ] } },
{ "type": "Feature", "properties": { "Name": "죽전저수지", "desc": "201304#02" }, "geometry": { "type": "Point", "coordinates": [ 297995.74915625306312, 350014.533350237994455, 0.0 ] } },
{ "type": "Feature", "properties": { "Name": "이천천", "desc": "201304#03" }, "geometry": { "type": "Point", "coordinates": [ 304264.252709823951591, 349099.532032902468927, 0.0 ] } },
{ "type": "Feature", "properties": { "Name": "합천군(구정리)", "desc": "201304#04" }, "geometry": { "type": "Point", "coordinates": [ 305882.425278116308618, 346190.130856181960553, 0.0 ] } },
{ "type": "Feature", "properties": { "Name": "가야천", "desc": "201304#05" }, "geometry": { "type": "Point", "coordinates": [ 307230.201495038811117, 342846.158676183549687, 0.0 ] } },
{ "type": "Feature", "properties": { "Name": "묘산천", "desc": "201305#01" }, "geometry": { "type": "Point", "coordinates": [ 307155.868837238173001, 342752.782031586044468, 0.0 ] } },
{ "type": "Feature", "properties": { "Name": "고령군(귀원교)", "desc": "201306#01" }, "geometry": { "type": "Point", "coordinates": [ 312185.72745159448823, 342814.811990893795155, 0.0 ] } },
{ "type": "Feature", "properties": { "Name": "안림천", "desc": "201306#02" }, "geometry": { "type": "Point", "coordinates": [ 315854.791127483826131, 346931.162893478176557, 0.0 ] } },
{ "type": "Feature", "properties": { "Name": "고령군(사촌리)", "desc": "201307#01" }, "geometry": { "type": "Point", "coordinates": [ 319568.339236685773358, 345623.923734404612333, 0.0 ] } },
{ "type": "Feature", "properties": { "Name": "고령군(도진교)", "desc": "201307#02" }, "geometry": { "type": "Point", "coordinates": [ 321109.193349613866303, 343270.977699108421803, 0.0 ] } },
{ "type": "Feature", "properties": { "Name": "회천하류", "desc": "201307#03" }, "geometry": { "type": "Point", "coordinates": [ 323597.570299460552633, 336152.91391413542442, 0.0 ] } },
{ "type": "Feature", "properties": { "Name": "진천천", "desc": "201401#01" }, "geometry": { "type": "Point", "coordinates": [ 334530.63479488628218, 358910.283377540356014, 0.0 ] } },
{ "type": "Feature", "properties": { "Name": "진천천합류전", "desc": "201402#01" }, "geometry": { "type": "Point", "coordinates": [ 333624.044423875282519, 359081.530217082705349, 0.0 ] } },
{ "type": "Feature", "properties": { "Name": "대구시(사문진교)", "desc": "201402#02" }, "geometry": { "type": "Point", "coordinates": [ 333261.863609576248564, 358120.298054051061627, 0.0 ] } },
{ "type": "Feature", "properties": { "Name": "기세곡천합류전", "desc": "201402#03" }, "geometry": { "type": "Point", "coordinates": [ 332562.08320414746413, 357893.968818445573561, 0.0 ] } },
{ "type": "Feature", "properties": { "Name": "옥연저수지", "desc": "201402#04" }, "geometry": { "type": "Point", "coordinates": [ 333843.632797307975125, 354521.826991652196739, 0.0 ] } },
{ "type": "Feature", "properties": { "Name": "기세곡천", "desc": "201402#05" }, "geometry": { "type": "Point", "coordinates": [ 332621.537752591306344, 357278.237905431073159, 0.0 ] } },
{ "type": "Feature", "properties": { "Name": "고령군(고령교)", "desc": "201402#06" }, "geometry": { "type": "Point", "coordinates": [ 325494.463967730291188, 351563.277027373784222, 0.0 ] } },
{ "type": "Feature", "properties": { "Name": "달성보", "desc": "201403#01" }, "geometry": { "type": "Point", "coordinates": [ 328643.118592989514582, 349326.966277951258235, 0.0 ] } },
{ "type": "Feature", "properties": { "Name": "대구시(성하리)", "desc": "201404#01" }, "geometry": { "type": "Point", "coordinates": [ 329592.860442169592716, 346257.769284567504656, 0.0 ] } },
{ "type": "Feature", "properties": { "Name": "현풍수위표", "desc": "201404#02" }, "geometry": { "type": "Point", "coordinates": [ 328178.058797943696845, 344973.218155496579129, 0.0 ] } },
{ "type": "Feature", "properties": { "Name": "달창저수지", "desc": "201405#01" }, "geometry": { "type": "Point", "coordinates": [ 333478.220878048916347, 338700.171615799772553, 0.0 ] } },
{ "type": "Feature", "properties": { "Name": "차천", "desc": "201406#01" }, "geometry": { "type": "Point", "coordinates": [ 328105.735563328838907, 344756.366719179030042, 0.0 ] } },
{ "type": "Feature", "properties": { "Name": "대구시(내리)", "desc": "201407#01" }, "geometry": { "type": "Point", "coordinates": [ 326915.200804123771377, 338295.928234975435771, 0.0 ] } },
{ "type": "Feature", "properties": { "Name": "합천군(율지교)", "desc": "201407#02" }, "geometry": { "type": "Point", "coordinates": [ 322824.550622100243345, 335618.141283877193928, 0.0 ] } },
{ "type": "Feature", "properties": { "Name": "합천창녕보", "desc": "201407#03" }, "geometry": { "type": "Point", "coordinates": [ 322854.271578521002084, 333460.552596177440137, 0.0 ] } },
{ "type": "Feature", "properties": { "Name": "웅양저수지", "desc": "201501#01" }, "geometry": { "type": "Point", "coordinates": [ 283934.644177631358616, 359364.426194588886574, 0.0 ] } },
{ "type": "Feature", "properties": { "Name": "계수천", "desc": "201501#02" }, "geometry": { "type": "Point", "coordinates": [ 283674.60481357522076, 349682.953133400704246, 0.0 ] } },
{ "type": "Feature", "properties": { "Name": "계수천합류전", "desc": "201502#01" }, "geometry": { "type": "Point", "coordinates": [ 283624.638904254301451, 349651.65740887040738, 0.0 ] } },
{ "type": "Feature", "properties": { "Name": "거창군(의동교)", "desc": "201502#02" }, "geometry": { "type": "Point", "coordinates": [ 283751.902390116418246, 346816.996463854797184, 0.0 ] } },
{ "type": "Feature", "properties": { "Name": "황강상류", "desc": "201502#03" }, "geometry": { "type": "Point", "coordinates": [ 283902.321220484562218, 344198.336712462070864, 0.0 ] } },
{ "type": "Feature", "properties": { "Name": "거창위천상류", "desc": "201503#01" }, "geometry": { "type": "Point", "coordinates": [ 277275.788384160434362, 348607.720683989871759, 0.0 ] } },
{ "type": "Feature", "properties": { "Name": "거창군(거열교)", "desc": "201504#01" }, "geometry": { "type": "Point", "coordinates": [ 281270.684076773934066, 343249.160981085326057, 0.0 ] } },
{ "type": "Feature", "properties": { "Name": "거창위천하류", "desc": "201504#02" }, "geometry": { "type": "Point", "coordinates": [ 283804.361498850514181, 343919.993067042436451, 0.0 ] } },
{ "type": "Feature", "properties": { "Name": "거창군(남하교)", "desc": "201505#01" }, "geometry": { "type": "Point", "coordinates": [ 285180.470698939228896, 342021.955904491944239, 0.0 ] } },
{ "type": "Feature", "properties": { "Name": "합천댐상류", "desc": "201505#02" }, "geometry": { "type": "Point", "coordinates": [ 290636.671731823298614, 337267.201810454134829, 0.0 ] } },
{ "type": "Feature", "properties": { "Name": "가북저수지", "desc": "201506#01" }, "geometry": { "type": "Point", "coordinates": [ 290564.034151036757976, 354251.116805213212501, 0.0 ] } },
{ "type": "Feature", "properties": { "Name": "거창군(지산교)", "desc": "201506#02" }, "geometry": { "type": "Point", "coordinates": [ 291826.448399545624852, 341471.581926047219895, 0.0 ] } },
{ "type": "Feature", "properties": { "Name": "가천천", "desc": "201506#03" }, "geometry": { "type": "Point", "coordinates": [ 290704.944197752978653, 337976.866424436331727, 0.0 ] } },
{ "type": "Feature", "properties": { "Name": "합천군(술곡교)", "desc": "201507#01" }, "geometry": { "type": "Point", "coordinates": [ 289632.76073072978761, 331986.051923361315858, 0.0 ] } },
{ "type": "Feature", "properties": { "Name": "사천천", "desc": "201507#02" }, "geometry": { "type": "Point", "coordinates": [ 290770.498181170783937, 331535.183651213883422, 0.0 ] } },
{ "type": "Feature", "properties": { "Name": "사천천합류전", "desc": "201508#01" }, "geometry": { "type": "Point", "coordinates": [ 293276.19085309759248, 330328.027550196915399, 0.0 ] } },
{ "type": "Feature", "properties": { "Name": "합천댐", "desc": "201508#02" }, "geometry": { "type": "Point", "coordinates": [ 293590.00623815174913, 326817.301212341641076, 0.0 ] } },
{ "type": "Feature", "properties": { "Name": "합천군(합천댐방수로)", "desc": "201601#01" }, "geometry": { "type": "Point", "coordinates": [ 296977.404134362121113, 328117.228479880606756, 0.0 ] } },
{ "type": "Feature", "properties": { "Name": "합천조정지", "desc": "201601#02" }, "geometry": { "type": "Point", "coordinates": [ 298318.911755426903255, 327546.210133332875557, 0.0 ] } },
{ "type": "Feature", "properties": { "Name": "합천군(남정교)", "desc": "201601#03" }, "geometry": { "type": "Point", "coordinates": [ 305222.303759833564982, 329690.156143184110988, 0.0 ] } },
{ "type": "Feature", "properties": { "Name": "합천수위표하류", "desc": "201602#01" }, "geometry": { "type": "Point", "coordinates": [ 309433.536495576670859, 331374.569966661685612, 0.0 ] } },
{ "type": "Feature", "properties": { "Name": "합천군(기리교)", "desc": "201603#01" }, "geometry": { "type": "Point", "coordinates": [ 310537.254861187946517, 335796.409899507649243, 0.0 ] } },
{ "type": "Feature", "properties": { "Name": "합천군(황강교)", "desc": "201603#02" }, "geometry": { "type": "Point", "coordinates": [ 317089.96620203909697, 331379.233110951201525, 0.0 ] } },
{ "type": "Feature", "properties": { "Name": "황강합류후", "desc": "201604#01" }, "geometry": { "type": "Point", "coordinates": [ 322929.250035424542148, 331673.534707093902398, 0.0 ] } },
{ "type": "Feature", "properties": { "Name": "합천군(적포교)", "desc": "201701#01" }, "geometry": { "type": "Point", "coordinates": [ 323352.845709095709026, 326531.043271561153233, 0.0 ] } },
{ "type": "Feature", "properties": { "Name": "토평천합류전", "desc": "201701#02" }, "geometry": { "type": "Point", "coordinates": [ 324323.58360232017003, 325588.809485729550943, 0.0 ] } },
{ "type": "Feature", "properties": { "Name": "창녕군(유어교)", "desc": "201701#03" }, "geometry": { "type": "Point", "coordinates": [ 324877.098863098886795, 325658.177347278397065, 0.0 ] } },
{ "type": "Feature", "properties": { "Name": "적포교수위표", "desc": "201701#04" }, "geometry": { "type": "Point", "coordinates": [ 324501.692048436030746, 325467.973605724982917, 0.0 ] } },
{ "type": "Feature", "properties": { "Name": "의령군(세간교)", "desc": "201702#01" }, "geometry": { "type": "Point", "coordinates": [ 322549.166307001723908, 317117.484819686564151, 0.0 ] } },
{ "type": "Feature", "properties": { "Name": "유곡천", "desc": "201702#02" }, "geometry": { "type": "Point", "coordinates": [ 322495.238337693561334, 321062.700597678311169, 0.0 ] } },
{ "type": "Feature", "properties": { "Name": "유곡천합류전", "desc": "201703#01" }, "geometry": { "type": "Point", "coordinates": [ 322444.39400765823666, 321092.833279496058822, 0.0 ] } },
{ "type": "Feature", "properties": { "Name": "의령군(대곡교)", "desc": "201703#02" }, "geometry": { "type": "Point", "coordinates": [ 322310.339471630461048, 321676.730727994116023, 0.0 ] } },
{ "type": "Feature", "properties": { "Name": "신반천", "desc": "201703#03" }, "geometry": { "type": "Point", "coordinates": [ 324280.894025361747481, 325033.306737747741863, 0.0 ] } },
{ "type": "Feature", "properties": { "Name": "의령군(여의리)", "desc": "201704#01" }, "geometry": { "type": "Point", "coordinates": [ 327527.205710902344435, 323630.04625334602315, 0.0 ] } },
{ "type": "Feature", "properties": { "Name": "마수원수위표", "desc": "201704#02" }, "geometry": { "type": "Point", "coordinates": [ 328492.50553804053925, 323119.762926967872772, 0.0 ] } },
{ "type": "Feature", "properties": { "Name": "남강합류전", "desc": "201705#01" }, "geometry": { "type": "Point", "coordinates": [ 330395.653093242552131, 311863.937888949119952, 0.0 ] } },
{ "type": "Feature", "properties": { "Name": "서상저수지", "desc": "201801#01" }, "geometry": { "type": "Point", "coordinates": [ 261938.515981559728971, 345959.973221586667933, 0.0 ] } },
{ "type": "Feature", "properties": { "Name": "남강상류", "desc": "201801#02" }, "geometry": { "type": "Point", "coordinates": [ 270408.914241668418981, 336622.034918317222036, 0.0 ] } },
{ "type": "Feature", "properties": { "Name": "함양군(안의교)", "desc": "201802#01" }, "geometry": { "type": "Point", "coordinates": [ 273700.881249125523027, 337203.471755978302099, 0.0 ] } },
{ "type": "Feature", "properties": { "Name": "함양군(금천리)", "desc": "201802#02" }, "geometry": { "type": "Point", "coordinates": [ 273853.392324826389086, 337019.795751722005662, 0.0 ] } },
{ "type": "Feature", "properties": { "Name": "함양위천합류전", "desc": "201802#03" }, "geometry": { "type": "Point", "coordinates": [ 271283.691065175342374, 324762.269425925449468, 0.0 ] } },
{ "type": "Feature", "properties": { "Name": "옥계저수지", "desc": "201803#01" }, "geometry": { "type": "Point", "coordinates": [ 261754.692265096819028, 328944.815035348467063, 0.0 ] } },
{ "type": "Feature", "properties": { "Name": "함양군(용평리)", "desc": "201803#02" }, "geometry": { "type": "Point", "coordinates": [ 266347.863654416636564, 324323.614801550633274, 0.0 ] } },
{ "type": "Feature", "properties": { "Name": "함양군(대웅교)", "desc": "201803#03" }, "geometry": { "type": "Point", "coordinates": [ 271184.615706800890621, 324545.723979275848251, 0.0 ] } },
{ "type": "Feature", "properties": { "Name": "람천", "desc": "201804#01" }, "geometry": { "type": "Point", "coordinates": [ 258941.1295644082129, 312498.071828268643003, 0.0 ] } },
{ "type": "Feature", "properties": { "Name": "함양군(의탄리)", "desc": "201805#01" }, "geometry": { "type": "Point", "coordinates": [ 262023.906231989676598, 311871.587275076424703, 0.0 ] } },
{ "type": "Feature", "properties": { "Name": "함양군(화촌리)", "desc": "201805#02" }, "geometry": { "type": "Point", "coordinates": [ 271809.645220997859724, 318879.420694728207309, 0.0 ] } },
{ "type": "Feature", "properties": { "Name": "임천", "desc": "201805#03" }, "geometry": { "type": "Point", "coordinates": [ 273356.800519836018793, 320864.577513290103525, 0.0 ] } },
{ "type": "Feature", "properties": { "Name": "임천합류전", "desc": "201806#01" }, "geometry": { "type": "Point", "coordinates": [ 273355.790890980279073, 320987.858702607161831, 0.0 ] } },
{ "type": "Feature", "properties": { "Name": "산청군(고읍교)", "desc": "201806#02" }, "geometry": { "type": "Point", "coordinates": [ 275264.921002642950043, 321805.08374654740328, 0.0 ] } },
{ "type": "Feature", "properties": { "Name": "산청군(경호교)", "desc": "201806#03" }, "geometry": { "type": "Point", "coordinates": [ 279394.099665738351177, 313826.828789942839649, 0.0 ] } },
{ "type": "Feature", "properties": { "Name": "산청수위표", "desc": "201806#04" }, "geometry": { "type": "Point", "coordinates": [ 280883.751017867820337, 310911.975727152370382, 0.0 ] } },
{ "type": "Feature", "properties": { "Name": "산청군(수산교)", "desc": "201807#01" }, "geometry": { "type": "Point", "coordinates": [ 285433.07620193483308, 304943.615979239111766, 0.0 ] } },
{ "type": "Feature", "properties": { "Name": "양천합류전", "desc": "201807#02" }, "geometry": { "type": "Point", "coordinates": [ 287922.741714735922869, 300868.14055963314604, 0.0 ] } },
{ "type": "Feature", "properties": { "Name": "상법천합류전", "desc": "201808#01" }, "geometry": { "type": "Point", "coordinates": [ 292812.208045928971842, 311890.313532860542182, 0.0 ] } },
{ "type": "Feature", "properties": { "Name": "손항저수지", "desc": "201808#02" }, "geometry": { "type": "Point", "coordinates": [ 289292.03422864706954, 315645.929202959407121, 0.0 ] } },
{ "type": "Feature", "properties": { "Name": "상법천", "desc": "201808#03" }, "geometry": { "type": "Point", "coordinates": [ 292584.137446574633941, 311980.431639184651431, 0.0 ] } },
{ "type": "Feature", "properties": { "Name": "단계천합류전", "desc": "201808#04" }, "geometry": { "type": "Point", "coordinates": [ 292840.217682395712472, 309178.115829759393819, 0.0 ] } },
{ "type": "Feature", "properties": { "Name": "율현저수지", "desc": "201808#05" }, "geometry": { "type": "Point", "coordinates": [ 288401.55456335877534, 313849.351605836534873, 0.0 ] } },
{ "type": "Feature", "properties": { "Name": "단계천", "desc": "201808#06" }, "geometry": { "type": "Point", "coordinates": [ 292638.909279864805285, 309114.39247808494838, 0.0 ] } },
{ "type": "Feature", "properties": { "Name": "산청군(소이교)", "desc": "201808#07" }, "geometry": { "type": "Point", "coordinates": [ 291544.522771728341468, 307500.364410470239818, 0.0 ] } },
{ "type": "Feature", "properties": { "Name": "신등천", "desc": "201808#08" }, "geometry": { "type": "Point", "coordinates": [ 291529.115551778813824, 304047.99185023055179, 0.0 ] } },
{ "type": "Feature", "properties": { "Name": "합천군(소오리)", "desc": "201809#01" }, "geometry": { "type": "Point", "coordinates": [ 301499.624860272626393, 313648.797006758919451, 0.0 ] } },
{ "type": "Feature", "properties": { "Name": "신등천합류전", "desc": "201809#02" }, "geometry": { "type": "Point", "coordinates": [ 291656.969749657204375, 303895.175469701120164, 0.0 ] } },
{ "type": "Feature", "properties": { "Name": "산청군(하정리)", "desc": "201809#03" }, "geometry": { "type": "Point", "coordinates": [ 290605.445407164399512, 302959.84341338527156, 0.0 ] } },
{ "type": "Feature", "properties": { "Name": "양천", "desc": "201809#04" }, "geometry": { "type": "Point", "coordinates": [ 288302.636571227572858, 300779.384309393179137, 0.0 ] } },
{ "type": "Feature", "properties": { "Name": "산청군(묵곡교)", "desc": "201810#01" }, "geometry": { "type": "Point", "coordinates": [ 287461.512997268117033, 298921.82722631766228, 0.0 ] } },
{ "type": "Feature", "properties": { "Name": "남강댐상류", "desc": "201810#02" }, "geometry": { "type": "Point", "coordinates": [ 287855.959598333691247, 292144.709072383237071, 0.0 ] } },
{ "type": "Feature", "properties": { "Name": "산청군(원리교)", "desc": "201811#01" }, "geometry": { "type": "Point", "coordinates": [ 276095.692677383194678, 298079.100862958526704, 0.0 ] } },
{ "type": "Feature", "properties": { "Name": "시천천", "desc": "201812#01" }, "geometry": { "type": "Point", "coordinates": [ 276096.212356206146069, 298017.462190652498975, 0.0 ] } },
{ "type": "Feature", "properties": { "Name": "산청군(창촌리)", "desc": "201813#01" }, "geometry": { "type": "Point", "coordinates": [ 281232.814573704265058, 297384.147344964847434, 0.0 ] } },
{ "type": "Feature", "properties": { "Name": "호계천합류전", "desc": "201813#02" }, "geometry": { "type": "Point", "coordinates": [ 281559.496440478076693, 289188.49619130929932, 0.0 ] } },
{ "type": "Feature", "properties": { "Name": "옥종저수지", "desc": "201813#03" }, "geometry": { "type": "Point", "coordinates": [ 275281.178036396100651, 289658.065923121874221, 0.0 ] } },
{ "type": "Feature", "properties": { "Name": "호계천", "desc": "201813#04" }, "geometry": { "type": "Point", "coordinates": [ 281510.009801419975702, 289064.764098574058153, 0.0 ] } },
{ "type": "Feature", "properties": { "Name": "하동군(대곡리)", "desc": "201813#05" }, "geometry": { "type": "Point", "coordinates": [ 283853.183357866539154, 287390.967604732955806, 0.0 ] } },
{ "type": "Feature", "properties": { "Name": "덕천강하류", "desc": "201813#06" }, "geometry": { "type": "Point", "coordinates": [ 285851.669149345776532, 284789.830835087457672, 0.0 ] } },
{ "type": "Feature", "properties": { "Name": "덕천강합류전", "desc": "201814#01" }, "geometry": { "type": "Point", "coordinates": [ 293860.232610345061403, 286317.873273767763749, 0.0 ] } },
{ "type": "Feature", "properties": { "Name": "덕천강", "desc": "201814#02" }, "geometry": { "type": "Point", "coordinates": [ 293535.058945786789991, 285944.639138289960101, 0.0 ] } },
{ "type": "Feature", "properties": { "Name": "남강댐", "desc": "201814#03" }, "geometry": { "type": "Point", "coordinates": [ 294272.838891758932732, 285582.411550358287059, 0.0 ] } },
{ "type": "Feature", "properties": { "Name": "진주시(장대동)", "desc": "201901#01" }, "geometry": { "type": "Point", "coordinates": [ 298972.309076376026496, 288684.015884016407654, 0.0 ] } },
{ "type": "Feature", "properties": { "Name": "영천강합류전", "desc": "201901#02" }, "geometry": { "type": "Point", "coordinates": [ 302974.736085569718853, 288297.118449075031094, 0.0 ] } },
{ "type": "Feature", "properties": { "Name": "고성군(두문교)", "desc": "201902#01" }, "geometry": { "type": "Point", "coordinates": [ 308606.41744713159278, 278684.100642983918078, 0.0 ] } },
{ "type": "Feature", "properties": { "Name": "진주시(옥산교)", "desc": "201902#02" }, "geometry": { "type": "Point", "coordinates": [ 305356.857456626370549, 285827.775303847156465, 0.0 ] } },
{ "type": "Feature", "properties": { "Name": "영천강", "desc": "201902#03" }, "geometry": { "type": "Point", "coordinates": [ 303227.053762925614137, 288361.638869105896447, 0.0 ] } },
{ "type": "Feature", "properties": { "Name": "진주시(덕오리)", "desc": "201903#01" }, "geometry": { "type": "Point", "coordinates": [ 303492.143393020844087, 293943.806265493738465, 0.0 ] } },
{ "type": "Feature", "properties": { "Name": "진주시(월강교)", "desc": "201903#02" }, "geometry": { "type": "Point", "coordinates": [ 309150.3509597221273, 292407.47807707026368, 0.0 ] } },
{ "type": "Feature", "properties": { "Name": "반성천합류후", "desc": "201903#03" }, "geometry": { "type": "Point", "coordinates": [ 311263.908695348014589, 291261.887171589711215, 0.0 ] } },
{ "type": "Feature", "properties": { "Name": "반성천", "desc": "201904#01" }, "geometry": { "type": "Point", "coordinates": [ 311467.782064312486909, 291141.097070217540022, 0.0 ] } },
{ "type": "Feature", "properties": { "Name": "진주시(장박교)", "desc": "201905#01" }, "geometry": { "type": "Point", "coordinates": [ 315779.010193864174653, 296250.646943335188553, 0.0 ] } },
{ "type": "Feature", "properties": { "Name": "의령군(정암교)", "desc": "201905#02" }, "geometry": { "type": "Point", "coordinates": [ 317794.785899902926758, 302596.077825482934713, 0.0 ] } },
{ "type": "Feature", "properties": { "Name": "정암수위표", "desc": "201905#03" }, "geometry": { "type": "Point", "coordinates": [ 319824.698693968704902, 303855.902501655684318, 0.0 ] } },
{ "type": "Feature", "properties": { "Name": "석교천", "desc": "201906#01" }, "geometry": { "type": "Point", "coordinates": [ 319854.058516456396319, 303548.026532416814007, 0.0 ] } },
{ "type": "Feature", "properties": { "Name": "가례천합류전", "desc": "201907#01" }, "geometry": { "type": "Point", "coordinates": [ 312907.838988399307709, 303427.476081194472499, 0.0 ] } },
{ "type": "Feature", "properties": { "Name": "서암저수지", "desc": "201907#02" }, "geometry": { "type": "Point", "coordinates": [ 313127.596154391590971, 308054.111795916396659, 0.0 ] } },
{ "type": "Feature", "properties": { "Name": "가례천", "desc": "201907#03" }, "geometry": { "type": "Point", "coordinates": [ 312983.233544102055021, 303459.246925252024084, 0.0 ] } },
{ "type": "Feature", "properties": { "Name": "의령군(공단교)", "desc": "201907#04" }, "geometry": { "type": "Point", "coordinates": [ 315363.621114212146495, 303027.020660192763899, 0.0 ] } },
{ "type": "Feature", "properties": { "Name": "의령천", "desc": "201907#05" }, "geometry": { "type": "Point", "coordinates": [ 319671.503106055490207, 303977.172739329980686, 0.0 ] } },
{ "type": "Feature", "properties": { "Name": "함안천합류전", "desc": "201908#01" }, "geometry": { "type": "Point", "coordinates": [ 326754.220177475130185, 305153.014922829403076, 0.0 ] } },
{ "type": "Feature", "properties": { "Name": "함안군(대사교)", "desc": "201909#01" }, "geometry": { "type": "Point", "coordinates": [ 329736.734871287073474, 296255.3971321497811, 0.0 ] } },
{ "type": "Feature", "properties": { "Name": "함안군(서촌리)", "desc": "201909#02" }, "geometry": { "type": "Point", "coordinates": [ 327340.350579350837506, 304791.351118207559921, 0.0 ] } },
{ "type": "Feature", "properties": { "Name": "함안천", "desc": "201909#03" }, "geometry": { "type": "Point", "coordinates": [ 327262.40007981803501, 304944.388030571106356, 0.0 ] } },
{ "type": "Feature", "properties": { "Name": "함안군(송도교)", "desc": "201910#01" }, "geometry": { "type": "Point", "coordinates": [ 328607.059428752341773, 308077.120313700754195, 0.0 ] } },
{ "type": "Feature", "properties": { "Name": "의령군(성산리)", "desc": "201910#02" }, "geometry": { "type": "Point", "coordinates": [ 329923.707168965018354, 311333.017392247740645, 0.0 ] } },
{ "type": "Feature", "properties": { "Name": "남강하류", "desc": "201910#03" }, "geometry": { "type": "Point", "coordinates": [ 330273.931698702974245, 311553.887077216000762, 0.0 ] } },
{ "type": "Feature", "properties": { "Name": "함안군(계내리)", "desc": "202001#01" }, "geometry": { "type": "Point", "coordinates": [ 334680.287284881924279, 310632.315787781146355, 0.0 ] } },
{ "type": "Feature", "properties": { "Name": "창녕군(강리)", "desc": "202002#01" }, "geometry": { "type": "Point", "coordinates": [ 332766.348589889588766, 318835.195022384054027, 0.0 ] } },
{ "type": "Feature", "properties": { "Name": "계성천", "desc": "202002#02" }, "geometry": { "type": "Point", "coordinates": [ 337121.530985951889306, 312796.464118080504704, 0.0 ] } },
{ "type": "Feature", "properties": { "Name": "함안군(소랑교)", "desc": "202003#01" }, "geometry": { "type": "Point", "coordinates": [ 338515.153941751690581, 310813.911014843266457, 0.0 ] } },
{ "type": "Feature", "properties": { "Name": "계성천합류전", "desc": "202004#01" }, "geometry": { "type": "Point", "coordinates": [ 336924.811477156006731, 312454.337979019328486, 0.0 ] } },
{ "type": "Feature", "properties": { "Name": "광려천합류전", "desc": "202004#02" }, "geometry": { "type": "Point", "coordinates": [ 338810.436611926415935, 311311.742941212025471, 0.0 ] } },
{ "type": "Feature", "properties": { "Name": "창녕함안보", "desc": "202004#03" }, "geometry": { "type": "Point", "coordinates": [ 340994.639436410157941, 310482.501769349910319, 0.0 ] } },
{ "type": "Feature", "properties": { "Name": "창녕군(청암리)", "desc": "202005#01" }, "geometry": { "type": "Point", "coordinates": [ 345541.134890031011309, 311942.351340422406793, 0.0 ] } },
{ "type": "Feature", "properties": { "Name": "신천합류후", "desc": "202006#01" }, "geometry": { "type": "Point", "coordinates": [ 349568.409616963472217, 309634.459399472572841, 0.0 ] } },
{ "type": "Feature", "properties": { "Name": "밀양시(판곡교)", "desc": "202007#01" }, "geometry": { "type": "Point", "coordinates": [ 350029.702644460310694, 324318.137510867905803, 0.0 ] } },
{ "type": "Feature", "properties": { "Name": "밀양시(인교)", "desc": "202007#02" }, "geometry": { "type": "Point", "coordinates": [ 349949.265703682089224, 315560.487010848126374, 0.0 ] } },
{ "type": "Feature", "properties": { "Name": "청도천", "desc": "202007#03" }, "geometry": { "type": "Point", "coordinates": [ 349757.541477393941022, 310408.395571890985593, 0.0 ] } },
{ "type": "Feature", "properties": { "Name": "주천강", "desc": "202008#01" }, "geometry": { "type": "Point", "coordinates": [ 359139.087355757597834, 306807.936467874736991, 0.0 ] } },
{ "type": "Feature", "properties": { "Name": "진례저수지", "desc": "202009#01" }, "geometry": { "type": "Point", "coordinates": [ 358436.73801976244431, 293568.374816681549419, 0.0 ] } },
{ "type": "Feature", "properties": { "Name": "김해시(오서교)", "desc": "202009#02" }, "geometry": { "type": "Point", "coordinates": [ 364991.616222265758552, 305895.791431613324676, 0.0 ] } },
{ "type": "Feature", "properties": { "Name": "화포천", "desc": "202009#03" }, "geometry": { "type": "Point", "coordinates": [ 364126.065957347105723, 307637.506038922874723, 0.0 ] } },
{ "type": "Feature", "properties": { "Name": "창원시(수산대교)", "desc": "202010#01" }, "geometry": { "type": "Point", "coordinates": [ 355841.185621814976912, 309062.668655764136929, 0.0 ] } },
{ "type": "Feature", "properties": { "Name": "주천강합류전", "desc": "202010#02" }, "geometry": { "type": "Point", "coordinates": [ 359080.95023766043596, 307238.571032066829503, 0.0 ] } },
{ "type": "Feature", "properties": { "Name": "화포천합류전", "desc": "202010#03" }, "geometry": { "type": "Point", "coordinates": [ 363280.41274086793419, 308300.465961789654102, 0.0 ] } },
{ "type": "Feature", "properties": { "Name": "밀양강합류전", "desc": "202010#04" }, "geometry": { "type": "Point", "coordinates": [ 364474.298878593603149, 310696.441770616394933, 0.0 ] } },
{ "type": "Feature", "properties": { "Name": "경주시(의곡교)", "desc": "202101#01" }, "geometry": { "type": "Point", "coordinates": [ 385208.838366570766084, 353195.511710774444509, 0.0 ] } },
{ "type": "Feature", "properties": { "Name": "경주시(매곡교)", "desc": "202101#02" }, "geometry": { "type": "Point", "coordinates": [ 379400.863306723418646, 353261.095458424417302, 0.0 ] } },
{ "type": "Feature", "properties": { "Name": "운문천합류전", "desc": "202101#03" }, "geometry": { "type": "Point", "coordinates": [ 375267.602222266898025, 350002.054495337652043, 0.0 ] } },
{ "type": "Feature", "properties": { "Name": "청도군(신원1교)", "desc": "202101#04" }, "geometry": { "type": "Point", "coordinates": [ 377626.507284176186658, 345207.303230581688695, 0.0 ] } },
{ "type": "Feature", "properties": { "Name": "운문천", "desc": "202101#05" }, "geometry": { "type": "Point", "coordinates": [ 375324.57114074320998, 349663.959283273376059, 0.0 ] } },
{ "type": "Feature", "properties": { "Name": "운문댐", "desc": "202101#06" }, "geometry": { "type": "Point", "coordinates": [ 373601.673564136726782, 349044.167671705363318, 0.0 ] } },
{ "type": "Feature", "properties": { "Name": "청도군(임당교)", "desc": "202102#01" }, "geometry": { "type": "Point", "coordinates": [ 373411.560008016065694, 347190.184698589844629, 0.0 ] } },
{ "type": "Feature", "properties": { "Name": "청도군(매전교)", "desc": "202102#02" }, "geometry": { "type": "Point", "coordinates": [ 368955.087831897777505, 343465.550544038473163, 0.0 ] } },
{ "type": "Feature", "properties": { "Name": "동창천", "desc": "202102#03" }, "geometry": { "type": "Point", "coordinates": [ 360766.002294494013768, 331565.657076448143926, 0.0 ] } },
{ "type": "Feature", "properties": { "Name": "청도천상류", "desc": "202103#01" }, "geometry": { "type": "Point", "coordinates": [ 348235.009810106130317, 339766.067644984344952, 0.0 ] } },
{ "type": "Feature", "properties": { "Name": "청도군(원리)", "desc": "202104#01" }, "geometry": { "type": "Point", "coordinates": [ 359731.431313818902709, 337282.300642585323658, 0.0 ] } },
{ "type": "Feature", "properties": { "Name": "청도천하류", "desc": "202104#02" }, "geometry": { "type": "Point", "coordinates": [ 360511.378435056423768, 331715.247718094440643, 0.0 ] } },
{ "type": "Feature", "properties": { "Name": "양산시(대리)", "desc": "202105#01" }, "geometry": { "type": "Point", "coordinates": [ 379803.195655597024597, 322060.642474667693023, 0.0 ] } },
{ "type": "Feature", "properties": { "Name": "밀양댐", "desc": "202105#02" }, "geometry": { "type": "Point", "coordinates": [ 375513.802576585905626, 322129.737729452201165, 0.0 ] } },
{ "type": "Feature", "properties": { "Name": "밀양댐하류", "desc": "202105#03" }, "geometry": { "type": "Point", "coordinates": [ 374281.341766530531459, 325836.913815956388135, 0.0 ] } },
{ "type": "Feature", "properties": { "Name": "동천", "desc": "202106#01" }, "geometry": { "type": "Point", "coordinates": [ 368039.486829611822031, 326611.704385634511709, 0.0 ] } },
{ "type": "Feature", "properties": { "Name": "단장-동천합류전", "desc": "202107#01" }, "geometry": { "type": "Point", "coordinates": [ 368044.700065518612973, 326334.281513908936176, 0.0 ] } },
{ "type": "Feature", "properties": { "Name": "밀양시(금곡리)", "desc": "202107#02" }, "geometry": { "type": "Point", "coordinates": [ 366883.843248062650673, 325048.292230944382027, 0.0 ] } },
{ "type": "Feature", "properties": { "Name": "단장천", "desc": "202107#03" }, "geometry": { "type": "Point", "coordinates": [ 361987.448579611023888, 323940.763103011704516, 0.0 ] } },
{ "type": "Feature", "properties": { "Name": "밀양시(상동교)", "desc": "202108#01" }, "geometry": { "type": "Point", "coordinates": [ 359993.545406253426336, 331089.263761662237812, 0.0 ] } },
{ "type": "Feature", "properties": { "Name": "단장천합류전", "desc": "202108#02" }, "geometry": { "type": "Point", "coordinates": [ 361907.366617019521073, 324185.989013454469386, 0.0 ] } },
{ "type": "Feature", "properties": { "Name": "밀양시(용평동)", "desc": "202108#03" }, "geometry": { "type": "Point", "coordinates": [ 361519.086164614534937, 323346.446782863989938, 0.0 ] } },
{ "type": "Feature", "properties": { "Name": "밀양수위표", "desc": "202108#04" }, "geometry": { "type": "Point", "coordinates": [ 360245.591253801889252, 322645.210369343636557, 0.0 ] } },
{ "type": "Feature", "properties": { "Name": "밀양시(남천교)", "desc": "202109#01" }, "geometry": { "type": "Point", "coordinates": [ 358554.316334397648461, 322738.435546982393134, 0.0 ] } },
{ "type": "Feature", "properties": { "Name": "밀양시(남포동)", "desc": "202109#02" }, "geometry": { "type": "Point", "coordinates": [ 362012.851492615765892, 319747.760070222429931, 0.0 ] } },
{ "type": "Feature", "properties": { "Name": "밀양시(삼상교)", "desc": "202109#03" }, "geometry": { "type": "Point", "coordinates": [ 363021.524645909026731, 314215.889146533794701, 0.0 ] } },
{ "type": "Feature", "properties": { "Name": "밀양강", "desc": "202109#04" }, "geometry": { "type": "Point", "coordinates": [ 364569.633072657627054, 311006.528739961737301, 0.0 ] } },
{ "type": "Feature", "properties": { "Name": "밀양시(삼랑진교)", "desc": "202201#01" }, "geometry": { "type": "Point", "coordinates": [ 365531.158881894662045, 310900.847309004282579, 0.0 ] } },
{ "type": "Feature", "properties": { "Name": "원동천합류전", "desc": "202201#02" }, "geometry": { "type": "Point", "coordinates": [ 373925.127590873860754, 309085.845009690674488, 0.0 ] } },
{ "type": "Feature", "properties": { "Name": "김해시(월촌리)", "desc": "202202#01" }, "geometry": { "type": "Point", "coordinates": [ 382436.769760569208302, 300404.122106960625388, 0.0 ] } },
{ "type": "Feature", "properties": { "Name": "양산시(효충교)", "desc": "202203#01" }, "geometry": { "type": "Point", "coordinates": [ 386031.58751727984054, 311209.248442733951379, 0.0 ] } },
{ "type": "Feature", "properties": { "Name": "양산천상류", "desc": "202203#02" }, "geometry": { "type": "Point", "coordinates": [ 385798.246336165640969, 310279.268972032354213, 0.0 ] } },
{ "type": "Feature", "properties": { "Name": "양산시(양산교)", "desc": "202204#01" }, "geometry": { "type": "Point", "coordinates": [ 385099.679510347079486, 308630.434693970659282, 0.0 ] } },
{ "type": "Feature", "properties": { "Name": "양산시(호포대교)", "desc": "202204#02" }, "geometry": { "type": "Point", "coordinates": [ 383035.243601569905877, 300817.131274963903707, 0.0 ] } },
{ "type": "Feature", "properties": { "Name": "부산시(구포대교)", "desc": "202205#01" }, "geometry": { "type": "Point", "coordinates": [ 381370.251308700884692, 291809.991550222213846, 0.0 ] } },
{ "type": "Feature", "properties": { "Name": "김해시(정천교)", "desc": "202206#01" }, "geometry": { "type": "Point", "coordinates": [ 366951.66692566301208, 291439.913293950667139, 0.0 ] } },
{ "type": "Feature", "properties": { "Name": "조만강", "desc": "202206#02" }, "geometry": { "type": "Point", "coordinates": [ 372198.184621877735481, 287036.39949024427915, 0.0 ] } },
{ "type": "Feature", "properties": { "Name": "부산시(강동교)", "desc": "202207#01" }, "geometry": { "type": "Point", "coordinates": [ 373558.32013735617511, 290053.32990454469109, 0.0 ] } },
{ "type": "Feature", "properties": { "Name": "조만강합류전", "desc": "202207#02" }, "geometry": { "type": "Point", "coordinates": [ 373217.732158762984909, 284034.041114723950159, 0.0 ] } },
{ "type": "Feature", "properties": { "Name": "서낙동강", "desc": "202207#03" }, "geometry": { "type": "Point", "coordinates": [ 373026.882033503614366, 282087.827499716717284, 0.0 ] } },
{ "type": "Feature", "properties": { "Name": "낙동강하구언", "desc": "202208#01" }, "geometry": { "type": "Point", "coordinates": [ 377993.7654148893198, 280734.619278706202749, 0.0 ] } }
]
}
