{
"type": "FeatureCollection",
"name": "20_낙동강_특보지점",
"crs": { "type": "name", "properties": { "name": "urn:ogc:def:crs:EPSG::5186" } },
"features": [
{ "type": "Feature", "properties": { "Name": "태백시(문화교)", "desc": "200101#01", "lon": 379340.26, "lat": 501583.853 }, "geometry": { "type": "Point", "coordinates": [ 379340.260315242747311, 501583.853325945441611, 0.0 ] } },
{ "type": "Feature", "properties": { "Name": "봉화군(분천교)", "desc": "200103#03", "lon": 383244.73, "lat": 483282.796 }, "geometry": { "type": "Point", "coordinates": [ 383244.730079524219036, 483282.796223835495766, 0.0 ] } },
{ "type": "Feature", "properties": { "Name": "영양군(청암교)", "desc": "200205#01", "lon": 386575.664, "lat": 446339.567 }, "geometry": { "type": "Point", "coordinates": [ 386575.663836238323711, 446339.566678128321655, 0.0 ] } },
{ "type": "Feature", "properties": { "Name": "안동시(묵계교)", "desc": "200214#02", "lon": 371428.757, "lat": 427611.573 }, "geometry": { "type": "Point", "coordinates": [ 371428.757385726319626, 427611.573400773166213, 0.0 ] } },
{ "type": "Feature", "properties": { "Name": "안동시(운산리)", "desc": "200303#01", "lon": 348791.579, "lat": 432527.361 }, "geometry": { "type": "Point", "coordinates": [ 348791.579166262876242, 432527.360944434534758, 0.0 ] } },
{ "type": "Feature", "properties": { "Name": "예천군(구담교)", "desc": "200306#01", "lon": 330989.55, "lat": 438899.224 }, "geometry": { "type": "Point", "coordinates": [ 330989.549997859809082, 438899.224063568108249, 0.0 ] } },
{ "type": "Feature", "properties": { "Name": "봉화군(봉화대교)", "desc": "200402#07", "lon": 354396.168, "lat": 477959.876 }, "geometry": { "type": "Point", "coordinates": [ 354396.168419931316748, 477959.876146464317571, 0.0 ] } },
{ "type": "Feature", "properties": { "Name": "영주시(월호교)", "desc": "200407#01", "lon": 344750.372, "lat": 463912.901 }, "geometry": { "type": "Point", "coordinates": [ 344750.371632478781976, 463912.901314343325794, 0.0 ] } },
{ "type": "Feature", "properties": { "Name": "예천군(신예천교)", "desc": "200412#03", "lon": 329510.124, "lat": 451210.812 }, "geometry": { "type": "Point", "coordinates": [ 329510.12350978446193, 451210.812065400357824, 0.0 ] } },
{ "type": "Feature", "properties": { "Name": "예천군(산양교)", "desc": "200416#02", "lon": 312800.495, "lat": 446596.652 }, "geometry": { "type": "Point", "coordinates": [ 312800.495052144920919, 446596.651679956936277, 0.0 ] } },
{ "type": "Feature", "properties": { "Name": "예천군(회룡교)", "desc": "200417#03", "lon": 318081.657, "lat": 443954.27 }, "geometry": { "type": "Point", "coordinates": [ 318081.657358120195568, 443954.269809134420939, 0.0 ] } },
{ "type": "Feature", "properties": { "Name": "상주시(이안교)", "desc": "200506#03", "lon": 303768.841, "lat": 439083.348 }, "geometry": { "type": "Point", "coordinates": [ 303768.840665064577479, 439083.3480185236549, 0.0 ] } },
{ "type": "Feature", "properties": { "Name": "문경시(김용리)", "desc": "200507#01", "lon": 308830.846, "lat": 444048.071 }, "geometry": { "type": "Point", "coordinates": [ 308830.845732440298889, 444048.070696280279662, 0.0 ] } },
{ "type": "Feature", "properties": { "Name": "상주시(화계교)", "desc": "200601#02", "lon": 306104.314, "lat": 425145.339 }, "geometry": { "type": "Point", "coordinates": [ 306104.31392773805419, 425145.338728256581817, 0.0 ] } },
{ "type": "Feature", "properties": { "Name": "상주시(후천교)", "desc": "200602#01", "lon": 303899.298, "lat": 426166.821 }, "geometry": { "type": "Point", "coordinates": [ 303899.297606720356271, 426166.821071480284445, 0.0 ] } },
{ "type": "Feature", "properties": { "Name": "예천군(상풍교)", "desc": "200702#01", "lon": 313685.925, "lat": 434121.196 }, "geometry": { "type": "Point", "coordinates": [ 313685.925343831069767, 434121.195856270671356, 0.0 ] } },
{ "type": "Feature", "properties": { "Name": "군위군(무성리)", "desc": "200805#01", "lon": 340641.364, "lat": 400630.464 }, "geometry": { "type": "Point", "coordinates": [ 340641.363528316840529, 400630.463975892460439, 0.0 ] } },
{ "type": "Feature", "properties": { "Name": "의성군(덕은교)", "desc": "200806#04", "lon": 344511.682, "lat": 411393.58 }, "geometry": { "type": "Point", "coordinates": [ 344511.681986282463185, 411393.579723716247827, 0.0 ] } },
{ "type": "Feature", "properties": { "Name": "의성군(장송교)", "desc": "200809#01", "lon": 336558.596, "lat": 415520.178 }, "geometry": { "type": "Point", "coordinates": [ 336558.595555825449992, 415520.177690943819471, 0.0 ] } },
{ "type": "Feature", "properties": { "Name": "의성군(낙단교)", "desc": "200902#01", "lon": 316784.221, "lat": 418499.844 }, "geometry": { "type": "Point", "coordinates": [ 316784.22084492322756, 418499.84440436726436, 0.0 ] } },
{ "type": "Feature", "properties": { "Name": "김천시(김천교)", "desc": "201005#02", "lon": 301783.513, "lat": 391859.379 }, "geometry": { "type": "Point", "coordinates": [ 301783.513201393245254, 391859.379448915133253, 0.0 ] } },
{ "type": "Feature", "properties": { "Name": "구미시(양포교)", "desc": "201102#01", "lon": 328616.238, "lat": 394093.441 }, "geometry": { "type": "Point", "coordinates": [ 328616.238072596490383, 394093.440867219353095, 0.0 ] } },
{ "type": "Feature", "properties": { "Name": "칠곡군(호국의다리)", "desc": "201104#01", "lon": 325706.635, "lat": 378974.54 }, "geometry": { "type": "Point", "coordinates": [ 325706.635483364399988, 378974.53960046521388, 0.0 ] } },
{ "type": "Feature", "properties": { "Name": "영천시(단포교)", "desc": "201202#04", "lon": 377556.694, "lat": 377432.95 }, "geometry": { "type": "Point", "coordinates": [ 377556.69446770043578, 377432.950256257783622, 0.0 ] } },
{ "type": "Feature", "properties": { "Name": "영천시(영동교)", "desc": "201206#01", "lon": 374846.945, "lat": 376299.267 }, "geometry": { "type": "Point", "coordinates": [ 374846.945475417538546, 376299.26717007800471, 0.0 ] } },
{ "type": "Feature", "properties": { "Name": "영천시(금창교)", "desc": "201207#01", "lon": 369265.229, "lat": 371934.408 }, "geometry": { "type": "Point", "coordinates": [ 369265.229246816714294, 371934.408072083897423, 0.0 ] } },
{ "type": "Feature", "properties": { "Name": "경산시(압량교)", "desc": "201209#02", "lon": 359568.746, "lat": 363088.481 }, "geometry": { "type": "Point", "coordinates": [ 359568.74595416377997, 363088.481498626177199, 0.0 ] } },
{ "type": "Feature", "properties": { "Name": "대구시(신암동)", "desc": "201214#01", "lon": 347624.276, "lat": 367320.892 }, "geometry": { "type": "Point", "coordinates": [ 347624.275595638668165, 367320.891979684354737, 0.0 ] } },
{ "type": "Feature", "properties": { "Name": "대구시(성북교)", "desc": "201216#01", "lon": 343835.289, "lat": 367350.8 }, "geometry": { "type": "Point", "coordinates": [ 343835.288891168311238, 367350.800250662548933, 0.0 ] } },
{ "type": "Feature", "properties": { "Name": "고령군(회천교)", "desc": "201303#04", "lon": 315680.667, "lat": 348716.929 }, "geometry": { "type": "Point", "coordinates": [ 315680.667162246885709, 348716.929033873428125, 0.0 ] } },
{ "type": "Feature", "properties": { "Name": "고령군(귀원교)", "desc": "201306#01", "lon": 312185.727, "lat": 342814.812 }, "geometry": { "type": "Point", "coordinates": [ 312185.72745159448823, 342814.811990893795155, 0.0 ] } },
{ "type": "Feature", "properties": { "Name": "대구시(성하리)", "desc": "201404#01", "lon": 329592.86, "lat": 346257.769 }, "geometry": { "type": "Point", "coordinates": [ 329592.860442169592716, 346257.769284567504656, 0.0 ] } },
{ "type": "Feature", "properties": { "Name": "거창군(남하교)", "desc": "201505#01", "lon": 285180.471, "lat": 342021.956 }, "geometry": { "type": "Point", "coordinates": [ 285180.470698939228896, 342021.955904491944239, 0.0 ] } },
{ "type": "Feature", "properties": { "Name": "합천군(황강교)", "desc": "201603#02", "lon": 317089.966, "lat": 331379.233 }, "geometry": { "type": "Point", "coordinates": [ 317089.96620203909697, 331379.233110951201525, 0.0 ] } },
{ "type": "Feature", "properties": { "Name": "합천군(적포교)", "desc": "201701#01", "lon": 323352.846, "lat": 326531.043 }, "geometry": { "type": "Point", "coordinates": [ 323352.845709095709026, 326531.043271561153233, 0.0 ] } },
{ "type": "Feature", "properties": { "Name": "함양군(안의교)", "desc": "201802#01", "lon": 273700.881, "lat": 337203.472 }, "geometry": { "type": "Point", "coordinates": [ 273700.881249125523027, 337203.471755978302099, 0.0 ] } },
{ "type": "Feature", "properties": { "Name": "함양군(화촌리)", "desc": "201805#02", "lon": 271809.645, "lat": 318879.421 }, "geometry": { "type": "Point", "coordinates": [ 271809.645220997859724, 318879.420694728207309, 0.0 ] } },
{ "type": "Feature", "properties": { "Name": "산청군(경호교)", "desc": "201806#03", "lon": 279394.1, "lat": 313826.829 }, "geometry": { "type": "Point", "coordinates": [ 279394.099665738351177, 313826.828789942839649, 0.0 ] } },
{ "type": "Feature", "properties": { "Name": "진주시(옥산교)", "desc": "201902#02", "lon": 305356.857, "lat": 285827.775 }, "geometry": { "type": "Point", "coordinates": [ 305356.857456626370549, 285827.775303847156465, 0.0 ] } },
{ "type": "Feature", "properties": { "Name": "의령군(정암교)", "desc": "201905#02", "lon": 317794.786, "lat": 302596.078 }, "geometry": { "type": "Point", "coordinates": [ 317794.785899902926758, 302596.077825482934713, 0.0 ] } },
{ "type": "Feature", "properties": { "Name": "의령군(공단교)", "desc": "201907#04", "lon": 315363.621, "lat": 303027.021 }, "geometry": { "type": "Point", "coordinates": [ 315363.621114212146495, 303027.020660192763899, 0.0 ] } },
{ "type": "Feature", "properties": { "Name": "함안군(서촌리)", "desc": "201909#02", "lon": 327340.351, "lat": 304791.351 }, "geometry": { "type": "Point", "coordinates": [ 327340.350579350837506, 304791.351118207559921, 0.0 ] } },
{ "type": "Feature", "properties": { "Name": "함안군(계내리)", "desc": "202001#01", "lon": 334680.287, "lat": 310632.316 }, "geometry": { "type": "Point", "coordinates": [ 334680.287284881924279, 310632.315787781146355, 0.0 ] } },
{ "type": "Feature", "properties": { "Name": "청도군(매전교)", "desc": "202102#02", "lon": 368955.088, "lat": 343465.551 }, "geometry": { "type": "Point", "coordinates": [ 368955.087831897777505, 343465.550544038473163, 0.0 ] } },
{ "type": "Feature", "properties": { "Name": "청도군(원리)", "desc": "202104#01", "lon": 359731.431, "lat": 337282.301 }, "geometry": { "type": "Point", "coordinates": [ 359731.431313818902709, 337282.300642585323658, 0.0 ] } },
{ "type": "Feature", "properties": { "Name": "밀양시(금곡리)", "desc": "202107#02", "lon": 366883.843, "lat": 325048.292 }, "geometry": { "type": "Point", "coordinates": [ 366883.843248062650673, 325048.292230944382027, 0.0 ] } },
{ "type": "Feature", "properties": { "Name": "밀양시(용평동)", "desc": "202108#03", "lon": 361519.086, "lat": 323346.447 }, "geometry": { "type": "Point", "coordinates": [ 361519.086164614534937, 323346.446782863989938, 0.0 ] } },
{ "type": "Feature", "properties": { "Name": "밀양시(삼랑진교)", "desc": "202201#01", "lon": 365531.159, "lat": 310900.847 }, "geometry": { "type": "Point", "coordinates": [ 365531.158881894662045, 310900.847309004282579, 0.0 ] } },
{ "type": "Feature", "properties": { "Name": "양산시(양산교)", "desc": "202204#01", "lon": 385099.68, "lat": 308630.435 }, "geometry": { "type": "Point", "coordinates": [ 385099.679510347079486, 308630.434693970659282, 0.0 ] } },
{ "type": "Feature", "properties": { "Name": "부산시(구포대교)", "desc": "202205#01", "lon": 381370.251, "lat": 291809.992 }, "geometry": { "type": "Point", "coordinates": [ 381370.251308700884692, 291809.991550222213846, 0.0 ] } },
{ "type": "Feature", "properties": { "Name": "김해시(정천교)", "desc": "202206#01", "lon": 366951.667, "lat": 291439.913 }, "geometry": { "type": "Point", "coordinates": [ 366951.66692566301208, 291439.913293950667139, 0.0 ] } }
]
}
