{
"type": "FeatureCollection",
"name": "유역도_회야수영강",
"crs": { "type": "name", "properties": { "name": "urn:ogc:def:crs:OGC:1.3:CRS84" } },
"features": [
{ "type": "Feature", "properties": { "Name": "230102#01", "desc": "울산시(통천교)", "area": 113.03, "perim": 64.4 }, "geometry": { "type": "Polygon", "coordinates": [ [ [ 129.201805555556007, 35.513611111111103, 0.0 ], [ 129.210555555555999, 35.514305555555602, 0.0 ], [ 129.213333333332997, 35.512083333333308, 0.0 ], [ 129.2175, 35.512916666666698, 0.0 ], [ 129.223472222222, 35.509444444444405, 0.0 ], [ 129.226805555556012, 35.501388888888897, 0.0 ], [ 129.224583333332987, 35.499166666666703, 0.0 ], [ 129.226527777777989, 35.4925, 0.0 ], [ 129.231527777778012, 35.490277777777798, 0.0 ], [ 129.23125, 35.486944444444404, 0.0 ], [ 129.236805555556003, 35.481666666666705, 0.0 ], [ 129.23402777777801, 35.476666666666702, 0.0 ], [ 129.239722222222014, 35.469861111111108, 0.0 ], [ 129.244305555556025, 35.466944444444408, 0.0 ], [ 129.234861111111002, 35.458333333333293, 0.0 ], [ 129.234861111111002, 35.453472222222196, 0.0 ], [ 129.230277777778014, 35.45375, 0.0 ], [ 129.222777777777992, 35.448194444444397, 0.0 ], [ 129.216944444444039, 35.448472222222208, 0.0 ], [ 129.214027777778, 35.445, 0.0 ], [ 129.214722222222008, 35.442638888888908, 0.0 ], [ 129.20875, 35.440555555555598, 0.0 ], [ 129.207083333333003, 35.431388888888904, 0.0 ], [ 129.199861111111005, 35.430277777777803, 0.0 ], [ 129.20125, 35.428611111111096, 0.0 ], [ 129.200138888889001, 35.424166666666693, 0.0 ], [ 129.202083333333007, 35.421666666666695, 0.0 ], [ 129.211111111110995, 35.41930555555561, 0.0 ], [ 129.213888888888988, 35.414861111111101, 0.0 ], [ 129.217638888889013, 35.413055555555594, 0.0 ], [ 129.219861111110987, 35.408055555555592, 0.0 ], [ 129.214722222222008, 35.403472222222199, 0.0 ], [ 129.212916666667013, 35.403888888888915, 0.0 ], [ 129.213472222222009, 35.401944444444403, 0.0 ], [ 129.210694444443988, 35.401111111111106, 0.0 ], [ 129.210138888888991, 35.396944444444401, 0.0 ], [ 129.205972222222016, 35.393333333333302, 0.0 ], [ 129.203055555556006, 35.387916666666698, 0.0 ], [ 129.200555555556008, 35.38875, 0.0 ], [ 129.194583333332986, 35.383611111111101, 0.0 ], [ 129.19375, 35.3813888888889, 0.0 ], [ 129.199305555556009, 35.375833333333297, 0.0 ], [ 129.197361111111007, 35.37, 0.0 ], [ 129.198472222221994, 35.368333333333304, 0.0 ], [ 129.19402777777799, 35.363888888888901, 0.0 ], [ 129.193333333332987, 35.360694444444398, 0.0 ], [ 129.185555555555993, 35.358194444444401, 0.0 ], [ 129.182083333332997, 35.355, 0.0 ], [ 129.1825, 35.35375, 0.0 ], [ 129.179444444443988, 35.353194444444398, 0.0 ], [ 129.178055555556, 35.35125, 0.0 ], [ 129.1675, 35.354027777777802, 0.0 ], [ 129.16277777777799, 35.35625, 0.0 ], [ 129.161666666667003, 35.35902777777779, 0.0 ], [ 129.148055555555999, 35.364861111111097, 0.0 ], [ 129.118611111110994, 35.367916666666702, 0.0 ], [ 129.11625, 35.375833333333297, 0.0 ], [ 129.10430555555601, 35.387222222222199, 0.0 ], [ 129.104861111111006, 35.398055555555601, 0.0 ], [ 129.115277777778005, 35.405972222222204, 0.0 ], [ 129.121805555555994, 35.407222222222202, 0.0 ], [ 129.12291666666701, 35.41472222222221, 0.0 ], [ 129.128194444444006, 35.422777777777803, 0.0 ], [ 129.139027777778011, 35.431388888888904, 0.0 ], [ 129.137361111111005, 35.4369444444444, 0.0 ], [ 129.14, 35.436805555555601, 0.0 ], [ 129.144027777778007, 35.440833333333295, 0.0 ], [ 129.145416666666989, 35.445277777777797, 0.0 ], [ 129.139305555556007, 35.44944444444441, 0.0 ], [ 129.135694444443999, 35.456388888888902, 0.0 ], [ 129.139583333333007, 35.459166666666704, 0.0 ], [ 129.139861111111003, 35.461666666666687, 0.0 ], [ 129.143333333333004, 35.465694444444402, 0.0 ], [ 129.151111111110993, 35.469305555555607, 0.0 ], [ 129.153333333332995, 35.472638888888902, 0.0 ], [ 129.161111111111012, 35.477916666666701, 0.0 ], [ 129.167777777778014, 35.479861111111099, 0.0 ], [ 129.175277777778007, 35.479583333333309, 0.0 ], [ 129.178611111110996, 35.47625, 0.0 ], [ 129.184444444444011, 35.4756944444444, 0.0 ], [ 129.18486111111099, 35.48, 0.0 ], [ 129.187083333332993, 35.4825, 0.0 ], [ 129.184583333332995, 35.485277777777803, 0.0 ], [ 129.1875, 35.487916666666692, 0.0 ], [ 129.200833333333009, 35.48625, 0.0 ], [ 129.200138888889001, 35.488333333333301, 0.0 ], [ 129.202638888888998, 35.49, 0.0 ], [ 129.192638888889007, 35.504722222222199, 0.0 ], [ 129.196388888889004, 35.505138888888901, 0.0 ], [ 129.201805555556007, 35.513611111111103, 0.0 ] ] ] } },
{ "type": "Feature", "properties": { "Name": "230102#02", "desc": "회야댐 f to 230103#01", "area": 12.5, "perim": 19.61 }, "geometry": { "type": "Polygon", "coordinates": [ [ [ 129.239583333333002, 35.4919444444444, 0.0 ], [ 129.248888888889013, 35.489583333333307, 0.0 ], [ 129.249027777777997, 35.487222222222201, 0.0 ], [ 129.255833333332987, 35.481527777777799, 0.0 ], [ 129.273333333332999, 35.485138888888891, 0.0 ], [ 129.274166666667014, 35.479583333333309, 0.0 ], [ 129.282083333332992, 35.476666666666709, 0.0 ], [ 129.282222222222003, 35.472083333333302, 0.0 ], [ 129.277777777777999, 35.470416666666701, 0.0 ], [ 129.269444444443991, 35.462361111111093, 0.0 ], [ 129.267638888888996, 35.4625, 0.0 ], [ 129.265138888888998, 35.456111111111099, 0.0 ], [ 129.265833333333006, 35.452361111111102, 0.0 ], [ 129.261666666666997, 35.452916666666695, 0.0 ], [ 129.254444444444005, 35.450694444444409, 0.0 ], [ 129.248611111110989, 35.454027777777803, 0.0 ], [ 129.241388888888991, 35.449861111111098, 0.0 ], [ 129.235694444443993, 35.451666666666711, 0.0 ], [ 129.234861111111002, 35.458333333333293, 0.0 ], [ 129.244305555556025, 35.466944444444408, 0.0 ], [ 129.239722222222014, 35.469861111111108, 0.0 ], [ 129.23402777777801, 35.476666666666702, 0.0 ], [ 129.236805555556003, 35.481666666666705, 0.0 ], [ 129.233472222221991, 35.483611111111102, 0.0 ], [ 129.23375, 35.48527777777781, 0.0 ], [ 129.239583333333002, 35.4919444444444, 0.0 ] ] ] } },
{ "type": "Feature", "properties": { "Name": "230103#01", "desc": "울산시(동천1교)", "area": 3.39, "perim": 10.04 }, "geometry": { "type": "Polygon", "coordinates": [ [ [ 129.282083333332992, 35.476666666666709, 0.0 ], [ 129.28777777777799, 35.476527777777797, 0.0 ], [ 129.292083333333011, 35.472638888888902, 0.0 ], [ 129.29125, 35.469166666666702, 0.0 ], [ 129.292916666666997, 35.467222222222198, 0.0 ], [ 129.290694444444, 35.46, 0.0 ], [ 129.280277777777997, 35.459027777777798, 0.0 ], [ 129.278055555555994, 35.460416666666696, 0.0 ], [ 129.276805555555995, 35.456111111111092, 0.0 ], [ 129.273611111110995, 35.453194444444406, 0.0 ], [ 129.26625, 35.452638888888892, 0.0 ], [ 129.265138888888998, 35.456111111111099, 0.0 ], [ 129.267638888888996, 35.4625, 0.0 ], [ 129.269444444443991, 35.462361111111093, 0.0 ], [ 129.277777777777999, 35.470416666666701, 0.0 ], [ 129.282222222222003, 35.472083333333302, 0.0 ], [ 129.282083333332992, 35.476666666666709, 0.0 ] ] ] } },
{ "type": "Feature", "properties": { "Name": "230103#02", "desc": "울산시(덕신교)", "area": 8.08, "perim": 17.28 }, "geometry": { "type": "Polygon", "coordinates": [ [ [ 129.292083333333011, 35.4725, 0.0 ], [ 129.298333333333005, 35.472638888888909, 0.0 ], [ 129.299583333333004, 35.467222222222198, 0.0 ], [ 129.298194444443993, 35.465555555555603, 0.0 ], [ 129.300555555556002, 35.46263888888889, 0.0 ], [ 129.305555555555998, 35.46430555555559, 0.0 ], [ 129.306944444444014, 35.459583333333299, 0.0 ], [ 129.31625, 35.455555555555605, 0.0 ], [ 129.31625, 35.4525, 0.0 ], [ 129.314027777777994, 35.450555555555596, 0.0 ], [ 129.316666666667004, 35.450416666666705, 0.0 ], [ 129.317638888889007, 35.448333333333302, 0.0 ], [ 129.31458333333299, 35.445, 0.0 ], [ 129.314861111110986, 35.4425, 0.0 ], [ 129.309722222222007, 35.44125, 0.0 ], [ 129.308472222222008, 35.437222222222204, 0.0 ], [ 129.305, 35.43375, 0.0 ], [ 129.294722222221992, 35.440416666666692, 0.0 ], [ 129.290833333333012, 35.440416666666707, 0.0 ], [ 129.288472222221998, 35.4433333333333, 0.0 ], [ 129.289027777777989, 35.445, 0.0 ], [ 129.286666666667003, 35.4473611111111, 0.0 ], [ 129.284166666667005, 35.44652777777781, 0.0 ], [ 129.281666666667007, 35.4484722222222, 0.0 ], [ 129.27861111111099, 35.453194444444392, 0.0 ], [ 129.27472222222201, 35.450416666666698, 0.0 ], [ 129.272361111110996, 35.4525, 0.0 ], [ 129.276805555555995, 35.456111111111092, 0.0 ], [ 129.278055555555994, 35.460416666666696, 0.0 ], [ 129.280277777777997, 35.459027777777798, 0.0 ], [ 129.290694444444, 35.46, 0.0 ], [ 129.292916666666997, 35.467222222222198, 0.0 ], [ 129.29125, 35.469166666666702, 0.0 ], [ 129.292083333333011, 35.4725, 0.0 ] ] ] } },
{ "type": "Feature", "properties": { "Name": "230103#03", "desc": "남창천합류전 n to 230103#05", "area": 8.86, "perim": 20.21 }, "geometry": { "type": "Polygon", "coordinates": [ [ [ 129.278194444444011, 35.453055555555601, 0.0 ], [ 129.284166666667005, 35.44652777777781, 0.0 ], [ 129.286805555555986, 35.447222222222202, 0.0 ], [ 129.290833333333012, 35.440416666666707, 0.0 ], [ 129.292777777778014, 35.44125, 0.0 ], [ 129.298333333333005, 35.437083333333305, 0.0 ], [ 129.301388888888994, 35.437083333333305, 0.0 ], [ 129.303611111110996, 35.4340277777778, 0.0 ], [ 129.308472222222008, 35.437222222222204, 0.0 ], [ 129.309722222222007, 35.44125, 0.0 ], [ 129.314166666667006, 35.441805555555604, 0.0 ], [ 129.31458333333299, 35.444861111111102, 0.0 ], [ 129.318333333332987, 35.44125, 0.0 ], [ 129.32125, 35.441388888888902, 0.0 ], [ 129.321527777777987, 35.4375, 0.0 ], [ 129.317361111111012, 35.432777777777801, 0.0 ], [ 129.319583333332986, 35.43, 0.0 ], [ 129.32125, 35.419027777777792, 0.0 ], [ 129.311388888889013, 35.408194444444405, 0.0 ], [ 129.306527777778001, 35.413611111111095, 0.0 ], [ 129.309027777777999, 35.415833333333303, 0.0 ], [ 129.308333333332996, 35.417361111111099, 0.0 ], [ 129.300277777778007, 35.420416666666696, 0.0 ], [ 129.29722222222199, 35.424305555555598, 0.0 ], [ 129.289444444444001, 35.424861111111106, 0.0 ], [ 129.285694444444005, 35.428611111111103, 0.0 ], [ 129.284583333332989, 35.434444444444409, 0.0 ], [ 129.28, 35.434305555555603, 0.0 ], [ 129.277638888888987, 35.436666666666703, 0.0 ], [ 129.272638888888991, 35.448888888888909, 0.0 ], [ 129.278194444444011, 35.453055555555601, 0.0 ] ] ] } },
{ "type": "Feature", "properties": { "Name": "230103#04", "desc": "남창천 n to 230103#05", "area": 51.88, "perim": 39.67 }, "geometry": { "type": "Polygon", "coordinates": [ [ [ 129.230972222221993, 35.453888888888898, 0.0 ], [ 129.235555555556004, 35.453194444444406, 0.0 ], [ 129.237222222221988, 35.45041666666669, 0.0 ], [ 129.241111111110996, 35.449861111111098, 0.0 ], [ 129.248611111110989, 35.454027777777803, 0.0 ], [ 129.254444444444005, 35.450694444444409, 0.0 ], [ 129.261666666666997, 35.452916666666695, 0.0 ], [ 129.272361111110996, 35.452638888888892, 0.0 ], [ 129.274027777778002, 35.450555555555596, 0.0 ], [ 129.272916666666987, 35.44583333333329, 0.0 ], [ 129.274861111110994, 35.44527777777779, 0.0 ], [ 129.277638888888987, 35.436666666666703, 0.0 ], [ 129.28, 35.434305555555603, 0.0 ], [ 129.284583333332989, 35.434444444444409, 0.0 ], [ 129.285694444444005, 35.428611111111103, 0.0 ], [ 129.289444444444001, 35.424861111111106, 0.0 ], [ 129.29722222222199, 35.424305555555598, 0.0 ], [ 129.300277777778007, 35.420416666666696, 0.0 ], [ 129.30875, 35.416944444444397, 0.0 ], [ 129.306527777778001, 35.413888888888906, 0.0 ], [ 129.308194444444013, 35.411111111111097, 0.0 ], [ 129.307361111110993, 35.40833333333331, 0.0 ], [ 129.293055555556009, 35.410138888888902, 0.0 ], [ 129.288333333332986, 35.402083333333302, 0.0 ], [ 129.276805555555995, 35.39430555555559, 0.0 ], [ 129.265833333333006, 35.394583333333308, 0.0 ], [ 129.265138888888998, 35.391944444444391, 0.0 ], [ 129.266527777778009, 35.388888888888893, 0.0 ], [ 129.265138888888998, 35.385833333333309, 0.0 ], [ 129.2575, 35.382916666666702, 0.0 ], [ 129.254166666667004, 35.386527777777793, 0.0 ], [ 129.250555555555991, 35.38736111111109, 0.0 ], [ 129.250694444444008, 35.384444444444398, 0.0 ], [ 129.248055555555993, 35.381805555555594, 0.0 ], [ 129.245555555555995, 35.38402777777781, 0.0 ], [ 129.240833333333001, 35.38458333333331, 0.0 ], [ 129.2375, 35.38375, 0.0 ], [ 129.235833333333005, 35.380138888888901, 0.0 ], [ 129.230555555556009, 35.381527777777798, 0.0 ], [ 129.216944444444039, 35.37875, 0.0 ], [ 129.208888888888993, 35.380972222222198, 0.0 ], [ 129.20347222222199, 35.385, 0.0 ], [ 129.202916666666994, 35.387777777777799, 0.0 ], [ 129.205972222222016, 35.393333333333302, 0.0 ], [ 129.210138888888991, 35.396944444444401, 0.0 ], [ 129.210694444443988, 35.401111111111106, 0.0 ], [ 129.213333333332997, 35.401805555555605, 0.0 ], [ 129.212916666667013, 35.403888888888915, 0.0 ], [ 129.214722222222008, 35.403472222222199, 0.0 ], [ 129.219861111110987, 35.409166666666692, 0.0 ], [ 129.211111111110995, 35.41930555555561, 0.0 ], [ 129.202083333333007, 35.421666666666695, 0.0 ], [ 129.200138888889001, 35.424166666666693, 0.0 ], [ 129.20125, 35.428611111111096, 0.0 ], [ 129.199861111111005, 35.430277777777803, 0.0 ], [ 129.207083333333003, 35.431388888888904, 0.0 ], [ 129.20875, 35.440555555555598, 0.0 ], [ 129.214722222222008, 35.442638888888908, 0.0 ], [ 129.214027777778, 35.445, 0.0 ], [ 129.216944444444039, 35.448472222222208, 0.0 ], [ 129.223611111111012, 35.448472222222208, 0.0 ], [ 129.230972222221993, 35.453888888888898, 0.0 ] ] ] } },
{ "type": "Feature", "properties": { "Name": "230103#05", "desc": "회야강 n to 000000#01", "area": 19.75, "perim": 23.57 }, "geometry": { "type": "Polygon", "coordinates": [ [ [ 129.320972222221997, 35.418888888888908, 0.0 ], [ 129.326944444443996, 35.41875, 0.0 ], [ 129.328333333333006, 35.415416666666701, 0.0 ], [ 129.333472222222014, 35.413611111111095, 0.0 ], [ 129.335555555555999, 35.407916666666701, 0.0 ], [ 129.338611111110993, 35.408472222222201, 0.0 ], [ 129.343055555555992, 35.406527777777796, 0.0 ], [ 129.344861111110987, 35.404444444444394, 0.0 ], [ 129.344583333332992, 35.40194444444441, 0.0 ], [ 129.348194444444005, 35.399444444444399, 0.0 ], [ 129.347916666667004, 35.391388888888891, 0.0 ], [ 129.340555555555994, 35.384583333333303, 0.0 ], [ 129.33722222222201, 35.382916666666709, 0.0 ], [ 129.330277777778008, 35.383194444444406, 0.0 ], [ 129.327222222221991, 35.379583333333301, 0.0 ], [ 129.324722222221993, 35.380138888888908, 0.0 ], [ 129.319722222221998, 35.374583333333298, 0.0 ], [ 129.315833333333018, 35.374583333333298, 0.0 ], [ 129.311388888889013, 35.380694444444401, 0.0 ], [ 129.308333333332996, 35.379861111111097, 0.0 ], [ 129.305555555555998, 35.38375, 0.0 ], [ 129.301666666667018, 35.385416666666707, 0.0 ], [ 129.296666666666994, 35.382916666666702, 0.0 ], [ 129.295972222221991, 35.38, 0.0 ], [ 129.291388888889003, 35.375972222222209, 0.0 ], [ 129.28861111111101, 35.379583333333301, 0.0 ], [ 129.283611111110986, 35.379305555555597, 0.0 ], [ 129.27625, 35.382777777777804, 0.0 ], [ 129.274861111110994, 35.387222222222192, 0.0 ], [ 129.277638888888987, 35.391944444444398, 0.0 ], [ 129.277083333332996, 35.395, 0.0 ], [ 129.288333333332986, 35.402083333333302, 0.0 ], [ 129.293055555556009, 35.410138888888902, 0.0 ], [ 129.306944444444014, 35.407916666666701, 0.0 ], [ 129.308611111110991, 35.410694444444403, 0.0 ], [ 129.310833333332994, 35.407916666666708, 0.0 ], [ 129.320972222221997, 35.418888888888908, 0.0 ] ] ] } },
{ "type": "Feature", "properties": { "Name": "230202#01", "desc": "회동수원지 f to 230203#01", "area": 99.54, "perim": 62.93 }, "geometry": { "type": "Polygon", "coordinates": [ [ [ 129.105138888889002, 35.385833333333302, 0.0 ], [ 129.11625, 35.375833333333297, 0.0 ], [ 129.118611111110994, 35.367916666666702, 0.0 ], [ 129.148055555555999, 35.364861111111097, 0.0 ], [ 129.161666666667003, 35.35902777777779, 0.0 ], [ 129.16277777777799, 35.35625, 0.0 ], [ 129.167638888889002, 35.353888888888903, 0.0 ], [ 129.169027777778012, 35.350833333333306, 0.0 ], [ 129.166388888889003, 35.345694444444398, 0.0 ], [ 129.163333333333014, 35.344583333333297, 0.0 ], [ 129.15888888888901, 35.346805555555598, 0.0 ], [ 129.156388888889012, 35.34625, 0.0 ], [ 129.152916666667011, 35.341111111111097, 0.0 ], [ 129.149305555555998, 35.339166666666699, 0.0 ], [ 129.14875, 35.337777777777802, 0.0 ], [ 129.15125, 35.336388888888898, 0.0 ], [ 129.152361111110991, 35.333055555555603, 0.0 ], [ 129.152083333332996, 35.3225, 0.0 ], [ 129.155416666667008, 35.318055555555603, 0.0 ], [ 129.15375, 35.314166666666701, 0.0 ], [ 129.150694444444014, 35.312777777777796, 0.0 ], [ 129.155277777777997, 35.3084722222222, 0.0 ], [ 129.163055555556014, 35.312361111111102, 0.0 ], [ 129.164722222221997, 35.307638888888903, 0.0 ], [ 129.168611111111005, 35.308194444444403, 0.0 ], [ 129.174166666666991, 35.305972222222202, 0.0 ], [ 129.174722222221988, 35.304305555555601, 0.0 ], [ 129.179722222222011, 35.304583333333298, 0.0 ], [ 129.183194444444013, 35.298888888888897, 0.0 ], [ 129.179583333332999, 35.291111111111107, 0.0 ], [ 129.182083333332997, 35.288611111111102, 0.0 ], [ 129.1825, 35.285694444444403, 0.0 ], [ 129.194583333332986, 35.28, 0.0 ], [ 129.194305555556014, 35.274166666666702, 0.0 ], [ 129.190972222222001, 35.271111111111104, 0.0 ], [ 129.19625, 35.2675, 0.0 ], [ 129.193333333332987, 35.264583333333299, 0.0 ], [ 129.190833333332989, 35.265416666666709, 0.0 ], [ 129.187777777777995, 35.260138888888903, 0.0 ], [ 129.184305555555994, 35.260277777777794, 0.0 ], [ 129.18, 35.250694444444399, 0.0 ], [ 129.174166666666991, 35.250972222222202, 0.0 ], [ 129.17222222222199, 35.247916666666704, 0.0 ], [ 129.169722222221992, 35.247916666666704, 0.0 ], [ 129.16277777777799, 35.253194444444389, 0.0 ], [ 129.151666666667012, 35.254583333333294, 0.0 ], [ 129.143472222221988, 35.248333333333292, 0.0 ], [ 129.142083333333005, 35.243055555555607, 0.0 ], [ 129.135833333333011, 35.236805555555598, 0.0 ], [ 129.131944444444002, 35.235416666666701, 0.0 ], [ 129.116666666666987, 35.235972222222195, 0.0 ], [ 129.110555555556004, 35.230694444444396, 0.0 ], [ 129.105, 35.229027777777809, 0.0 ], [ 129.102083333333013, 35.230555555555597, 0.0 ], [ 129.105416666666997, 35.238055555555597, 0.0 ], [ 129.10375, 35.239722222222198, 0.0 ], [ 129.104027777777986, 35.244444444444397, 0.0 ], [ 129.101527777777989, 35.248888888888892, 0.0 ], [ 129.105138888889002, 35.255833333333293, 0.0 ], [ 129.102916666666999, 35.2580555555556, 0.0 ], [ 129.105416666666997, 35.260555555555598, 0.0 ], [ 129.100138888889006, 35.261666666666699, 0.0 ], [ 129.099027777777991, 35.26472222222219, 0.0 ], [ 129.100694444444002, 35.267777777777809, 0.0 ], [ 129.09625, 35.268888888888895, 0.0 ], [ 129.096805555555989, 35.273055555555608, 0.0 ], [ 129.094444444444008, 35.27569444444439, 0.0 ], [ 129.0875, 35.281527777777789, 0.0 ], [ 129.0825, 35.28263888888889, 0.0 ], [ 129.07375, 35.290555555555599, 0.0 ], [ 129.088194444444014, 35.3025, 0.0 ], [ 129.085972222222011, 35.30416666666671, 0.0 ], [ 129.085138888888991, 35.31333333333329, 0.0 ], [ 129.090555555555994, 35.318194444444387, 0.0 ], [ 129.094166666667007, 35.317916666666697, 0.0 ], [ 129.0975, 35.321805555555606, 0.0 ], [ 129.105416666666997, 35.326111111111103, 0.0 ], [ 129.106527777778012, 35.331666666666699, 0.0 ], [ 129.099444444444003, 35.333194444444395, 0.0 ], [ 129.097916666667004, 35.337777777777802, 0.0 ], [ 129.09375, 35.339444444444403, 0.0 ], [ 129.092916666667037, 35.3477777777778, 0.0 ], [ 129.095694444444007, 35.35333333333331, 0.0 ], [ 129.093472222222005, 35.357222222222198, 0.0 ], [ 129.094583333332992, 35.361111111111093, 0.0 ], [ 129.09125, 35.363333333333301, 0.0 ], [ 129.101527777777989, 35.3775, 0.0 ], [ 129.101805555556012, 35.381388888888914, 0.0 ], [ 129.105138888889002, 35.385833333333302, 0.0 ] ] ] } },
{ "type": "Feature", "properties": { "Name": "230203#01", "desc": "부산시(동천교)", "area": 6.4, "perim": 13.41 }, "geometry": { "type": "Polygon", "coordinates": [ [ [ 129.134583333333012, 35.23694444444439, 0.0 ], [ 129.140694444443994, 35.233888888888892, 0.0 ], [ 129.13875, 35.226944444444399, 0.0 ], [ 129.134444444444, 35.225416666666703, 0.0 ], [ 129.124444444444009, 35.225972222222204, 0.0 ], [ 129.123472222222006, 35.220277777777802, 0.0 ], [ 129.119166666667041, 35.218472222222204, 0.0 ], [ 129.115833333333001, 35.2129166666667, 0.0 ], [ 129.1125, 35.212361111111093, 0.0 ], [ 129.110277777778009, 35.209861111111096, 0.0 ], [ 129.10583333333301, 35.20986111111111, 0.0 ], [ 129.094861111110987, 35.215416666666698, 0.0 ], [ 129.096805555555989, 35.220833333333303, 0.0 ], [ 129.101805555556012, 35.223888888888901, 0.0 ], [ 129.10375, 35.229583333333295, 0.0 ], [ 129.110555555556004, 35.230694444444396, 0.0 ], [ 129.116666666666987, 35.235972222222195, 0.0 ], [ 129.131944444444002, 35.235416666666701, 0.0 ], [ 129.134583333333012, 35.23694444444439, 0.0 ] ] ] } },
{ "type": "Feature", "properties": { "Name": "230203#02", "desc": "부산시(원동교)", "area": 27.58, "perim": 31.29 }, "geometry": { "type": "Polygon", "coordinates": [ [ [ 129.184583333332995, 35.260555555555598, 0.0 ], [ 129.187638888889012, 35.26, 0.0 ], [ 129.18625, 35.25083333333329, 0.0 ], [ 129.191527777777992, 35.247777777777799, 0.0 ], [ 129.193472222221999, 35.2425, 0.0 ], [ 129.19013888888901, 35.239444444444402, 0.0 ], [ 129.1875, 35.229305555555598, 0.0 ], [ 129.181944444444014, 35.22625, 0.0 ], [ 129.174722222221988, 35.2193055555556, 0.0 ], [ 129.166388888889003, 35.219305555555593, 0.0 ], [ 129.165555555556011, 35.215138888888909, 0.0 ], [ 129.157222222222003, 35.207916666666691, 0.0 ], [ 129.155138888889013, 35.209166666666697, 0.0 ], [ 129.149305555555998, 35.197222222222202, 0.0 ], [ 129.145277777778006, 35.194027777777798, 0.0 ], [ 129.1175, 35.19625, 0.0 ], [ 129.113194444443991, 35.192777777777799, 0.0 ], [ 129.11375, 35.190694444444389, 0.0 ], [ 129.110694444443993, 35.191111111111098, 0.0 ], [ 129.110694444443993, 35.197777777777802, 0.0 ], [ 129.109444444443994, 35.200972222222198, 0.0 ], [ 129.107361111111004, 35.200833333333307, 0.0 ], [ 129.11125, 35.205277777777802, 0.0 ], [ 129.110138888888997, 35.209861111111103, 0.0 ], [ 129.1125, 35.212361111111093, 0.0 ], [ 129.115833333333001, 35.2129166666667, 0.0 ], [ 129.119166666667041, 35.218472222222204, 0.0 ], [ 129.123472222222006, 35.220277777777802, 0.0 ], [ 129.124444444444009, 35.225972222222204, 0.0 ], [ 129.134444444444, 35.225416666666703, 0.0 ], [ 129.13875, 35.226944444444399, 0.0 ], [ 129.140694444443994, 35.233888888888892, 0.0 ], [ 129.138333333333009, 35.234305555555601, 0.0 ], [ 129.13625, 35.237222222222208, 0.0 ], [ 129.142083333333005, 35.243055555555607, 0.0 ], [ 129.141805555556004, 35.245, 0.0 ], [ 129.145555555556001, 35.250416666666702, 0.0 ], [ 129.147777777778003, 35.250694444444399, 0.0 ], [ 129.151666666667012, 35.254583333333294, 0.0 ], [ 129.156666666667007, 35.254583333333301, 0.0 ], [ 129.16277777777799, 35.253194444444389, 0.0 ], [ 129.169722222221992, 35.247916666666704, 0.0 ], [ 129.17222222222199, 35.247916666666704, 0.0 ], [ 129.174166666666991, 35.250972222222202, 0.0 ], [ 129.177222222222014, 35.250138888888898, 0.0 ], [ 129.181527777778001, 35.251944444444398, 0.0 ], [ 129.184583333332995, 35.260555555555598, 0.0 ] ] ] } },
{ "type": "Feature", "properties": { "Name": "230203#03", "desc": "온천천합류전 n to 230203#06", "area": 1.39, "perim": 7.5 }, "geometry": { "type": "Polygon", "coordinates": [ [ [ 129.117361111110995, 35.196111111111108, 0.0 ], [ 129.139444444443996, 35.195416666666702, 0.0 ], [ 129.145138888888994, 35.1933333333333, 0.0 ], [ 129.135, 35.19375, 0.0 ], [ 129.121666666667011, 35.187638888888898, 0.0 ], [ 129.11375, 35.190555555555591, 0.0 ], [ 129.113194444443991, 35.192777777777799, 0.0 ], [ 129.117361111110995, 35.196111111111108, 0.0 ] ] ] } },
{ "type": "Feature", "properties": { "Name": "230203#04", "desc": "부산시(세병교)", "area": 39.02, "perim": 36.6 }, "geometry": { "type": "Polygon", "coordinates": [ [ [ 129.059583333332995, 35.295277777777791, 0.0 ], [ 129.064444444444035, 35.291527777777802, 0.0 ], [ 129.073611111111006, 35.290138888888897, 0.0 ], [ 129.083333333333002, 35.28208333333329, 0.0 ], [ 129.0875, 35.281527777777789, 0.0 ], [ 129.096805555555989, 35.273055555555608, 0.0 ], [ 129.09625, 35.268888888888895, 0.0 ], [ 129.100694444444002, 35.267777777777809, 0.0 ], [ 129.099027777777991, 35.26472222222219, 0.0 ], [ 129.100138888889006, 35.261666666666699, 0.0 ], [ 129.105416666666997, 35.260555555555598, 0.0 ], [ 129.102916666666999, 35.2580555555556, 0.0 ], [ 129.105138888889002, 35.255833333333293, 0.0 ], [ 129.101527777777989, 35.248888888888892, 0.0 ], [ 129.104027777777986, 35.244444444444397, 0.0 ], [ 129.10375, 35.239722222222198, 0.0 ], [ 129.105416666666997, 35.238055555555597, 0.0 ], [ 129.102083333333013, 35.230555555555597, 0.0 ], [ 129.10375, 35.227777777777803, 0.0 ], [ 129.101805555556012, 35.223888888888901, 0.0 ], [ 129.095694444444007, 35.219166666666702, 0.0 ], [ 129.09625, 35.2175, 0.0 ], [ 129.093472222222005, 35.215555555555611, 0.0 ], [ 129.092638888889013, 35.21, 0.0 ], [ 129.08638888888899, 35.20875, 0.0 ], [ 129.085416666666987, 35.20583333333331, 0.0 ], [ 129.082638888888994, 35.203888888888898, 0.0 ], [ 129.081527777778007, 35.200555555555603, 0.0 ], [ 129.083055555556001, 35.196527777777803, 0.0 ], [ 129.081388888889023, 35.195972222222203, 0.0 ], [ 129.080833333333004, 35.1973611111111, 0.0 ], [ 129.076111111111004, 35.193194444444401, 0.0 ], [ 129.071666666666999, 35.19291666666669, 0.0 ], [ 129.061666666667008, 35.18375, 0.0 ], [ 129.051388888888994, 35.184861111111097, 0.0 ], [ 129.046805555556006, 35.190833333333302, 0.0 ], [ 129.047638888888997, 35.194444444444393, 0.0 ], [ 129.043472222221993, 35.198888888888888, 0.0 ], [ 129.043472222221993, 35.202222222222197, 0.0 ], [ 129.046805555556006, 35.202222222222197, 0.0 ], [ 129.051805555556001, 35.209722222222197, 0.0 ], [ 129.051805555556001, 35.21388888888891, 0.0 ], [ 129.06069444444401, 35.225833333333298, 0.0 ], [ 129.059305555555994, 35.227777777777803, 0.0 ], [ 129.059305555555994, 35.233333333333306, 0.0 ], [ 129.062361111110988, 35.238333333333301, 0.0 ], [ 129.061805555555992, 35.242777777777803, 0.0 ], [ 129.067638888889007, 35.249722222222204, 0.0 ], [ 129.067083333332988, 35.2569444444444, 0.0 ], [ 129.061805555555992, 35.262222222222206, 0.0 ], [ 129.06069444444401, 35.272222222222197, 0.0 ], [ 129.051111111110998, 35.279583333333299, 0.0 ], [ 129.049861111110999, 35.282222222222202, 0.0 ], [ 129.051805555556001, 35.287777777777798, 0.0 ], [ 129.059583333332995, 35.295277777777791, 0.0 ] ] ] } },
{ "type": "Feature", "properties": { "Name": "230203#05", "desc": "온천천 n to 230203#06", "area": 15.18, "perim": 22.84 }, "geometry": { "type": "Polygon", "coordinates": [ [ [ 129.093472222222005, 35.215555555555611, 0.0 ], [ 129.10583333333301, 35.20986111111111, 0.0 ], [ 129.110138888888997, 35.209861111111103, 0.0 ], [ 129.11125, 35.205277777777802, 0.0 ], [ 129.107361111111004, 35.200833333333307, 0.0 ], [ 129.109583333333006, 35.2008333333333, 0.0 ], [ 129.110694444443993, 35.191111111111098, 0.0 ], [ 129.11375, 35.190694444444389, 0.0 ], [ 129.114305555556001, 35.1880555555556, 0.0 ], [ 129.11125, 35.186111111111103, 0.0 ], [ 129.111388888888996, 35.179861111111101, 0.0 ], [ 129.108611111111003, 35.17875, 0.0 ], [ 129.102777777777987, 35.180694444444399, 0.0 ], [ 129.097361111111013, 35.179444444444407, 0.0 ], [ 129.097083333332989, 35.171944444444399, 0.0 ], [ 129.092083333332994, 35.1675, 0.0 ], [ 129.094444444444008, 35.16125, 0.0 ], [ 129.088888888888988, 35.160972222222199, 0.0 ], [ 129.083055555556001, 35.158472222222194, 0.0 ], [ 129.078194444443994, 35.162777777777791, 0.0 ], [ 129.07847222222199, 35.165555555555599, 0.0 ], [ 129.080694444443992, 35.1675, 0.0 ], [ 129.079027777778009, 35.175, 0.0 ], [ 129.075833333333009, 35.17458333333331, 0.0 ], [ 129.069444444444002, 35.177916666666697, 0.0 ], [ 129.063055555555991, 35.177361111111097, 0.0 ], [ 129.061527777777997, 35.18375, 0.0 ], [ 129.071666666666999, 35.19291666666669, 0.0 ], [ 129.076111111111004, 35.193194444444401, 0.0 ], [ 129.080833333333004, 35.1973611111111, 0.0 ], [ 129.081388888889023, 35.195972222222203, 0.0 ], [ 129.083055555556001, 35.196527777777803, 0.0 ], [ 129.081527777778007, 35.200555555555603, 0.0 ], [ 129.082638888888994, 35.203888888888898, 0.0 ], [ 129.085416666666987, 35.20583333333331, 0.0 ], [ 129.08638888888899, 35.20875, 0.0 ], [ 129.092638888889013, 35.21, 0.0 ], [ 129.093472222222005, 35.215555555555611, 0.0 ] ] ] } },
{ "type": "Feature", "properties": { "Name": "230203#06", "desc": "수영강 n to 000000#02", "area": 9.3, "perim": 17.66 }, "geometry": { "type": "Polygon", "coordinates": [ [ [ 129.134861111111007, 35.193611111111103, 0.0 ], [ 129.144861111110998, 35.19291666666669, 0.0 ], [ 129.134861111111007, 35.174444444444397, 0.0 ], [ 129.138055555556008, 35.168472222222199, 0.0 ], [ 129.128611111111013, 35.1631944444444, 0.0 ], [ 129.121666666667011, 35.1620833333333, 0.0 ], [ 129.119305555555997, 35.163055555555594, 0.0 ], [ 129.1175, 35.167916666666706, 0.0 ], [ 129.11444444444399, 35.167916666666692, 0.0 ], [ 129.109444444443994, 35.1643055555556, 0.0 ], [ 129.106944444443997, 35.165972222222202, 0.0 ], [ 129.1, 35.16625, 0.0 ], [ 129.094861111110987, 35.1620833333333, 0.0 ], [ 129.09375, 35.162777777777791, 0.0 ], [ 129.092083333332994, 35.1675, 0.0 ], [ 129.097083333332989, 35.171944444444399, 0.0 ], [ 129.0975, 35.179583333333298, 0.0 ], [ 129.103333333333012, 35.180694444444399, 0.0 ], [ 129.109166666666994, 35.17875, 0.0 ], [ 129.111805555556003, 35.1805555555556, 0.0 ], [ 129.11125, 35.186111111111103, 0.0 ], [ 129.11444444444399, 35.189583333333303, 0.0 ], [ 129.123611111110989, 35.187638888888898, 0.0 ], [ 129.134861111111007, 35.193611111111103, 0.0 ] ] ] } }
]
}
