{
"type": "FeatureCollection",
"name": "유역도_태화강",
"crs": { "type": "name", "properties": { "name": "urn:ogc:def:crs:OGC:1.3:CRS84" } },
"features": [
{ "type": "Feature", "properties": { "Name": "220101#01", "desc": "울산시(구수교)", "area": 122.1, "perim": 59.84 }, "geometry": { "type": "Polygon", "coordinates": [ [ [ 129.069305555556014, 35.656666666666695, 0.0 ], [ 129.0725, 35.655972222222211, 0.0 ], [ 129.076666666666995, 35.650694444444397, 0.0 ], [ 129.080694444443992, 35.648333333333298, 0.0 ], [ 129.080972222221988, 35.64388888888891, 0.0 ], [ 129.083055555556001, 35.642083333333296, 0.0 ], [ 129.08875, 35.641666666666701, 0.0 ], [ 129.092638888889013, 35.633055555555607, 0.0 ], [ 129.090972222222007, 35.63, 0.0 ], [ 129.091805555556022, 35.623611111111096, 0.0 ], [ 129.097222222222001, 35.61625, 0.0 ], [ 129.099444444444003, 35.614583333333293, 0.0 ], [ 129.109166666666994, 35.61375, 0.0 ], [ 129.116111111110996, 35.615416666666704, 0.0 ], [ 129.128888888889009, 35.60875, 0.0 ], [ 129.12763888888901, 35.604166666666707, 0.0 ], [ 129.13236111111101, 35.6, 0.0 ], [ 129.13236111111101, 35.5975, 0.0 ], [ 129.135277777777986, 35.596527777777801, 0.0 ], [ 129.137777777778012, 35.598472222222192, 0.0 ], [ 129.140833333333006, 35.596805555555598, 0.0 ], [ 129.142083333333005, 35.591944444444501, 0.0 ], [ 129.140416666666994, 35.588888888888896, 0.0 ], [ 129.141944444443993, 35.586805555555607, 0.0 ], [ 129.14569444444399, 35.585833333333305, 0.0 ], [ 129.145972222222014, 35.583611111111097, 0.0 ], [ 129.142361111111001, 35.579722222222195, 0.0 ], [ 129.14569444444399, 35.575, 0.0 ], [ 129.144583333333003, 35.568611111111103, 0.0 ], [ 129.1375, 35.56791666666669, 0.0 ], [ 129.13708333333301, 35.565833333333302, 0.0 ], [ 129.141666666666993, 35.56402777777781, 0.0 ], [ 129.142083333333005, 35.561111111111103, 0.0 ], [ 129.145, 35.55819444444441, 0.0 ], [ 129.152083333332996, 35.556388888888897, 0.0 ], [ 129.150138888888989, 35.552777777777806, 0.0 ], [ 129.150972222222009, 35.5475, 0.0 ], [ 129.149027777778002, 35.546666666666695, 0.0 ], [ 129.147777777778003, 35.543194444444403, 0.0 ], [ 129.1375, 35.540694444444391, 0.0 ], [ 129.135833333333011, 35.5370833333333, 0.0 ], [ 129.125277777777995, 35.534583333333295, 0.0 ], [ 129.123888888889013, 35.531527777777804, 0.0 ], [ 129.119722222222009, 35.530138888888892, 0.0 ], [ 129.115138888888993, 35.524722222222209, 0.0 ], [ 129.114027777778006, 35.5225, 0.0 ], [ 129.115694444443989, 35.521944444444401, 0.0 ], [ 129.103611111111007, 35.5104166666667, 0.0 ], [ 129.10027777777799, 35.511805555555597, 0.0 ], [ 129.098055555555987, 35.51069444444439, 0.0 ], [ 129.090833333332995, 35.511805555555597, 0.0 ], [ 129.0775, 35.51625, 0.0 ], [ 129.052916666666988, 35.516111111111108, 0.0 ], [ 129.051527777778006, 35.52, 0.0 ], [ 129.052361111110997, 35.525833333333303, 0.0 ], [ 129.05625, 35.529444444444501, 0.0 ], [ 129.057083333332997, 35.5325, 0.0 ], [ 129.054305555555999, 35.539166666666702, 0.0 ], [ 129.048333333333005, 35.539861111111101, 0.0 ], [ 129.048472222221989, 35.543611111111098, 0.0 ], [ 129.045972222221991, 35.545555555555602, 0.0 ], [ 129.045138888888999, 35.549722222222201, 0.0 ], [ 129.040138888889004, 35.552222222222191, 0.0 ], [ 129.04375, 35.560833333333306, 0.0 ], [ 129.041527777777986, 35.565555555555598, 0.0 ], [ 129.03625, 35.571388888888897, 0.0 ], [ 129.035555555555987, 35.577083333333299, 0.0 ], [ 129.031944444444008, 35.577638888888906, 0.0 ], [ 129.024166666667014, 35.584583333333299, 0.0 ], [ 129.01875, 35.583888888888893, 0.0 ], [ 129.02347222222204, 35.591388888888901, 0.0 ], [ 129.025972222222009, 35.600277777777798, 0.0 ], [ 129.02347222222204, 35.603888888888903, 0.0 ], [ 129.021805555556, 35.614166666666698, 0.0 ], [ 129.015555555556006, 35.616527777777797, 0.0 ], [ 129.007777777777989, 35.6156944444445, 0.0 ], [ 129.003194444444006, 35.620277777777801, 0.0 ], [ 129.007777777777989, 35.627361111111099, 0.0 ], [ 129.017222222221989, 35.630972222222191, 0.0 ], [ 129.020555555556001, 35.635694444444397, 0.0 ], [ 129.026944444444013, 35.636527777777793, 0.0 ], [ 129.036111111111012, 35.631805555555601, 0.0 ], [ 129.04125, 35.6375, 0.0 ], [ 129.046944444443994, 35.6504166666667, 0.0 ], [ 129.052777777778005, 35.64875, 0.0 ], [ 129.060277777777998, 35.65375, 0.0 ], [ 129.069305555556014, 35.656666666666695, 0.0 ] ] ] } },
{ "type": "Feature", "properties": { "Name": "220101#02", "desc": "울산시(대암교)", "area": 4.91, "perim": 11.14 }, "geometry": { "type": "Polygon", "coordinates": [ [ [ 129.168472222221993, 35.558333333333302, 0.0 ], [ 129.182222222222009, 35.555972222222202, 0.0 ], [ 129.185138888889014, 35.55361111111111, 0.0 ], [ 129.183194444444013, 35.550277777777801, 0.0 ], [ 129.184027777777999, 35.548055555555607, 0.0 ], [ 129.178333333333001, 35.5445833333333, 0.0 ], [ 129.163888888889005, 35.542361111111099, 0.0 ], [ 129.1625, 35.540138888888897, 0.0 ], [ 129.152777777777999, 35.542638888888902, 0.0 ], [ 129.145416666666989, 35.54, 0.0 ], [ 129.144861111110998, 35.542083333333295, 0.0 ], [ 129.147777777778003, 35.543194444444403, 0.0 ], [ 129.149027777778002, 35.546666666666695, 0.0 ], [ 129.150972222222009, 35.5475, 0.0 ], [ 129.150138888888989, 35.552777777777806, 0.0 ], [ 129.15444444444401, 35.558194444444396, 0.0 ], [ 129.166944444443999, 35.557083333333303, 0.0 ], [ 129.168472222221993, 35.558333333333302, 0.0 ] ] ] } },
{ "type": "Feature", "properties": { "Name": "220101#03", "desc": "둔기천합류전 n to 220101#04", "area": 0.94, "perim": 4.66 }, "geometry": { "type": "Polygon", "coordinates": [ [ [ 129.18486111111099, 35.552777777777791, 0.0 ], [ 129.187222222222005, 35.5520833333333, 0.0 ], [ 129.189027777777994, 35.548055555555599, 0.0 ], [ 129.194583333332986, 35.543611111111098, 0.0 ], [ 129.193472222221999, 35.540138888888904, 0.0 ], [ 129.185277777777998, 35.540972222222209, 0.0 ], [ 129.180416666667014, 35.545972222222197, 0.0 ], [ 129.184027777777999, 35.548055555555607, 0.0 ], [ 129.183194444444013, 35.550277777777801, 0.0 ], [ 129.18486111111099, 35.552777777777791, 0.0 ] ] ] } },
{ "type": "Feature", "properties": { "Name": "220101#04", "desc": "울산시(사연교)", "area": 10.54, "perim": 23.06 }, "geometry": { "type": "Polygon", "coordinates": [ [ [ 129.194583333332986, 35.574166666666699, 0.0 ], [ 129.196944444444, 35.572638888888903, 0.0 ], [ 129.210833333332999, 35.57208333333331, 0.0 ], [ 129.211805555555998, 35.5688888888889, 0.0 ], [ 129.20819444444399, 35.5619444444444, 0.0 ], [ 129.202083333333007, 35.5555555555556, 0.0 ], [ 129.200416666666996, 35.550833333333294, 0.0 ], [ 129.202638888888998, 35.54416666666669, 0.0 ], [ 129.205694444443992, 35.542222222222208, 0.0 ], [ 129.204166666666993, 35.539861111111094, 0.0 ], [ 129.196111111111009, 35.53625, 0.0 ], [ 129.193472222221999, 35.54, 0.0 ], [ 129.194583333332986, 35.543611111111098, 0.0 ], [ 129.182222222222009, 35.555972222222202, 0.0 ], [ 129.169444444443997, 35.558472222222207, 0.0 ], [ 129.166944444443999, 35.557083333333303, 0.0 ], [ 129.15444444444401, 35.558194444444396, 0.0 ], [ 129.1525, 35.55625, 0.0 ], [ 129.1475, 35.556805555555606, 0.0 ], [ 129.142083333333005, 35.561111111111103, 0.0 ], [ 129.141666666666993, 35.56402777777781, 0.0 ], [ 129.13708333333301, 35.565833333333302, 0.0 ], [ 129.1375, 35.56791666666669, 0.0 ], [ 129.153333333332995, 35.569861111111102, 0.0 ], [ 129.156666666667007, 35.566805555555597, 0.0 ], [ 129.165833333333012, 35.56875, 0.0 ], [ 129.175833333333003, 35.568472222222191, 0.0 ], [ 129.180833333332998, 35.56375, 0.0 ], [ 129.182222222222009, 35.5659722222222, 0.0 ], [ 129.188333333332992, 35.567361111111104, 0.0 ], [ 129.194583333332986, 35.574166666666699, 0.0 ] ] ] } },
{ "type": "Feature", "properties": { "Name": "220102#01", "desc": "대암댐 f to 220101#03", "area": 70.01, "perim": 50.91 }, "geometry": { "type": "Polygon", "coordinates": [ [ [ 129.18013888888899, 35.545833333333299, 0.0 ], [ 129.185277777777998, 35.540972222222209, 0.0 ], [ 129.193333333332987, 35.540138888888897, 0.0 ], [ 129.196111111111009, 35.53625, 0.0 ], [ 129.204166666666993, 35.539861111111094, 0.0 ], [ 129.205, 35.541527777777809, 0.0 ], [ 129.21222222222201, 35.54125, 0.0 ], [ 129.213472222222009, 35.5352777777778, 0.0 ], [ 129.216805555555993, 35.533333333333303, 0.0 ], [ 129.217638888889013, 35.53, 0.0 ], [ 129.220416666667006, 35.527777777777793, 0.0 ], [ 129.217083333332994, 35.520555555555603, 0.0 ], [ 129.217916666667008, 35.513611111111103, 0.0 ], [ 129.213333333332997, 35.512083333333308, 0.0 ], [ 129.210555555555999, 35.514305555555602, 0.0 ], [ 129.201944444443996, 35.51375, 0.0 ], [ 129.196388888889004, 35.505138888888901, 0.0 ], [ 129.192916666667003, 35.505277777777799, 0.0 ], [ 129.202638888888998, 35.49, 0.0 ], [ 129.200138888889001, 35.488333333333301, 0.0 ], [ 129.200833333333009, 35.48625, 0.0 ], [ 129.1875, 35.487916666666692, 0.0 ], [ 129.184583333332995, 35.485277777777803, 0.0 ], [ 129.187083333332993, 35.4825, 0.0 ], [ 129.18486111111099, 35.48, 0.0 ], [ 129.184444444444011, 35.4756944444444, 0.0 ], [ 129.178611111110996, 35.47625, 0.0 ], [ 129.175277777778007, 35.479583333333309, 0.0 ], [ 129.167777777778014, 35.479861111111099, 0.0 ], [ 129.161111111111012, 35.477916666666701, 0.0 ], [ 129.153333333332995, 35.472638888888902, 0.0 ], [ 129.151111111110993, 35.469305555555607, 0.0 ], [ 129.143333333333004, 35.465694444444402, 0.0 ], [ 129.139861111111003, 35.461666666666687, 0.0 ], [ 129.139583333333007, 35.459166666666704, 0.0 ], [ 129.136111111111006, 35.456527777777787, 0.0 ], [ 129.128888888889009, 35.459027777777791, 0.0 ], [ 129.121805555555994, 35.465833333333308, 0.0 ], [ 129.122361111111019, 35.467222222222205, 0.0 ], [ 129.117361111110995, 35.473333333333294, 0.0 ], [ 129.117361111110995, 35.476111111111102, 0.0 ], [ 129.10902777777801, 35.480555555555597, 0.0 ], [ 129.107916666666995, 35.483611111111095, 0.0 ], [ 129.10902777777801, 35.4875, 0.0 ], [ 129.100833333332986, 35.490138888888907, 0.0 ], [ 129.09875, 35.493333333333297, 0.0 ], [ 129.098888888889007, 35.496805555555603, 0.0 ], [ 129.069722222221998, 35.50625, 0.0 ], [ 129.059305555555994, 35.516111111111101, 0.0 ], [ 129.0775, 35.51625, 0.0 ], [ 129.090833333332995, 35.511805555555597, 0.0 ], [ 129.098055555555987, 35.51069444444439, 0.0 ], [ 129.10027777777799, 35.511805555555597, 0.0 ], [ 129.103611111111007, 35.5104166666667, 0.0 ], [ 129.115694444443989, 35.521944444444401, 0.0 ], [ 129.114305555556001, 35.523333333333291, 0.0 ], [ 129.119722222222009, 35.530138888888892, 0.0 ], [ 129.123888888889013, 35.531527777777804, 0.0 ], [ 129.125277777777995, 35.534583333333295, 0.0 ], [ 129.135833333333011, 35.5370833333333, 0.0 ], [ 129.139166666666995, 35.541527777777809, 0.0 ], [ 129.143611111110999, 35.542638888888909, 0.0 ], [ 129.146944444444017, 35.539861111111101, 0.0 ], [ 129.153055555555994, 35.542638888888902, 0.0 ], [ 129.1625, 35.540138888888897, 0.0 ], [ 129.163888888889005, 35.542361111111099, 0.0 ], [ 129.169722222221992, 35.542361111111092, 0.0 ], [ 129.171944444443994, 35.544305555555617, 0.0 ], [ 129.18013888888899, 35.545833333333299, 0.0 ] ] ] } },
{ "type": "Feature", "properties": { "Name": "220103#01", "desc": "대곡댐 f to 220103#02", "area": 57.28, "perim": 49.68 }, "geometry": { "type": "Polygon", "coordinates": [ [ [ 129.147916666666987, 35.699166666666699, 0.0 ], [ 129.155, 35.695694444444406, 0.0 ], [ 129.155138888889013, 35.693333333333307, 0.0 ], [ 129.15833333333299, 35.691527777777807, 0.0 ], [ 129.1625, 35.692083333333301, 0.0 ], [ 129.164444444444001, 35.694583333333306, 0.0 ], [ 129.173611111111001, 35.690972222222207, 0.0 ], [ 129.176111111110998, 35.692083333333301, 0.0 ], [ 129.177361111110997, 35.681944444444497, 0.0 ], [ 129.182083333332997, 35.680277777777803, 0.0 ], [ 129.18125, 35.677222222222191, 0.0 ], [ 129.184166666667011, 35.67375, 0.0 ], [ 129.188888888889011, 35.673472222222202, 0.0 ], [ 129.189166666667006, 35.67625, 0.0 ], [ 129.193611111111011, 35.67680555555561, 0.0 ], [ 129.194166666667002, 35.678472222222204, 0.0 ], [ 129.198333333333011, 35.677361111111097, 0.0 ], [ 129.200277777778012, 35.674861111111099, 0.0 ], [ 129.202222222221991, 35.67625, 0.0 ], [ 129.206388888888995, 35.6759722222222, 0.0 ], [ 129.206944444443991, 35.672916666666701, 0.0 ], [ 129.209166666666988, 35.673194444444398, 0.0 ], [ 129.2125, 35.679583333333298, 0.0 ], [ 129.216944444444039, 35.679305555555608, 0.0 ], [ 129.218333333332993, 35.680694444444406, 0.0 ], [ 129.218333333332993, 35.677916666666697, 0.0 ], [ 129.221944444444006, 35.67875, 0.0 ], [ 129.223611111111012, 35.67625, 0.0 ], [ 129.228055555556011, 35.6759722222222, 0.0 ], [ 129.23222222222202, 35.673472222222195, 0.0 ], [ 129.238888888888994, 35.675138888888902, 0.0 ], [ 129.246527777777999, 35.668888888888901, 0.0 ], [ 129.248055555555993, 35.664861111111094, 0.0 ], [ 129.254166666667004, 35.66625, 0.0 ], [ 129.255138888889007, 35.66, 0.0 ], [ 129.244027777778001, 35.645277777777792, 0.0 ], [ 129.24347222222201, 35.64, 0.0 ], [ 129.24541666666704, 35.6383333333333, 0.0 ], [ 129.242916666667014, 35.634722222222202, 0.0 ], [ 129.24263888888899, 35.62944444444441, 0.0 ], [ 129.233055555556007, 35.632916666666709, 0.0 ], [ 129.228055555556011, 35.632916666666702, 0.0 ], [ 129.215555555555994, 35.624305555555601, 0.0 ], [ 129.203611111111002, 35.63458333333331, 0.0 ], [ 129.198888888889002, 35.634305555555599, 0.0 ], [ 129.195277777777989, 35.628472222222193, 0.0 ], [ 129.192361111111012, 35.628611111111105, 0.0 ], [ 129.189444444444007, 35.622638888888901, 0.0 ], [ 129.183888888888987, 35.624583333333291, 0.0 ], [ 129.180277777778002, 35.620972222222193, 0.0 ], [ 129.174722222221988, 35.62125, 0.0 ], [ 129.173055555556004, 35.619861111111099, 0.0 ], [ 129.17152777777801, 35.623611111111096, 0.0 ], [ 129.16625, 35.626944444444398, 0.0 ], [ 129.164583333333013, 35.6308333333333, 0.0 ], [ 129.16625, 35.6325, 0.0 ], [ 129.164027777777989, 35.637222222222199, 0.0 ], [ 129.167638888889002, 35.640833333333291, 0.0 ], [ 129.16625, 35.6425, 0.0 ], [ 129.167361111111006, 35.646111111111097, 0.0 ], [ 129.159166666667005, 35.655138888888899, 0.0 ], [ 129.155555555555992, 35.654861111111103, 0.0 ], [ 129.146111111110997, 35.66291666666671, 0.0 ], [ 129.134166666666999, 35.666527777777802, 0.0 ], [ 129.131944444444002, 35.665138888888904, 0.0 ], [ 129.128055555555989, 35.665972222222202, 0.0 ], [ 129.123611111110989, 35.67097222222219, 0.0 ], [ 129.116388888888991, 35.668472222222199, 0.0 ], [ 129.108888888888998, 35.672083333333298, 0.0 ], [ 129.103888888889003, 35.67125, 0.0 ], [ 129.100138888889006, 35.675277777777801, 0.0 ], [ 129.103055555556011, 35.67875, 0.0 ], [ 129.115, 35.685138888888901, 0.0 ], [ 129.12, 35.684861111111104, 0.0 ], [ 129.126388888889011, 35.681527777777802, 0.0 ], [ 129.134027777777987, 35.6880555555556, 0.0 ], [ 129.132777777778017, 35.692638888888908, 0.0 ], [ 129.147916666666987, 35.699166666666699, 0.0 ] ] ] } },
{ "type": "Feature", "properties": { "Name": "220103#02", "desc": "울산시(반구교)", "area": 31.93, "perim": 32.59 }, "geometry": { "type": "Polygon", "coordinates": [ [ [ 129.108194444443996, 35.671944444444399, 0.0 ], [ 129.116388888888991, 35.668472222222199, 0.0 ], [ 129.123611111110989, 35.67097222222219, 0.0 ], [ 129.128055555555989, 35.665972222222202, 0.0 ], [ 129.131944444444002, 35.665138888888904, 0.0 ], [ 129.134166666666999, 35.666527777777802, 0.0 ], [ 129.146111111110997, 35.66291666666671, 0.0 ], [ 129.155555555555992, 35.654861111111103, 0.0 ], [ 129.159166666667005, 35.655138888888899, 0.0 ], [ 129.167361111111006, 35.646111111111097, 0.0 ], [ 129.16625, 35.6425, 0.0 ], [ 129.167638888889002, 35.640833333333291, 0.0 ], [ 129.164027777777989, 35.637222222222199, 0.0 ], [ 129.16625, 35.6325, 0.0 ], [ 129.164583333333013, 35.631111111111103, 0.0 ], [ 129.16625, 35.626944444444398, 0.0 ], [ 129.17152777777801, 35.623611111111096, 0.0 ], [ 129.173055555556004, 35.619861111111099, 0.0 ], [ 129.174722222221988, 35.62125, 0.0 ], [ 129.180277777778002, 35.620972222222193, 0.0 ], [ 129.184166666667011, 35.624583333333291, 0.0 ], [ 129.186111111110989, 35.62291666666669, 0.0 ], [ 129.189861111110986, 35.622916666666697, 0.0 ], [ 129.19125, 35.618888888888904, 0.0 ], [ 129.185, 35.6145833333333, 0.0 ], [ 129.178611111110996, 35.6145833333333, 0.0 ], [ 129.174166666666991, 35.612361111111106, 0.0 ], [ 129.17, 35.60625, 0.0 ], [ 129.16361111111101, 35.604861111111106, 0.0 ], [ 129.159722222222001, 35.60625, 0.0 ], [ 129.157638888889011, 35.610833333333296, 0.0 ], [ 129.154722222222006, 35.612916666666706, 0.0 ], [ 129.148333333332999, 35.611805555555598, 0.0 ], [ 129.140555555556006, 35.6156944444445, 0.0 ], [ 129.131944444444002, 35.61625, 0.0 ], [ 129.125833333332992, 35.624305555555601, 0.0 ], [ 129.118055555555998, 35.625138888888898, 0.0 ], [ 129.11444444444399, 35.63041666666669, 0.0 ], [ 129.108333333333007, 35.633472222222196, 0.0 ], [ 129.092638888889013, 35.632916666666709, 0.0 ], [ 129.08875, 35.641666666666701, 0.0 ], [ 129.09194444444401, 35.6423611111111, 0.0 ], [ 129.109861111111002, 35.657222222222202, 0.0 ], [ 129.108472222221991, 35.662777777777798, 0.0 ], [ 129.104027777777986, 35.667777777777808, 0.0 ], [ 129.104027777777986, 35.67125, 0.0 ], [ 129.108194444443996, 35.671944444444399, 0.0 ] ] ] } },
{ "type": "Feature", "properties": { "Name": "220103#03", "desc": "사연댐 f to 220104#01", "area": 34.92, "perim": 42.23 }, "geometry": { "type": "Polygon", "coordinates": [ [ [ 129.202083333333007, 35.63444444444449, 0.0 ], [ 129.215416666667011, 35.625, 0.0 ], [ 129.217361111110989, 35.618333333333297, 0.0 ], [ 129.212083333332998, 35.613333333333301, 0.0 ], [ 129.212083333332998, 35.609166666666702, 0.0 ], [ 129.21375, 35.6075, 0.0 ], [ 129.212916666667013, 35.60555555555559, 0.0 ], [ 129.20666666666699, 35.603472222222202, 0.0 ], [ 129.20347222222199, 35.599722222222198, 0.0 ], [ 129.205416666666991, 35.591666666666697, 0.0 ], [ 129.20875, 35.588888888888903, 0.0 ], [ 129.195833333333013, 35.579027777777796, 0.0 ], [ 129.190833333332989, 35.581527777777801, 0.0 ], [ 129.189722222222002, 35.5804166666667, 0.0 ], [ 129.184166666667011, 35.580972222222201, 0.0 ], [ 129.177222222222014, 35.577083333333299, 0.0 ], [ 129.165277777777987, 35.57875, 0.0 ], [ 129.152222222222008, 35.569305555555594, 0.0 ], [ 129.144027777778007, 35.569722222222197, 0.0 ], [ 129.14569444444399, 35.575, 0.0 ], [ 129.142361111111001, 35.579722222222195, 0.0 ], [ 129.145972222222014, 35.583611111111097, 0.0 ], [ 129.14569444444399, 35.585833333333305, 0.0 ], [ 129.141944444443993, 35.586805555555607, 0.0 ], [ 129.140416666666994, 35.588888888888896, 0.0 ], [ 129.142083333333005, 35.591944444444501, 0.0 ], [ 129.140833333333006, 35.596805555555598, 0.0 ], [ 129.137777777778012, 35.598472222222192, 0.0 ], [ 129.135277777777986, 35.596527777777801, 0.0 ], [ 129.13236111111101, 35.5975, 0.0 ], [ 129.13236111111101, 35.6, 0.0 ], [ 129.12763888888901, 35.604166666666707, 0.0 ], [ 129.128888888889009, 35.60875, 0.0 ], [ 129.116111111110996, 35.615416666666704, 0.0 ], [ 129.110277777778009, 35.61375, 0.0 ], [ 129.099444444444003, 35.614583333333293, 0.0 ], [ 129.091805555556022, 35.623611111111096, 0.0 ], [ 129.090972222222007, 35.628611111111098, 0.0 ], [ 129.092638888889013, 35.632916666666709, 0.0 ], [ 129.1075, 35.63375, 0.0 ], [ 129.11444444444399, 35.63041666666669, 0.0 ], [ 129.118055555555998, 35.625138888888898, 0.0 ], [ 129.125833333332992, 35.624305555555601, 0.0 ], [ 129.131944444444002, 35.61625, 0.0 ], [ 129.140555555556006, 35.6156944444445, 0.0 ], [ 129.148333333332999, 35.611805555555598, 0.0 ], [ 129.154722222222006, 35.612916666666706, 0.0 ], [ 129.157638888889011, 35.610833333333296, 0.0 ], [ 129.159722222222001, 35.60625, 0.0 ], [ 129.165555555556011, 35.604861111111113, 0.0 ], [ 129.17, 35.60625, 0.0 ], [ 129.174166666666991, 35.612361111111106, 0.0 ], [ 129.178611111110996, 35.6145833333333, 0.0 ], [ 129.185, 35.6145833333333, 0.0 ], [ 129.191111111111013, 35.61875, 0.0 ], [ 129.190416666667005, 35.626111111111101, 0.0 ], [ 129.1925, 35.62875, 0.0 ], [ 129.195277777777989, 35.628472222222193, 0.0 ], [ 129.198888888889002, 35.634305555555599, 0.0 ], [ 129.202083333333007, 35.63444444444449, 0.0 ] ] ] } },
{ "type": "Feature", "properties": { "Name": "220104#01", "desc": "울산시(선바위교)", "area": 24.66, "perim": 34.85 }, "geometry": { "type": "Polygon", "coordinates": [ [ [ 129.227916666666999, 35.632777777777804, 0.0 ], [ 129.233055555556007, 35.632916666666709, 0.0 ], [ 129.242222222222011, 35.629583333333308, 0.0 ], [ 129.243055555555998, 35.627361111111099, 0.0 ], [ 129.249027777777997, 35.6244444444444, 0.0 ], [ 129.254305555555987, 35.615833333333299, 0.0 ], [ 129.24819444444401, 35.612222222222201, 0.0 ], [ 129.240138888888993, 35.597222222222193, 0.0 ], [ 129.240138888888993, 35.584722222222204, 0.0 ], [ 129.243194444443986, 35.5827777777778, 0.0 ], [ 129.24347222222201, 35.580555555555598, 0.0 ], [ 129.240555555556, 35.577083333333292, 0.0 ], [ 129.235555555556004, 35.577083333333292, 0.0 ], [ 129.233888888888998, 35.579305555555599, 0.0 ], [ 129.223055555555987, 35.57902777777781, 0.0 ], [ 129.2225, 35.5729166666667, 0.0 ], [ 129.219166666667007, 35.5729166666667, 0.0 ], [ 129.218333333332993, 35.57097222222221, 0.0 ], [ 129.211944444443986, 35.56875, 0.0 ], [ 129.210833333332999, 35.57208333333331, 0.0 ], [ 129.196944444444, 35.572638888888903, 0.0 ], [ 129.194722222221998, 35.574305555555597, 0.0 ], [ 129.188333333332992, 35.567361111111104, 0.0 ], [ 129.182222222222009, 35.5659722222222, 0.0 ], [ 129.180833333332998, 35.56375, 0.0 ], [ 129.175833333333003, 35.568472222222191, 0.0 ], [ 129.165833333333012, 35.56875, 0.0 ], [ 129.156666666667007, 35.566805555555597, 0.0 ], [ 129.154027777777998, 35.568333333333293, 0.0 ], [ 129.155, 35.572361111111107, 0.0 ], [ 129.15805555555599, 35.572638888888903, 0.0 ], [ 129.165277777777987, 35.57875, 0.0 ], [ 129.177222222222014, 35.577083333333299, 0.0 ], [ 129.184166666667011, 35.580972222222201, 0.0 ], [ 129.192777777777991, 35.581527777777801, 0.0 ], [ 129.195, 35.57875, 0.0 ], [ 129.208333333333002, 35.588472222222201, 0.0 ], [ 129.20375, 35.595277777777802, 0.0 ], [ 129.20347222222199, 35.599722222222198, 0.0 ], [ 129.20666666666699, 35.603472222222202, 0.0 ], [ 129.212916666667013, 35.60555555555559, 0.0 ], [ 129.21375, 35.6075, 0.0 ], [ 129.212083333332998, 35.609166666666702, 0.0 ], [ 129.212083333332998, 35.613333333333301, 0.0 ], [ 129.217361111110989, 35.6175, 0.0 ], [ 129.215694444444011, 35.624166666666703, 0.0 ], [ 129.227916666666999, 35.632777777777804, 0.0 ] ] ] } },
{ "type": "Feature", "properties": { "Name": "220104#02", "desc": "울산시(구영교)", "area": 14.32, "perim": 18.41 }, "geometry": { "type": "Polygon", "coordinates": [ [ [ 129.222916666667004, 35.578888888888898, 0.0 ], [ 129.233888888888998, 35.579305555555599, 0.0 ], [ 129.235555555556004, 35.577083333333292, 0.0 ], [ 129.238888888888994, 35.576805555555602, 0.0 ], [ 129.242916666667014, 35.579305555555599, 0.0 ], [ 129.24791666666701, 35.570277777777797, 0.0 ], [ 129.246527777777999, 35.56388888888889, 0.0 ], [ 129.24875, 35.561666666666703, 0.0 ], [ 129.249027777777997, 35.555277777777803, 0.0 ], [ 129.240833333333001, 35.54625, 0.0 ], [ 129.236388888888996, 35.54625, 0.0 ], [ 129.230277777778014, 35.54375, 0.0 ], [ 129.22875, 35.541388888888903, 0.0 ], [ 129.228888888889003, 35.5370833333333, 0.0 ], [ 129.215833333333023, 35.534027777777801, 0.0 ], [ 129.213472222222009, 35.5352777777778, 0.0 ], [ 129.21222222222201, 35.54125, 0.0 ], [ 129.204861111111001, 35.541666666666707, 0.0 ], [ 129.205694444443992, 35.5425, 0.0 ], [ 129.202638888888998, 35.54416666666669, 0.0 ], [ 129.200416666666996, 35.550833333333294, 0.0 ], [ 129.202083333333007, 35.5555555555556, 0.0 ], [ 129.20819444444399, 35.5619444444444, 0.0 ], [ 129.210416666666987, 35.5675, 0.0 ], [ 129.218333333332993, 35.57097222222221, 0.0 ], [ 129.219166666667007, 35.5729166666667, 0.0 ], [ 129.2225, 35.5729166666667, 0.0 ], [ 129.222916666667004, 35.578888888888898, 0.0 ] ] ] } },
{ "type": "Feature", "properties": { "Name": "220104#03", "desc": "울산시(삼호교)", "area": 50.44, "perim": 45.56 }, "geometry": { "type": "Polygon", "coordinates": [ [ [ 129.254305555555987, 35.6661111111111, 0.0 ], [ 129.259722222221995, 35.665694444444405, 0.0 ], [ 129.270277777778006, 35.659583333333302, 0.0 ], [ 129.274444444443986, 35.660138888888895, 0.0 ], [ 129.27944444444401, 35.657638888888904, 0.0 ], [ 129.28305555555599, 35.658194444444398, 0.0 ], [ 129.286111111111012, 35.663194444444393, 0.0 ], [ 129.288194444444002, 35.6625, 0.0 ], [ 129.284861111111013, 35.655, 0.0 ], [ 129.290694444444, 35.648888888888891, 0.0 ], [ 129.290416666666999, 35.646388888888907, 0.0 ], [ 129.295277777778011, 35.645138888888901, 0.0 ], [ 129.297083333333006, 35.642777777777802, 0.0 ], [ 129.29625, 35.6375, 0.0 ], [ 129.298194444443993, 35.630833333333307, 0.0 ], [ 129.295138888888999, 35.626388888888904, 0.0 ], [ 129.294305555556008, 35.62, 0.0 ], [ 129.294722222221992, 35.618194444444399, 0.0 ], [ 129.299861111110999, 35.615, 0.0 ], [ 129.299583333333004, 35.609166666666702, 0.0 ], [ 129.29625, 35.607222222222191, 0.0 ], [ 129.289583333333013, 35.596111111111092, 0.0 ], [ 129.291527777777986, 35.588611111111099, 0.0 ], [ 129.294305555556008, 35.586388888888905, 0.0 ], [ 129.291527777777986, 35.583611111111104, 0.0 ], [ 129.291527777777986, 35.58, 0.0 ], [ 129.289166666667001, 35.577916666666702, 0.0 ], [ 129.28472222222203, 35.578194444444406, 0.0 ], [ 129.280277777777997, 35.572916666666693, 0.0 ], [ 129.274305555555998, 35.574444444444403, 0.0 ], [ 129.275972222222009, 35.565, 0.0 ], [ 129.281805555555991, 35.561944444444414, 0.0 ], [ 129.282916666667006, 35.558055555555605, 0.0 ], [ 129.276666666667012, 35.55625, 0.0 ], [ 129.274166666667014, 35.552361111111104, 0.0 ], [ 129.266944444443993, 35.5520833333333, 0.0 ], [ 129.256388888889006, 35.546527777777804, 0.0 ], [ 129.250833333332992, 35.54625, 0.0 ], [ 129.235, 35.535972222222206, 0.0 ], [ 129.229583333333011, 35.5375, 0.0 ], [ 129.229583333333011, 35.543055555555604, 0.0 ], [ 129.236388888888996, 35.54625, 0.0 ], [ 129.240833333333001, 35.54625, 0.0 ], [ 129.249027777777997, 35.555277777777803, 0.0 ], [ 129.24875, 35.561666666666703, 0.0 ], [ 129.246527777777999, 35.56388888888889, 0.0 ], [ 129.24791666666701, 35.570277777777797, 0.0 ], [ 129.242916666667014, 35.578888888888898, 0.0 ], [ 129.243194444443986, 35.5827777777778, 0.0 ], [ 129.240138888888993, 35.584722222222204, 0.0 ], [ 129.240138888888993, 35.597222222222193, 0.0 ], [ 129.24819444444401, 35.612222222222201, 0.0 ], [ 129.254305555555987, 35.615277777777798, 0.0 ], [ 129.249027777777997, 35.6244444444444, 0.0 ], [ 129.24263888888899, 35.628611111111098, 0.0 ], [ 129.242916666667014, 35.634722222222202, 0.0 ], [ 129.24541666666704, 35.6383333333333, 0.0 ], [ 129.24347222222201, 35.64, 0.0 ], [ 129.244027777778001, 35.645277777777792, 0.0 ], [ 129.255138888889007, 35.66, 0.0 ], [ 129.254305555555987, 35.6661111111111, 0.0 ] ] ] } },
{ "type": "Feature", "properties": { "Name": "220105#01", "desc": "울산시(신답교)", "area": 106.65, "perim": 57.71 }, "geometry": { "type": "Polygon", "coordinates": [ [ [ 129.332916666666989, 35.765555555555608, 0.0 ], [ 129.34, 35.764861111111102, 0.0 ], [ 129.348888888889007, 35.755138888888908, 0.0 ], [ 129.353055555556011, 35.754305555555597, 0.0 ], [ 129.354722222221994, 35.756527777777798, 0.0 ], [ 129.356666666666996, 35.756527777777791, 0.0 ], [ 129.360833333333005, 35.750694444444399, 0.0 ], [ 129.363888888888994, 35.750138888888884, 0.0 ], [ 129.368194444443986, 35.746111111111098, 0.0 ], [ 129.367916666667014, 35.740833333333306, 0.0 ], [ 129.36291666666699, 35.737777777777801, 0.0 ], [ 129.36375, 35.733333333333306, 0.0 ], [ 129.365, 35.730138888888902, 0.0 ], [ 129.373333333332994, 35.729027777777794, 0.0 ], [ 129.374583333332993, 35.723333333333301, 0.0 ], [ 129.37, 35.72125, 0.0 ], [ 129.367916666667014, 35.716944444444394, 0.0 ], [ 129.367083333332999, 35.711944444444391, 0.0 ], [ 129.368194444443986, 35.709444444444401, 0.0 ], [ 129.365972222222013, 35.705555555555598, 0.0 ], [ 129.368194444443986, 35.7013888888889, 0.0 ], [ 129.365972222222013, 35.698055555555598, 0.0 ], [ 129.364305555556001, 35.69, 0.0 ], [ 129.364027777778006, 35.686944444444407, 0.0 ], [ 129.365416666666988, 35.68611111111111, 0.0 ], [ 129.364305555556001, 35.6775, 0.0 ], [ 129.367916666667014, 35.675, 0.0 ], [ 129.368055555555998, 35.672361111111101, 0.0 ], [ 129.371666666667011, 35.672916666666708, 0.0 ], [ 129.373472222222006, 35.669166666666698, 0.0 ], [ 129.37708333333299, 35.666944444444397, 0.0 ], [ 129.377361111110986, 35.663888888888906, 0.0 ], [ 129.375416666667007, 35.660277777777814, 0.0 ], [ 129.3775, 35.656527777777796, 0.0 ], [ 129.380694444444003, 35.656111111111102, 0.0 ], [ 129.380138888889007, 35.6522222222222, 0.0 ], [ 129.382083333332986, 35.6475, 0.0 ], [ 129.377361111110986, 35.640555555555594, 0.0 ], [ 129.378472222222001, 35.637638888888908, 0.0 ], [ 129.373611111110989, 35.6354166666667, 0.0 ], [ 129.360833333333005, 35.637638888888901, 0.0 ], [ 129.356111111111005, 35.634027777777803, 0.0 ], [ 129.35, 35.632638888888899, 0.0 ], [ 129.347222222222001, 35.629583333333301, 0.0 ], [ 129.341388888889014, 35.629305555555604, 0.0 ], [ 129.339166666667012, 35.627083333333303, 0.0 ], [ 129.333055555556001, 35.629027777777793, 0.0 ], [ 129.329166666666993, 35.6354166666667, 0.0 ], [ 129.321944444444, 35.635138888888903, 0.0 ], [ 129.31875, 35.639444444444401, 0.0 ], [ 129.317777777777991, 35.645694444444409, 0.0 ], [ 129.311666666667008, 35.644583333333308, 0.0 ], [ 129.307777777778, 35.6504166666667, 0.0 ], [ 129.30194444444399, 35.653472222222199, 0.0 ], [ 129.296805555556006, 35.650277777777802, 0.0 ], [ 129.295833333333007, 35.644861111111105, 0.0 ], [ 129.291944444443999, 35.645138888888901, 0.0 ], [ 129.290416666666999, 35.646388888888907, 0.0 ], [ 129.290694444444, 35.648888888888891, 0.0 ], [ 129.284861111111013, 35.655, 0.0 ], [ 129.286805555555986, 35.657222222222202, 0.0 ], [ 129.2875, 35.6631944444444, 0.0 ], [ 129.284305555555989, 35.661388888888901, 0.0 ], [ 129.28305555555599, 35.658194444444398, 0.0 ], [ 129.27944444444401, 35.657638888888904, 0.0 ], [ 129.274444444443986, 35.660138888888895, 0.0 ], [ 129.270277777778006, 35.659583333333302, 0.0 ], [ 129.261944444443998, 35.664861111111101, 0.0 ], [ 129.254583333332988, 35.66638888888891, 0.0 ], [ 129.259861111111007, 35.672777777777803, 0.0 ], [ 129.260972222221994, 35.6794444444444, 0.0 ], [ 129.25875, 35.683611111111105, 0.0 ], [ 129.262361111111005, 35.685833333333299, 0.0 ], [ 129.262638888889001, 35.691666666666698, 0.0 ], [ 129.271388888888993, 35.692083333333301, 0.0 ], [ 129.279861111110989, 35.698611111111099, 0.0 ], [ 129.277638888888987, 35.701944444444401, 0.0 ], [ 129.277916666667011, 35.705277777777802, 0.0 ], [ 129.280416666667008, 35.709166666666697, 0.0 ], [ 129.279861111110989, 35.712222222222209, 0.0 ], [ 129.282916666667006, 35.72, 0.0 ], [ 129.282638888889011, 35.723888888888901, 0.0 ], [ 129.287083333332987, 35.7325, 0.0 ], [ 129.303888888888991, 35.732916666666696, 0.0 ], [ 129.30375, 35.739166666666698, 0.0 ], [ 129.30597222222201, 35.743888888888897, 0.0 ], [ 129.30513888888899, 35.745833333333302, 0.0 ], [ 129.307638888888988, 35.748888888888899, 0.0 ], [ 129.305694444443986, 35.753055555555605, 0.0 ], [ 129.31041666666701, 35.760555555555598, 0.0 ], [ 129.3175, 35.758472222222203, 0.0 ], [ 129.332916666666989, 35.765555555555608, 0.0 ] ] ] } },
{ "type": "Feature", "properties": { "Name": "220105#02", "desc": "울산시(병영교)", "area": 47.43, "perim": 50.45 }, "geometry": { "type": "Polygon", "coordinates": [ [ [ 129.300138888888995, 35.653333333333293, 0.0 ], [ 129.307777777778, 35.6504166666667, 0.0 ], [ 129.311666666667008, 35.644583333333308, 0.0 ], [ 129.317777777777991, 35.645694444444409, 0.0 ], [ 129.31875, 35.639444444444401, 0.0 ], [ 129.321944444444, 35.635138888888903, 0.0 ], [ 129.329166666666993, 35.6354166666667, 0.0 ], [ 129.333055555556001, 35.629027777777793, 0.0 ], [ 129.338333333332997, 35.627083333333296, 0.0 ], [ 129.341388888889014, 35.629305555555604, 0.0 ], [ 129.347222222222001, 35.629583333333301, 0.0 ], [ 129.35, 35.632638888888899, 0.0 ], [ 129.356111111111005, 35.634027777777803, 0.0 ], [ 129.360833333333005, 35.637638888888901, 0.0 ], [ 129.373611111110989, 35.6354166666667, 0.0 ], [ 129.378611111111013, 35.637638888888901, 0.0 ], [ 129.38152777777799, 35.631111111111103, 0.0 ], [ 129.380277777777991, 35.62875, 0.0 ], [ 129.386111111111006, 35.627083333333296, 0.0 ], [ 129.390833333333006, 35.627916666666714, 0.0 ], [ 129.392638888888996, 35.626388888888897, 0.0 ], [ 129.393194444443992, 35.623333333333299, 0.0 ], [ 129.387777777778012, 35.622361111111104, 0.0 ], [ 129.385694444443999, 35.618888888888904, 0.0 ], [ 129.39097222222199, 35.613888888888901, 0.0 ], [ 129.389861111111003, 35.6125, 0.0 ], [ 129.394305555556002, 35.6036111111111, 0.0 ], [ 129.392916666666991, 35.600277777777791, 0.0 ], [ 129.394722222221986, 35.597916666666698, 0.0 ], [ 129.397916666666987, 35.5975, 0.0 ], [ 129.399583333332998, 35.5925, 0.0 ], [ 129.39875, 35.589722222222193, 0.0 ], [ 129.391388888888997, 35.588472222222201, 0.0 ], [ 129.389722222221991, 35.585972222222203, 0.0 ], [ 129.38625, 35.584861111111103, 0.0 ], [ 129.384583333333012, 35.589166666666706, 0.0 ], [ 129.385694444443999, 35.593055555555601, 0.0 ], [ 129.381805555556014, 35.595, 0.0 ], [ 129.38375, 35.598888888888901, 0.0 ], [ 129.3825, 35.605972222222192, 0.0 ], [ 129.380555555555986, 35.604027777777809, 0.0 ], [ 129.376111111110987, 35.604861111111106, 0.0 ], [ 129.375555555555991, 35.606805555555596, 0.0 ], [ 129.368611111110994, 35.603472222222194, 0.0 ], [ 129.358611111111003, 35.602916666666694, 0.0 ], [ 129.353333333333012, 35.604305555555598, 0.0 ], [ 129.349027777777991, 35.599444444444408, 0.0 ], [ 129.350416666667002, 35.593611111111102, 0.0 ], [ 129.348472222222, 35.585555555555594, 0.0 ], [ 129.355416666666997, 35.583055555555603, 0.0 ], [ 129.355138888889002, 35.58, 0.0 ], [ 129.352638888889004, 35.578888888888898, 0.0 ], [ 129.353611111111036, 35.576527777777798, 0.0 ], [ 129.348611111111012, 35.575416666666698, 0.0 ], [ 129.346944444444006, 35.577638888888906, 0.0 ], [ 129.34, 35.577361111111109, 0.0 ], [ 129.333611111110997, 35.58375, 0.0 ], [ 129.33, 35.582916666666698, 0.0 ], [ 129.328611111111002, 35.585972222222189, 0.0 ], [ 129.321944444444, 35.586527777777789, 0.0 ], [ 129.320555555556012, 35.5879166666667, 0.0 ], [ 129.313194444444008, 35.583611111111097, 0.0 ], [ 129.312083333332993, 35.578055555555601, 0.0 ], [ 129.309166666667011, 35.575694444444402, 0.0 ], [ 129.305833333332998, 35.576527777777798, 0.0 ], [ 129.300277777778007, 35.572638888888896, 0.0 ], [ 129.293611111111005, 35.576527777777798, 0.0 ], [ 129.290972222221995, 35.579444444444398, 0.0 ], [ 129.291527777777986, 35.583611111111104, 0.0 ], [ 129.294305555556008, 35.586388888888905, 0.0 ], [ 129.291527777777986, 35.588611111111099, 0.0 ], [ 129.289583333333013, 35.596111111111092, 0.0 ], [ 129.29625, 35.607222222222191, 0.0 ], [ 129.299583333333004, 35.609166666666702, 0.0 ], [ 129.299861111110999, 35.615, 0.0 ], [ 129.294583333333009, 35.618333333333283, 0.0 ], [ 129.294305555556008, 35.620833333333302, 0.0 ], [ 129.295138888888999, 35.626388888888904, 0.0 ], [ 129.298194444443993, 35.630833333333307, 0.0 ], [ 129.29625, 35.6375, 0.0 ], [ 129.29625, 35.648888888888898, 0.0 ], [ 129.300138888888995, 35.653333333333293, 0.0 ] ] ] } },
{ "type": "Feature", "properties": { "Name": "220105#03", "desc": "동천 n to 220106#03", "area": 18.39, "perim": 30.16 }, "geometry": { "type": "Polygon", "coordinates": [ [ [ 129.375416666667007, 35.60666666666669, 0.0 ], [ 129.376111111110987, 35.604861111111106, 0.0 ], [ 129.380555555555986, 35.604027777777809, 0.0 ], [ 129.3825, 35.605972222222192, 0.0 ], [ 129.38375, 35.604444444444397, 0.0 ], [ 129.382638888889005, 35.601666666666702, 0.0 ], [ 129.38375, 35.598888888888901, 0.0 ], [ 129.381805555556014, 35.595, 0.0 ], [ 129.385694444443999, 35.593055555555601, 0.0 ], [ 129.384583333333012, 35.589166666666706, 0.0 ], [ 129.38625, 35.584722222222197, 0.0 ], [ 129.381111111111011, 35.581527777777801, 0.0 ], [ 129.376111111110987, 35.582638888888901, 0.0 ], [ 129.373888888889013, 35.5804166666667, 0.0 ], [ 129.368055555555998, 35.579861111111107, 0.0 ], [ 129.365277777778005, 35.57625, 0.0 ], [ 129.360416666666993, 35.576944444444408, 0.0 ], [ 129.361527777778008, 35.558611111111098, 0.0 ], [ 129.358333333333007, 35.550694444444396, 0.0 ], [ 129.350833333332986, 35.549305555555598, 0.0 ], [ 129.349861111111011, 35.552222222222206, 0.0 ], [ 129.34555555555599, 35.555138888888891, 0.0 ], [ 129.333055555556001, 35.557361111111106, 0.0 ], [ 129.333472222222014, 35.558888888888902, 0.0 ], [ 129.330138888888996, 35.5625, 0.0 ], [ 129.32847222222199, 35.565555555555598, 0.0 ], [ 129.329027777778009, 35.568055555555603, 0.0 ], [ 129.326388888888999, 35.571527777777803, 0.0 ], [ 129.322222222221995, 35.570972222222203, 0.0 ], [ 129.317222222222, 35.5740277777778, 0.0 ], [ 129.315, 35.57375, 0.0 ], [ 129.311805555555992, 35.577638888888906, 0.0 ], [ 129.313194444444008, 35.583611111111097, 0.0 ], [ 129.320555555556012, 35.5879166666667, 0.0 ], [ 129.321944444444, 35.586527777777789, 0.0 ], [ 129.328611111111002, 35.585972222222189, 0.0 ], [ 129.33, 35.582916666666698, 0.0 ], [ 129.333611111110997, 35.58375, 0.0 ], [ 129.34, 35.577361111111109, 0.0 ], [ 129.346944444444006, 35.577638888888906, 0.0 ], [ 129.348611111111012, 35.575416666666698, 0.0 ], [ 129.353611111111036, 35.576527777777798, 0.0 ], [ 129.352638888889004, 35.578888888888898, 0.0 ], [ 129.355138888889002, 35.58, 0.0 ], [ 129.355416666666997, 35.583055555555603, 0.0 ], [ 129.348472222222, 35.585555555555594, 0.0 ], [ 129.350416666667002, 35.593611111111102, 0.0 ], [ 129.349027777777991, 35.599444444444408, 0.0 ], [ 129.350972222221998, 35.602777777777803, 0.0 ], [ 129.353333333333012, 35.604305555555598, 0.0 ], [ 129.358611111111003, 35.602916666666694, 0.0 ], [ 129.368611111110994, 35.603472222222194, 0.0 ], [ 129.375416666667007, 35.60666666666669, 0.0 ] ] ] } },
{ "type": "Feature", "properties": { "Name": "220106#01", "desc": "울산시(태화교)", "area": 15.93, "perim": 27.87 }, "geometry": { "type": "Polygon", "coordinates": [ [ [ 129.289861111111009, 35.579166666666701, 0.0 ], [ 129.300277777778007, 35.572638888888896, 0.0 ], [ 129.305833333332998, 35.576527777777798, 0.0 ], [ 129.309166666667011, 35.575694444444501, 0.0 ], [ 129.31125, 35.577638888888899, 0.0 ], [ 129.311805555555992, 35.572777777777794, 0.0 ], [ 129.309027777777999, 35.568333333333293, 0.0 ], [ 129.31041666666701, 35.564166666666701, 0.0 ], [ 129.308194444444013, 35.562222222222211, 0.0 ], [ 129.31041666666701, 35.558611111111098, 0.0 ], [ 129.30875, 35.55416666666671, 0.0 ], [ 129.30986111111099, 35.5525, 0.0 ], [ 129.306805555555997, 35.548333333333289, 0.0 ], [ 129.308194444444013, 35.547777777777803, 0.0 ], [ 129.306944444444014, 35.543194444444495, 0.0 ], [ 129.298888888888996, 35.543194444444502, 0.0 ], [ 129.295, 35.54125, 0.0 ], [ 129.291944444443999, 35.543194444444495, 0.0 ], [ 129.289722222221997, 35.541805555555598, 0.0 ], [ 129.287222222221999, 35.5445833333333, 0.0 ], [ 129.274444444443986, 35.544305555555617, 0.0 ], [ 129.271527777778005, 35.537222222222198, 0.0 ], [ 129.275416666667013, 35.5325, 0.0 ], [ 129.27388888888899, 35.529027777777799, 0.0 ], [ 129.258611111111009, 35.531527777777796, 0.0 ], [ 129.256111111111011, 35.535138888888909, 0.0 ], [ 129.253888888889009, 35.532916666666701, 0.0 ], [ 129.246944444444011, 35.534305555555591, 0.0 ], [ 129.245555555555995, 35.53625, 0.0 ], [ 129.236805555556003, 35.536388888888894, 0.0 ], [ 129.238888888888994, 35.53958333333329, 0.0 ], [ 129.241666666666987, 35.539583333333297, 0.0 ], [ 129.244166666667013, 35.542638888888902, 0.0 ], [ 129.250833333332992, 35.54625, 0.0 ], [ 129.256388888889006, 35.546527777777804, 0.0 ], [ 129.266944444443993, 35.5520833333333, 0.0 ], [ 129.274166666667014, 35.552361111111104, 0.0 ], [ 129.276666666667012, 35.55625, 0.0 ], [ 129.282777777777994, 35.557916666666699, 0.0 ], [ 129.282083333332992, 35.561666666666703, 0.0 ], [ 129.275972222222009, 35.565, 0.0 ], [ 129.274305555555998, 35.574444444444502, 0.0 ], [ 129.280277777777997, 35.572916666666693, 0.0 ], [ 129.28472222222203, 35.578194444444406, 0.0 ], [ 129.289166666667001, 35.577916666666702, 0.0 ], [ 129.289861111111009, 35.579166666666701, 0.0 ] ] ] } },
{ "type": "Feature", "properties": { "Name": "220106#02", "desc": "동천합류전 n to 220106#03", "area": 8.63, "perim": 17.52 }, "geometry": { "type": "Polygon", "coordinates": [ [ [ 129.31125, 35.5775, 0.0 ], [ 129.314027777777994, 35.5763888888889, 0.0 ], [ 129.315, 35.57375, 0.0 ], [ 129.317222222222, 35.5740277777778, 0.0 ], [ 129.319722222221998, 35.571805555555592, 0.0 ], [ 129.326388888888999, 35.571527777777803, 0.0 ], [ 129.329027777778009, 35.568055555555603, 0.0 ], [ 129.32847222222199, 35.565555555555598, 0.0 ], [ 129.330138888888996, 35.5625, 0.0 ], [ 129.333472222222014, 35.558888888888902, 0.0 ], [ 129.333055555556001, 35.557361111111106, 0.0 ], [ 129.34555555555599, 35.555138888888891, 0.0 ], [ 129.349861111111011, 35.552222222222206, 0.0 ], [ 129.350694444444002, 35.549583333333302, 0.0 ], [ 129.3475, 35.5456944444445, 0.0 ], [ 129.34166666666701, 35.5456944444445, 0.0 ], [ 129.340555555555994, 35.547361111111101, 0.0 ], [ 129.33722222222201, 35.545416666666711, 0.0 ], [ 129.333611111110997, 35.545972222222197, 0.0 ], [ 129.334027777778005, 35.5427777777778, 0.0 ], [ 129.3325, 35.540972222222202, 0.0 ], [ 129.33, 35.54430555555561, 0.0 ], [ 129.322777777777986, 35.540138888888897, 0.0 ], [ 129.318333333332987, 35.542916666666692, 0.0 ], [ 129.311388888889013, 35.541527777777802, 0.0 ], [ 129.310555555555993, 35.539861111111101, 0.0 ], [ 129.305833333332998, 35.542083333333302, 0.0 ], [ 129.308194444444013, 35.547777777777803, 0.0 ], [ 129.306805555555997, 35.548333333333289, 0.0 ], [ 129.30986111111099, 35.5525, 0.0 ], [ 129.30875, 35.55416666666671, 0.0 ], [ 129.31041666666701, 35.558611111111098, 0.0 ], [ 129.308194444444013, 35.562222222222211, 0.0 ], [ 129.31041666666701, 35.564166666666701, 0.0 ], [ 129.309027777777999, 35.568333333333293, 0.0 ], [ 129.311805555555992, 35.572777777777794, 0.0 ], [ 129.31125, 35.5775, 0.0 ] ] ] } },
{ "type": "Feature", "properties": { "Name": "220106#03", "desc": "태화강 n to 000000#01", "area": 24.75, "perim": 30.5 }, "geometry": { "type": "Polygon", "coordinates": [ [ [ 129.397361111110996, 35.588888888888903, 0.0 ], [ 129.397083333333001, 35.584444444444401, 0.0 ], [ 129.400694444444014, 35.577777777777797, 0.0 ], [ 129.399166666667014, 35.574305555555597, 0.0 ], [ 129.394583333333031, 35.572222222222202, 0.0 ], [ 129.395138888889022, 35.5694444444444, 0.0 ], [ 129.399166666667014, 35.56875, 0.0 ], [ 129.403888888889014, 35.560972222222198, 0.0 ], [ 129.411388888889007, 35.561527777777798, 0.0 ], [ 129.414583333333013, 35.558055555555597, 0.0 ], [ 129.411388888889007, 35.552916666666697, 0.0 ], [ 129.407361111110987, 35.551111111111091, 0.0 ], [ 129.407916666667006, 35.543333333333308, 0.0 ], [ 129.405833333332993, 35.541805555555598, 0.0 ], [ 129.396666666666988, 35.540972222222209, 0.0 ], [ 129.391944444443993, 35.535972222222199, 0.0 ], [ 129.389722222221991, 35.535972222222199, 0.0 ], [ 129.390416666666994, 35.533611111111092, 0.0 ], [ 129.384861111111007, 35.53, 0.0 ], [ 129.3875, 35.526805555555597, 0.0 ], [ 129.381666666667002, 35.525416666666707, 0.0 ], [ 129.373333333332994, 35.532361111111101, 0.0 ], [ 129.371944444444011, 35.530416666666703, 0.0 ], [ 129.368333333333027, 35.532083333333297, 0.0 ], [ 129.363333333333003, 35.53125, 0.0 ], [ 129.362222222221988, 35.534861111111098, 0.0 ], [ 129.357222222221992, 35.537083333333307, 0.0 ], [ 129.354166666667027, 35.535138888888909, 0.0 ], [ 129.346944444444006, 35.534583333333302, 0.0 ], [ 129.340277777777999, 35.5376388888889, 0.0 ], [ 129.338888888888988, 35.539861111111101, 0.0 ], [ 129.336666666667014, 35.539861111111101, 0.0 ], [ 129.334444444443989, 35.537361111111096, 0.0 ], [ 129.33125, 35.538333333333298, 0.0 ], [ 129.334027777778005, 35.5427777777778, 0.0 ], [ 129.333611111110997, 35.545972222222197, 0.0 ], [ 129.33722222222201, 35.545416666666711, 0.0 ], [ 129.340555555555994, 35.547361111111101, 0.0 ], [ 129.34166666666701, 35.5456944444445, 0.0 ], [ 129.3475, 35.5456944444445, 0.0 ], [ 129.35027777777799, 35.549583333333302, 0.0 ], [ 129.358472222221991, 35.550833333333294, 0.0 ], [ 129.361527777778008, 35.558611111111098, 0.0 ], [ 129.360555555556004, 35.577083333333299, 0.0 ], [ 129.365277777778005, 35.57625, 0.0 ], [ 129.368055555555998, 35.579861111111107, 0.0 ], [ 129.373888888889013, 35.5804166666667, 0.0 ], [ 129.376111111110987, 35.582638888888901, 0.0 ], [ 129.383055555556012, 35.582083333333301, 0.0 ], [ 129.391388888888997, 35.588472222222201, 0.0 ], [ 129.397361111110996, 35.588888888888903, 0.0 ] ] ] } }
]
}
