{
"type": "FeatureCollection",
"name": "유역도_형산강",
"crs": { "type": "name", "properties": { "name": "urn:ogc:def:crs:OGC:1.3:CRS84" } },
"features": [
{ "type": "Feature", "properties": { "Name": "210101#01", "desc": "경주시(망성교)", "area": 176.44, "perim": 80.89 }, "geometry": { "type": "Polygon", "coordinates": [ [ [ 129.16625, 35.799444444444397, 0.0 ], [ 129.171388888888998, 35.799305555555591, 0.0 ], [ 129.172916666666993, 35.7975, 0.0 ], [ 129.172916666666993, 35.793333333333301, 0.0 ], [ 129.178055555556, 35.79013888888889, 0.0 ], [ 129.195833333333013, 35.79013888888889, 0.0 ], [ 129.198611111111006, 35.7876388888889, 0.0 ], [ 129.204722222221989, 35.786527777777806, 0.0 ], [ 129.209166666666988, 35.78791666666671, 0.0 ], [ 129.213611111110993, 35.785694444444403, 0.0 ], [ 129.223055555555987, 35.787361111111103, 0.0 ], [ 129.223888888889007, 35.784583333333309, 0.0 ], [ 129.228611111111007, 35.784027777777801, 0.0 ], [ 129.22930555555601, 35.781111111111116, 0.0 ], [ 129.232361111111004, 35.779166666666704, 0.0 ], [ 129.231527777778012, 35.773055555555601, 0.0 ], [ 129.23402777777801, 35.771388888888907, 0.0 ], [ 129.233472222221991, 35.7697222222222, 0.0 ], [ 129.235555555556004, 35.76652777777781, 0.0 ], [ 129.239166666666989, 35.769027777777801, 0.0 ], [ 129.249166666667008, 35.771805555555602, 0.0 ], [ 129.2525, 35.774583333333304, 0.0 ], [ 129.255416666667003, 35.77277777777779, 0.0 ], [ 129.257638888889005, 35.7675, 0.0 ], [ 129.25625, 35.76, 0.0 ], [ 129.260416666666998, 35.75, 0.0 ], [ 129.25875, 35.748333333333299, 0.0 ], [ 129.258194444444001, 35.7425, 0.0 ], [ 129.259444444444, 35.7395833333333, 0.0 ], [ 129.262916666666996, 35.737777777777794, 0.0 ], [ 129.262638888889001, 35.733888888888906, 0.0 ], [ 129.264027777778011, 35.733055555555602, 0.0 ], [ 129.26625, 35.723888888888894, 0.0 ], [ 129.262916666666996, 35.720277777777802, 0.0 ], [ 129.267222222221989, 35.715972222222184, 0.0 ], [ 129.272222222222013, 35.715416666666691, 0.0 ], [ 129.273611111110995, 35.712083333333304, 0.0 ], [ 129.279722222222006, 35.712083333333304, 0.0 ], [ 129.280416666667008, 35.709166666666697, 0.0 ], [ 129.277638888888987, 35.703333333333305, 0.0 ], [ 129.279861111110989, 35.698611111111099, 0.0 ], [ 129.276944444444013, 35.695138888888899, 0.0 ], [ 129.269444444443991, 35.6915277777778, 0.0 ], [ 129.262638888889001, 35.691666666666698, 0.0 ], [ 129.262361111111005, 35.685833333333299, 0.0 ], [ 129.25875, 35.683611111111105, 0.0 ], [ 129.260972222221994, 35.6794444444444, 0.0 ], [ 129.259861111111007, 35.672777777777803, 0.0 ], [ 129.254444444444005, 35.66625, 0.0 ], [ 129.248055555555993, 35.664861111111094, 0.0 ], [ 129.246527777777999, 35.668888888888901, 0.0 ], [ 129.238888888888994, 35.675138888888902, 0.0 ], [ 129.23222222222202, 35.673472222222195, 0.0 ], [ 129.228055555556011, 35.6759722222222, 0.0 ], [ 129.223611111111012, 35.67625, 0.0 ], [ 129.221944444444006, 35.67875, 0.0 ], [ 129.218333333332993, 35.677916666666697, 0.0 ], [ 129.218333333332993, 35.680694444444406, 0.0 ], [ 129.216944444444039, 35.679305555555608, 0.0 ], [ 129.2125, 35.679583333333298, 0.0 ], [ 129.209166666666988, 35.673194444444398, 0.0 ], [ 129.206944444443991, 35.672916666666701, 0.0 ], [ 129.206388888888995, 35.6759722222222, 0.0 ], [ 129.202222222221991, 35.67625, 0.0 ], [ 129.200277777778012, 35.674861111111099, 0.0 ], [ 129.198333333333011, 35.677361111111097, 0.0 ], [ 129.194166666667002, 35.678472222222204, 0.0 ], [ 129.193611111111011, 35.67680555555561, 0.0 ], [ 129.189166666667006, 35.67625, 0.0 ], [ 129.188888888889011, 35.673472222222202, 0.0 ], [ 129.184166666667011, 35.67375, 0.0 ], [ 129.18125, 35.677222222222191, 0.0 ], [ 129.182083333332997, 35.680277777777803, 0.0 ], [ 129.177361111110997, 35.681944444444404, 0.0 ], [ 129.176111111110998, 35.692083333333301, 0.0 ], [ 129.173611111111001, 35.690972222222207, 0.0 ], [ 129.164444444444001, 35.694583333333306, 0.0 ], [ 129.1625, 35.692083333333301, 0.0 ], [ 129.15833333333299, 35.691527777777807, 0.0 ], [ 129.155138888889013, 35.693333333333307, 0.0 ], [ 129.155, 35.695694444444406, 0.0 ], [ 129.149166666667014, 35.699305555555604, 0.0 ], [ 129.134166666666999, 35.69375, 0.0 ], [ 129.132638888889005, 35.6925, 0.0 ], [ 129.134027777777987, 35.6880555555556, 0.0 ], [ 129.126388888889011, 35.681527777777802, 0.0 ], [ 129.12, 35.684861111111104, 0.0 ], [ 129.115, 35.685138888888901, 0.0 ], [ 129.107777777778011, 35.681805555555606, 0.0 ], [ 129.100138888889006, 35.675833333333294, 0.0 ], [ 129.096527777777993, 35.682222222222201, 0.0 ], [ 129.098472222222, 35.68888888888889, 0.0 ], [ 129.095694444444007, 35.695277777777797, 0.0 ], [ 129.093194444444009, 35.696388888888897, 0.0 ], [ 129.090138888888987, 35.701944444444493, 0.0 ], [ 129.08875, 35.706666666666692, 0.0 ], [ 129.089583333332996, 35.710555555555594, 0.0 ], [ 129.085972222222011, 35.716666666666704, 0.0 ], [ 129.08625, 35.720277777777802, 0.0 ], [ 129.088194444444014, 35.7216666666667, 0.0 ], [ 129.087638888888989, 35.725, 0.0 ], [ 129.09069444444404, 35.727777777777803, 0.0 ], [ 129.089583333332996, 35.731666666666698, 0.0 ], [ 129.091805555556022, 35.733888888888906, 0.0 ], [ 129.087361111110994, 35.740555555555609, 0.0 ], [ 129.083472222222014, 35.74277777777781, 0.0 ], [ 129.087916666667013, 35.745277777777801, 0.0 ], [ 129.087361111110994, 35.7475, 0.0 ], [ 129.089861111110991, 35.751111111111108, 0.0 ], [ 129.091805555556022, 35.760277777777802, 0.0 ], [ 129.089583333332996, 35.765277777777804, 0.0 ], [ 129.090972222222007, 35.77, 0.0 ], [ 129.084027777778005, 35.782777777777795, 0.0 ], [ 129.085416666666987, 35.785833333333308, 0.0 ], [ 129.084305555556, 35.789444444444399, 0.0 ], [ 129.089166666667012, 35.7945833333333, 0.0 ], [ 129.092777777777997, 35.789305555555593, 0.0 ], [ 129.108055555556007, 35.784583333333302, 0.0 ], [ 129.109861111111002, 35.7772222222222, 0.0 ], [ 129.115, 35.772083333333299, 0.0 ], [ 129.119722222222009, 35.769027777777794, 0.0 ], [ 129.13, 35.766527777777803, 0.0 ], [ 129.133888888889032, 35.763472222222198, 0.0 ], [ 129.13625, 35.768333333333302, 0.0 ], [ 129.133472222221997, 35.773333333333305, 0.0 ], [ 129.139166666666995, 35.775416666666693, 0.0 ], [ 129.145555555556001, 35.775138888888897, 0.0 ], [ 129.150694444444014, 35.784444444444397, 0.0 ], [ 129.155833333332993, 35.786805555555603, 0.0 ], [ 129.159305555555989, 35.790833333333303, 0.0 ], [ 129.15875, 35.793333333333308, 0.0 ], [ 129.160138888889037, 35.795277777777812, 0.0 ], [ 129.16625, 35.799444444444397, 0.0 ] ] ] } },
{ "type": "Feature", "properties": { "Name": "210101#02", "desc": "형산강상류 n to 210108#01", "area": 10.7, "perim": 16.19 }, "geometry": { "type": "Polygon", "coordinates": [ [ [ 129.215972222222007, 35.821388888888897, 0.0 ], [ 129.223888888889007, 35.82125, 0.0 ], [ 129.224861111111011, 35.81805555555561, 0.0 ], [ 129.229027777777986, 35.813888888888897, 0.0 ], [ 129.226805555556012, 35.812222222222204, 0.0 ], [ 129.227083333333013, 35.807777777777794, 0.0 ], [ 129.229583333333011, 35.803611111111103, 0.0 ], [ 129.229027777777986, 35.795555555555602, 0.0 ], [ 129.226805555556012, 35.79027777777781, 0.0 ], [ 129.218611111110988, 35.785694444444395, 0.0 ], [ 129.213611111110993, 35.785694444444403, 0.0 ], [ 129.209166666666988, 35.78791666666671, 0.0 ], [ 129.203333333333006, 35.786527777777799, 0.0 ], [ 129.200833333333009, 35.788194444444407, 0.0 ], [ 129.198611111111006, 35.7876388888889, 0.0 ], [ 129.195833333333013, 35.79013888888889, 0.0 ], [ 129.187222222222005, 35.79013888888889, 0.0 ], [ 129.186944444444009, 35.794305555555596, 0.0 ], [ 129.191944444444005, 35.794305555555603, 0.0 ], [ 129.194444444444002, 35.798472222222202, 0.0 ], [ 129.198472222221994, 35.799722222222201, 0.0 ], [ 129.197083333333012, 35.803611111111103, 0.0 ], [ 129.19125, 35.810555555555595, 0.0 ], [ 129.198888888889002, 35.814027777777802, 0.0 ], [ 129.200555555556008, 35.817638888888901, 0.0 ], [ 129.202777777778039, 35.817638888888901, 0.0 ], [ 129.203055555556006, 35.815972222222193, 0.0 ], [ 129.215972222222007, 35.821388888888897, 0.0 ] ] ] } },
{ "type": "Feature", "properties": { "Name": "210102#01", "desc": "경주시(효현교)", "area": 156.95, "perim": 69.27 }, "geometry": { "type": "Polygon", "coordinates": [ [ [ 129.065555555556017, 35.941805555555597, 0.0 ], [ 129.078333333333006, 35.941805555555597, 0.0 ], [ 129.08166666666699, 35.937638888888898, 0.0 ], [ 129.083333333333002, 35.939861111111107, 0.0 ], [ 129.089722222222008, 35.938472222222202, 0.0 ], [ 129.095, 35.940694444444397, 0.0 ], [ 129.109861111111002, 35.93, 0.0 ], [ 129.114305555556001, 35.923055555555607, 0.0 ], [ 129.11375, 35.918333333333301, 0.0 ], [ 129.115138888888993, 35.9172222222222, 0.0 ], [ 129.110138888888997, 35.9125, 0.0 ], [ 129.110138888888997, 35.910833333333301, 0.0 ], [ 129.115416666666988, 35.904166666666697, 0.0 ], [ 129.115416666666988, 35.90194444444451, 0.0 ], [ 129.119722222222009, 35.90069444444439, 0.0 ], [ 129.123055555555993, 35.894861111111098, 0.0 ], [ 129.127222222222002, 35.89125, 0.0 ], [ 129.13375, 35.889166666666711, 0.0 ], [ 129.13708333333301, 35.8830555555556, 0.0 ], [ 129.135694444443999, 35.876666666666715, 0.0 ], [ 129.138194444443997, 35.870277777777808, 0.0 ], [ 129.135972222221994, 35.8680555555556, 0.0 ], [ 129.138611111111004, 35.8640277777778, 0.0 ], [ 129.14875, 35.859722222222203, 0.0 ], [ 129.148472222222011, 35.850277777777798, 0.0 ], [ 129.15125, 35.8475, 0.0 ], [ 129.151527777778, 35.838611111111099, 0.0 ], [ 129.156944444444008, 35.838472222222201, 0.0 ], [ 129.163055555556014, 35.832361111111098, 0.0 ], [ 129.169444444443997, 35.835138888888899, 0.0 ], [ 129.173888888888996, 35.835138888888899, 0.0 ], [ 129.175416666667019, 35.833611111111082, 0.0 ], [ 129.176805555556001, 35.8205555555556, 0.0 ], [ 129.180694444443986, 35.819583333333298, 0.0 ], [ 129.179583333332999, 35.815555555555605, 0.0 ], [ 129.175, 35.814027777777795, 0.0 ], [ 129.172638888888997, 35.811111111111103, 0.0 ], [ 129.177083333333002, 35.8075, 0.0 ], [ 129.173472222221989, 35.800555555555604, 0.0 ], [ 129.164444444444001, 35.799027777777802, 0.0 ], [ 129.160555555555987, 35.7956944444445, 0.0 ], [ 129.15875, 35.793333333333308, 0.0 ], [ 129.159305555555989, 35.790833333333303, 0.0 ], [ 129.155833333332993, 35.786805555555603, 0.0 ], [ 129.150694444444014, 35.784444444444397, 0.0 ], [ 129.145555555556001, 35.775138888888897, 0.0 ], [ 129.139166666666995, 35.775416666666693, 0.0 ], [ 129.133611111111009, 35.773472222222203, 0.0 ], [ 129.13625, 35.768333333333302, 0.0 ], [ 129.133888888889032, 35.763472222222198, 0.0 ], [ 129.13, 35.766527777777803, 0.0 ], [ 129.119722222222009, 35.769027777777794, 0.0 ], [ 129.115, 35.772083333333299, 0.0 ], [ 129.109861111111002, 35.7772222222222, 0.0 ], [ 129.108055555556007, 35.784583333333302, 0.0 ], [ 129.092777777777997, 35.789305555555593, 0.0 ], [ 129.089166666667012, 35.7945833333333, 0.0 ], [ 129.083333333333002, 35.78875, 0.0 ], [ 129.078611111111002, 35.790694444444405, 0.0 ], [ 129.074166666666997, 35.789861111111108, 0.0 ], [ 129.07, 35.793194444444403, 0.0 ], [ 129.063888888889011, 35.79375, 0.0 ], [ 129.062638888889012, 35.797777777777796, 0.0 ], [ 129.06375, 35.799722222222201, 0.0 ], [ 129.06069444444401, 35.808611111111098, 0.0 ], [ 129.062083333332993, 35.812777777777796, 0.0 ], [ 129.05986111111099, 35.814444444444398, 0.0 ], [ 129.05875, 35.821666666666694, 0.0 ], [ 129.055555555555998, 35.8240277777778, 0.0 ], [ 129.049166666666991, 35.825138888888908, 0.0 ], [ 129.046111111111003, 35.824027777777808, 0.0 ], [ 129.040972222221995, 35.826111111111096, 0.0 ], [ 129.04375, 35.829444444444398, 0.0 ], [ 129.044583333333009, 35.837777777777802, 0.0 ], [ 129.041666666666998, 35.84125, 0.0 ], [ 129.037222222221999, 35.844027777777789, 0.0 ], [ 129.031666666667007, 35.842916666666703, 0.0 ], [ 129.023055555555999, 35.847638888888902, 0.0 ], [ 129.021111111110997, 35.84625, 0.0 ], [ 129.01625, 35.85, 0.0 ], [ 129.019861111110998, 35.857777777777798, 0.0 ], [ 129.032638888889011, 35.87, 0.0 ], [ 129.030416666667008, 35.8744444444444, 0.0 ], [ 129.031805555555991, 35.878055555555591, 0.0 ], [ 129.029027777777998, 35.8819444444444, 0.0 ], [ 129.026805555555995, 35.89, 0.0 ], [ 129.031388888889012, 35.889027777777805, 0.0 ], [ 129.032916666667006, 35.894166666666706, 0.0 ], [ 129.035138888889009, 35.8952777777778, 0.0 ], [ 129.032083333332992, 35.900555555555599, 0.0 ], [ 129.037361111111011, 35.905, 0.0 ], [ 129.036805555555986, 35.910555555555597, 0.0 ], [ 129.038055555556014, 35.9120833333333, 0.0 ], [ 129.046111111111003, 35.9126388888889, 0.0 ], [ 129.04722222222199, 35.918472222222199, 0.0 ], [ 129.055, 35.9201388888889, 0.0 ], [ 129.05625, 35.92444444444439, 0.0 ], [ 129.060972222222006, 35.9275, 0.0 ], [ 129.061527777777997, 35.930277777777803, 0.0 ], [ 129.059305555555994, 35.933333333333309, 0.0 ], [ 129.063194444444008, 35.93888888888889, 0.0 ], [ 129.065555555556017, 35.941805555555597, 0.0 ] ] ] } },
{ "type": "Feature", "properties": { "Name": "210102#02", "desc": "대천 n to 210108#01", "area": 5.51, "perim": 11.85 }, "geometry": { "type": "Polygon", "coordinates": [ [ [ 129.181805555555997, 35.819722222222204, 0.0 ], [ 129.196944444444, 35.817361111111104, 0.0 ], [ 129.199305555556009, 35.814722222222201, 0.0 ], [ 129.19125, 35.810555555555595, 0.0 ], [ 129.197083333333012, 35.803611111111103, 0.0 ], [ 129.198472222221994, 35.799722222222201, 0.0 ], [ 129.194444444444002, 35.798472222222202, 0.0 ], [ 129.191944444444005, 35.794305555555603, 0.0 ], [ 129.186944444444009, 35.794305555555596, 0.0 ], [ 129.186805555555992, 35.790833333333303, 0.0 ], [ 129.183888888888987, 35.789861111111101, 0.0 ], [ 129.178055555556, 35.79013888888889, 0.0 ], [ 129.173055555556004, 35.79319444444441, 0.0 ], [ 129.17152777777801, 35.798888888888897, 0.0 ], [ 129.177083333333002, 35.806944444444397, 0.0 ], [ 129.172638888888997, 35.811111111111103, 0.0 ], [ 129.175, 35.814027777777795, 0.0 ], [ 129.178611111110996, 35.81458333333331, 0.0 ], [ 129.181805555555997, 35.819722222222204, 0.0 ] ] ] } },
{ "type": "Feature", "properties": { "Name": "210103#01", "desc": "남천합류전 n to 210108#02", "area": 89.6, "perim": 68.31 }, "geometry": { "type": "Polygon", "coordinates": [ [ [ 129.216527777777998, 35.84166666666669, 0.0 ], [ 129.228611111111007, 35.841527777777806, 0.0 ], [ 129.238888888888994, 35.839305555555597, 0.0 ], [ 129.246666666667011, 35.839861111111098, 0.0 ], [ 129.247083333332995, 35.837777777777802, 0.0 ], [ 129.250277777777995, 35.83625, 0.0 ], [ 129.255833333332987, 35.840694444444409, 0.0 ], [ 129.264444444443996, 35.83875, 0.0 ], [ 129.266805555556004, 35.8333333333333, 0.0 ], [ 129.265416666666994, 35.83138888888891, 0.0 ], [ 129.269027777778007, 35.829166666666708, 0.0 ], [ 129.26597222222199, 35.82083333333329, 0.0 ], [ 129.269305555556002, 35.814166666666694, 0.0 ], [ 129.27625, 35.808055555555597, 0.0 ], [ 129.275694444444014, 35.8055555555556, 0.0 ], [ 129.277638888888987, 35.801944444444402, 0.0 ], [ 129.282777777777994, 35.799583333333302, 0.0 ], [ 129.285555555555987, 35.795138888888893, 0.0 ], [ 129.290833333333012, 35.792361111111099, 0.0 ], [ 129.297361111111002, 35.796111111111102, 0.0 ], [ 129.295694444443996, 35.800555555555604, 0.0 ], [ 129.298194444443993, 35.804722222222203, 0.0 ], [ 129.29652777777801, 35.8066666666667, 0.0 ], [ 129.297916666666993, 35.815, 0.0 ], [ 129.3, 35.816805555555597, 0.0 ], [ 129.303888888888991, 35.815138888888903, 0.0 ], [ 129.31, 35.82097222222221, 0.0 ], [ 129.317638888889007, 35.818611111111103, 0.0 ], [ 129.317638888889007, 35.814166666666701, 0.0 ], [ 129.319444444444002, 35.810972222222198, 0.0 ], [ 129.335, 35.806527777777802, 0.0 ], [ 129.34, 35.807083333333303, 0.0 ], [ 129.347083333332989, 35.800277777777801, 0.0 ], [ 129.346805555555989, 35.795277777777812, 0.0 ], [ 129.350694444444002, 35.789166666666702, 0.0 ], [ 129.350416666667002, 35.783888888888896, 0.0 ], [ 129.351527777777989, 35.781111111111109, 0.0 ], [ 129.353472222221995, 35.780555555555601, 0.0 ], [ 129.354027777777986, 35.773055555555601, 0.0 ], [ 129.351805555556012, 35.77111111111109, 0.0 ], [ 129.35375, 35.768888888888902, 0.0 ], [ 129.352361111111009, 35.766388888888891, 0.0 ], [ 129.354583333333011, 35.765277777777797, 0.0 ], [ 129.355416666666997, 35.761944444444509, 0.0 ], [ 129.35430555555601, 35.7558333333333, 0.0 ], [ 129.353055555556011, 35.754305555555597, 0.0 ], [ 129.348888888889007, 35.755138888888908, 0.0 ], [ 129.34, 35.764861111111102, 0.0 ], [ 129.333888888888993, 35.765694444444399, 0.0 ], [ 129.3175, 35.758472222222203, 0.0 ], [ 129.310555555555993, 35.760694444444397, 0.0 ], [ 129.305694444443986, 35.753055555555605, 0.0 ], [ 129.307638888888988, 35.748888888888899, 0.0 ], [ 129.30513888888899, 35.745833333333302, 0.0 ], [ 129.30597222222201, 35.743888888888897, 0.0 ], [ 129.303194444443989, 35.735833333333289, 0.0 ], [ 129.304027777778003, 35.733055555555602, 0.0 ], [ 129.287222222221999, 35.732638888888893, 0.0 ], [ 129.282361111110987, 35.723055555555604, 0.0 ], [ 129.282916666667006, 35.72, 0.0 ], [ 129.280694444444009, 35.713055555555599, 0.0 ], [ 129.278888888889014, 35.711527777777796, 0.0 ], [ 129.273611111110995, 35.712083333333304, 0.0 ], [ 129.272222222222013, 35.715416666666691, 0.0 ], [ 129.267222222221989, 35.715972222222184, 0.0 ], [ 129.262916666666996, 35.720277777777802, 0.0 ], [ 129.26625, 35.72361111111109, 0.0 ], [ 129.264027777778011, 35.733055555555602, 0.0 ], [ 129.262638888889001, 35.733888888888906, 0.0 ], [ 129.262916666666996, 35.737777777777794, 0.0 ], [ 129.259444444444, 35.7395833333333, 0.0 ], [ 129.258194444444001, 35.7425, 0.0 ], [ 129.25875, 35.748333333333299, 0.0 ], [ 129.260416666666998, 35.75, 0.0 ], [ 129.25625, 35.76, 0.0 ], [ 129.257638888889005, 35.7675, 0.0 ], [ 129.255416666667003, 35.77277777777779, 0.0 ], [ 129.2525, 35.774583333333304, 0.0 ], [ 129.249166666667008, 35.771805555555602, 0.0 ], [ 129.239166666666989, 35.769027777777801, 0.0 ], [ 129.235555555556004, 35.76652777777781, 0.0 ], [ 129.233472222221991, 35.7697222222222, 0.0 ], [ 129.23402777777801, 35.771388888888907, 0.0 ], [ 129.231527777778012, 35.773055555555601, 0.0 ], [ 129.232361111111004, 35.779166666666704, 0.0 ], [ 129.22930555555601, 35.781111111111116, 0.0 ], [ 129.228611111111007, 35.784027777777801, 0.0 ], [ 129.223472222222, 35.785, 0.0 ], [ 129.222916666667004, 35.788055555555594, 0.0 ], [ 129.226805555556012, 35.79027777777781, 0.0 ], [ 129.229027777777986, 35.795555555555602, 0.0 ], [ 129.22930555555601, 35.805833333333297, 0.0 ], [ 129.227083333333013, 35.807777777777794, 0.0 ], [ 129.226805555556012, 35.81166666666671, 0.0 ], [ 129.229027777777986, 35.813888888888897, 0.0 ], [ 129.224861111111011, 35.81805555555561, 0.0 ], [ 129.223888888889007, 35.82125, 0.0 ], [ 129.214444444444013, 35.82125, 0.0 ], [ 129.203055555556006, 35.815972222222193, 0.0 ], [ 129.202777777778039, 35.817638888888901, 0.0 ], [ 129.200138888889001, 35.818055555555617, 0.0 ], [ 129.19875, 35.8269444444445, 0.0 ], [ 129.199861111111005, 35.8327777777778, 0.0 ], [ 129.202638888888998, 35.833611111111097, 0.0 ], [ 129.202638888888998, 35.838333333333296, 0.0 ], [ 129.216527777777998, 35.84166666666669, 0.0 ] ] ] } },
{ "type": "Feature", "properties": { "Name": "210104#01", "desc": "덕동저수지 f to 210105#01", "area": 52.72, "perim": 41.08 }, "geometry": { "type": "Polygon", "coordinates": [ [ [ 129.322222222221995, 35.905138888888892, 0.0 ], [ 129.334305555556, 35.905277777777791, 0.0 ], [ 129.332638888888994, 35.901666666666706, 0.0 ], [ 129.338194444444014, 35.895, 0.0 ], [ 129.337361111110994, 35.892777777777795, 0.0 ], [ 129.338888888888988, 35.890416666666695, 0.0 ], [ 129.348055555555987, 35.88875, 0.0 ], [ 129.35, 35.8923611111111, 0.0 ], [ 129.354722222221994, 35.8865277777778, 0.0 ], [ 129.358055555556007, 35.8859722222222, 0.0 ], [ 129.36125, 35.888055555555603, 0.0 ], [ 129.363194444443991, 35.876666666666708, 0.0 ], [ 129.35972222222199, 35.875138888888912, 0.0 ], [ 129.3575, 35.875972222222195, 0.0 ], [ 129.354861111111006, 35.873055555555602, 0.0 ], [ 129.359305555556006, 35.868333333333297, 0.0 ], [ 129.359166666666994, 35.865138888888907, 0.0 ], [ 129.368055555555998, 35.864861111111097, 0.0 ], [ 129.371666666667011, 35.86125, 0.0 ], [ 129.375694444444008, 35.863333333333301, 0.0 ], [ 129.37625, 35.858888888888906, 0.0 ], [ 129.372083333332995, 35.856666666666705, 0.0 ], [ 129.37125, 35.852777777777803, 0.0 ], [ 129.374305555555992, 35.849166666666704, 0.0 ], [ 129.371666666667011, 35.848472222222199, 0.0 ], [ 129.370694444444013, 35.845833333333303, 0.0 ], [ 129.373472222222006, 35.836666666666709, 0.0 ], [ 129.37291666666701, 35.834166666666704, 0.0 ], [ 129.377222222222002, 35.834027777777806, 0.0 ], [ 129.378194444444006, 35.830277777777809, 0.0 ], [ 129.37291666666701, 35.826666666666711, 0.0 ], [ 129.368611111110994, 35.8159722222222, 0.0 ], [ 129.358194444443996, 35.810555555555602, 0.0 ], [ 129.357083333333009, 35.805833333333304, 0.0 ], [ 129.358194444443996, 35.803611111111103, 0.0 ], [ 129.356944444443997, 35.802638888888893, 0.0 ], [ 129.348611111111012, 35.802916666666697, 0.0 ], [ 129.34555555555599, 35.801527777777792, 0.0 ], [ 129.338888888888988, 35.807638888888903, 0.0 ], [ 129.335, 35.806527777777802, 0.0 ], [ 129.319444444444002, 35.810972222222198, 0.0 ], [ 129.317222222222, 35.819027777777805, 0.0 ], [ 129.307083333332997, 35.821666666666694, 0.0 ], [ 129.307083333332997, 35.8263888888889, 0.0 ], [ 129.310138888889014, 35.828055555555601, 0.0 ], [ 129.310972222222034, 35.831944444444403, 0.0 ], [ 129.30041666666699, 35.843888888888898, 0.0 ], [ 129.300972222221986, 35.855555555555597, 0.0 ], [ 129.303888888888991, 35.855416666666699, 0.0 ], [ 129.30875, 35.859444444444399, 0.0 ], [ 129.307916666667012, 35.864722222222198, 0.0 ], [ 129.304583333332999, 35.866944444444393, 0.0 ], [ 129.307916666667012, 35.868055555555593, 0.0 ], [ 129.31069444444401, 35.87416666666671, 0.0 ], [ 129.308194444444013, 35.877222222222194, 0.0 ], [ 129.309305555555994, 35.879444444444395, 0.0 ], [ 129.30513888888899, 35.881944444444407, 0.0 ], [ 129.309722222222007, 35.882361111111102, 0.0 ], [ 129.311527777778025, 35.884444444444398, 0.0 ], [ 129.309027777777999, 35.888055555555603, 0.0 ], [ 129.31263888888904, 35.898333333333291, 0.0 ], [ 129.322222222221995, 35.905138888888892, 0.0 ] ] ] } },
{ "type": "Feature", "properties": { "Name": "210105#01", "desc": "보문저수지 f to 210105#02", "area": 18.19, "perim": 22.85 }, "geometry": { "type": "Polygon", "coordinates": [ [ [ 129.270972222222014, 35.858888888888906, 0.0 ], [ 129.278055555555994, 35.854861111111092, 0.0 ], [ 129.27875, 35.851388888888899, 0.0 ], [ 129.2825, 35.8495833333333, 0.0 ], [ 129.28527777777802, 35.85041666666671, 0.0 ], [ 129.288333333332986, 35.84819444444441, 0.0 ], [ 129.299166666666991, 35.84819444444441, 0.0 ], [ 129.30041666666699, 35.843888888888898, 0.0 ], [ 129.310972222222034, 35.831944444444403, 0.0 ], [ 129.310138888889014, 35.828055555555601, 0.0 ], [ 129.306527777778001, 35.824444444444403, 0.0 ], [ 129.307083333332997, 35.821666666666694, 0.0 ], [ 129.30986111111099, 35.82083333333329, 0.0 ], [ 129.30875, 35.81861111111111, 0.0 ], [ 129.303888888888991, 35.815138888888903, 0.0 ], [ 129.3, 35.816805555555597, 0.0 ], [ 129.297916666666993, 35.815, 0.0 ], [ 129.29652777777801, 35.8066666666667, 0.0 ], [ 129.298194444443993, 35.804722222222203, 0.0 ], [ 129.295694444443996, 35.800555555555604, 0.0 ], [ 129.297361111111002, 35.796111111111102, 0.0 ], [ 129.291388888889003, 35.792361111111106, 0.0 ], [ 129.285555555555987, 35.795138888888893, 0.0 ], [ 129.284166666667005, 35.798472222222202, 0.0 ], [ 129.277638888888987, 35.801944444444402, 0.0 ], [ 129.275694444444014, 35.8055555555556, 0.0 ], [ 129.27625, 35.808055555555597, 0.0 ], [ 129.269305555556002, 35.814166666666694, 0.0 ], [ 129.26597222222199, 35.82083333333329, 0.0 ], [ 129.269027777778007, 35.829166666666708, 0.0 ], [ 129.265416666666994, 35.83138888888891, 0.0 ], [ 129.266805555556004, 35.8333333333333, 0.0 ], [ 129.264583333333007, 35.83875, 0.0 ], [ 129.269583333333003, 35.844722222222195, 0.0 ], [ 129.26597222222199, 35.851111111111095, 0.0 ], [ 129.269027777778007, 35.853055555555599, 0.0 ], [ 129.270972222222014, 35.858888888888906, 0.0 ] ] ] } },
{ "type": "Feature", "properties": { "Name": "210105#02", "desc": "북천 n to 210108#04", "area": 14.75, "perim": 21.79 }, "geometry": { "type": "Polygon", "coordinates": [ [ [ 129.24875, 35.873055555555602, 0.0 ], [ 129.256666666667002, 35.868194444444399, 0.0 ], [ 129.261666666666997, 35.867083333333298, 0.0 ], [ 129.270972222222014, 35.859166666666709, 0.0 ], [ 129.269027777778007, 35.853055555555599, 0.0 ], [ 129.26597222222199, 35.851111111111095, 0.0 ], [ 129.269583333333003, 35.844722222222195, 0.0 ], [ 129.265555555556006, 35.83930555555559, 0.0 ], [ 129.2625, 35.838194444444404, 0.0 ], [ 129.255833333332987, 35.840694444444409, 0.0 ], [ 129.251388888889011, 35.83625, 0.0 ], [ 129.247777777777998, 35.83708333333329, 0.0 ], [ 129.246666666667011, 35.839861111111098, 0.0 ], [ 129.238888888888994, 35.839305555555597, 0.0 ], [ 129.228611111111007, 35.841527777777806, 0.0 ], [ 129.21666666666701, 35.841805555555602, 0.0 ], [ 129.207083333333003, 35.839166666666706, 0.0 ], [ 129.206805555556002, 35.855, 0.0 ], [ 129.20347222222199, 35.855833333333308, 0.0 ], [ 129.205416666666991, 35.858333333333299, 0.0 ], [ 129.203333333333006, 35.86125, 0.0 ], [ 129.206388888888995, 35.861805555555598, 0.0 ], [ 129.214166666667012, 35.857638888888893, 0.0 ], [ 129.218611111110988, 35.859861111111101, 0.0 ], [ 129.2275, 35.859861111111094, 0.0 ], [ 129.228611111111007, 35.858194444444401, 0.0 ], [ 129.231388888889001, 35.859861111111101, 0.0 ], [ 129.2425, 35.859305555555608, 0.0 ], [ 129.24263888888899, 35.865555555555602, 0.0 ], [ 129.240694444443989, 35.867777777777803, 0.0 ], [ 129.244027777778001, 35.87055555555559, 0.0 ], [ 129.244444444444014, 35.872916666666683, 0.0 ], [ 129.24875, 35.873055555555602, 0.0 ] ] ] } },
{ "type": "Feature", "properties": { "Name": "210106#01", "desc": "칠평천 n to 210108#06", "area": 106.87, "perim": 55.63 }, "geometry": { "type": "Polygon", "coordinates": [ [ [ 129.153472222222007, 36.055277777777803, 0.0 ], [ 129.164722222221997, 36.055416666666702, 0.0 ], [ 129.170694444443996, 36.053055555555595, 0.0 ], [ 129.170833333333007, 36.04875, 0.0 ], [ 129.177361111110997, 36.04777777777781, 0.0 ], [ 129.178472222222013, 36.045833333333292, 0.0 ], [ 129.176805555556001, 36.041944444444503, 0.0 ], [ 129.179305555555999, 36.04, 0.0 ], [ 129.179305555555999, 36.0352777777778, 0.0 ], [ 129.177083333333002, 36.031111111111109, 0.0 ], [ 129.179166666666987, 36.027361111111091, 0.0 ], [ 129.185277777777998, 36.029583333333306, 0.0 ], [ 129.19805555555601, 36.040694444444405, 0.0 ], [ 129.200833333333009, 36.040694444444398, 0.0 ], [ 129.204166666666993, 36.04319444444441, 0.0 ], [ 129.2075, 36.043194444444403, 0.0 ], [ 129.209444444443989, 36.037083333333307, 0.0 ], [ 129.218888888889012, 36.034027777777801, 0.0 ], [ 129.22055555555599, 36.030138888888906, 0.0 ], [ 129.226666666667001, 36.030138888888899, 0.0 ], [ 129.227916666666999, 36.028333333333308, 0.0 ], [ 129.22625, 36.022222222222197, 0.0 ], [ 129.227916666666999, 35.999166666666703, 0.0 ], [ 129.237361111110999, 35.990277777777791, 0.0 ], [ 129.235416666666993, 35.981944444444501, 0.0 ], [ 129.241944444443988, 35.980416666666699, 0.0 ], [ 129.242916666667014, 35.978333333333303, 0.0 ], [ 129.24, 35.978472222222202, 0.0 ], [ 129.237083333333004, 35.975277777777798, 0.0 ], [ 129.234444444443994, 35.96625, 0.0 ], [ 129.228055555556011, 35.964305555555597, 0.0 ], [ 129.224583333332987, 35.966388888888908, 0.0 ], [ 129.223888888889007, 35.969027777777804, 0.0 ], [ 129.221111111110986, 35.969027777777804, 0.0 ], [ 129.216388888889014, 35.972083333333302, 0.0 ], [ 129.211944444443986, 35.967083333333299, 0.0 ], [ 129.205555555556003, 35.965694444444402, 0.0 ], [ 129.196944444444, 35.957361111111098, 0.0 ], [ 129.187777777777995, 35.954305555555592, 0.0 ], [ 129.18569444444401, 35.9513888888889, 0.0 ], [ 129.18625, 35.948333333333302, 0.0 ], [ 129.182638888888988, 35.945277777777797, 0.0 ], [ 129.183333333332996, 35.943194444444508, 0.0 ], [ 129.185972222222006, 35.942222222222199, 0.0 ], [ 129.182916666667012, 35.938333333333304, 0.0 ], [ 129.182638888888988, 35.932777777777801, 0.0 ], [ 129.18013888888899, 35.931666666666707, 0.0 ], [ 129.179444444443988, 35.924861111111106, 0.0 ], [ 129.171944444443994, 35.924861111111099, 0.0 ], [ 129.165277777777987, 35.92847222222219, 0.0 ], [ 129.16277777777799, 35.931805555555592, 0.0 ], [ 129.159444444444006, 35.93125, 0.0 ], [ 129.156944444444008, 35.932916666666692, 0.0 ], [ 129.153055555555994, 35.929305555555601, 0.0 ], [ 129.14972222222201, 35.934583333333308, 0.0 ], [ 129.135, 35.931527777777802, 0.0 ], [ 129.132916666667001, 35.93666666666671, 0.0 ], [ 129.128472222222001, 35.938611111111101, 0.0 ], [ 129.129583333332988, 35.94305555555561, 0.0 ], [ 129.12680555555599, 35.945, 0.0 ], [ 129.127361111110986, 35.95, 0.0 ], [ 129.124861111110988, 35.9508333333333, 0.0 ], [ 129.117361111110995, 35.960833333333305, 0.0 ], [ 129.11875, 35.969444444444406, 0.0 ], [ 129.116527777778003, 35.970833333333303, 0.0 ], [ 129.118194444443986, 35.974166666666697, 0.0 ], [ 129.117083333332999, 35.985555555555607, 0.0 ], [ 129.113194444443991, 35.988888888888908, 0.0 ], [ 129.11375, 35.993055555555607, 0.0 ], [ 129.110694444443993, 35.996388888888909, 0.0 ], [ 129.113194444443991, 36.000833333333297, 0.0 ], [ 129.110694444443993, 36.005, 0.0 ], [ 129.114305555556001, 36.011944444444502, 0.0 ], [ 129.116805555555999, 36.012777777777799, 0.0 ], [ 129.11847222222201, 36.018333333333302, 0.0 ], [ 129.117083333332999, 36.021944444444408, 0.0 ], [ 129.118333333332998, 36.024027777777803, 0.0 ], [ 129.123888888889013, 36.025416666666707, 0.0 ], [ 129.126388888889011, 36.027638888888902, 0.0 ], [ 129.132777777778017, 36.028472222222199, 0.0 ], [ 129.135416666666998, 36.031944444444399, 0.0 ], [ 129.134861111111007, 36.03666666666669, 0.0 ], [ 129.139027777778011, 36.043055555555597, 0.0 ], [ 129.150277777778001, 36.047361111111094, 0.0 ], [ 129.151527777778, 36.050555555555604, 0.0 ], [ 129.149861111110994, 36.053055555555609, 0.0 ], [ 129.153472222222007, 36.055277777777803, 0.0 ] ] ] } },
{ "type": "Feature", "properties": { "Name": "210107#01", "desc": "경주시(달성교)", "area": 156.05, "perim": 70.53 }, "geometry": { "type": "Polygon", "coordinates": [ [ [ 129.202083333333007, 36.208055555555603, 0.0 ], [ 129.208888888888993, 36.205972222222201, 0.0 ], [ 129.211944444443986, 36.206527777777808, 0.0 ], [ 129.225138888889006, 36.196944444444405, 0.0 ], [ 129.225416666667002, 36.1938888888889, 0.0 ], [ 129.217638888889013, 36.181666666666707, 0.0 ], [ 129.220138888889011, 36.172222222222203, 0.0 ], [ 129.216527777777998, 36.168888888888901, 0.0 ], [ 129.22125, 36.161666666666697, 0.0 ], [ 129.220694444444007, 36.158888888888903, 0.0 ], [ 129.222638888889009, 36.154444444444508, 0.0 ], [ 129.226666666667001, 36.152916666666691, 0.0 ], [ 129.228472222221995, 36.150277777777802, 0.0 ], [ 129.227916666666999, 36.145555555555603, 0.0 ], [ 129.225694444444002, 36.1425, 0.0 ], [ 129.227916666666999, 36.130277777777806, 0.0 ], [ 129.230416666666997, 36.128055555555598, 0.0 ], [ 129.230138888889002, 36.121944444444509, 0.0 ], [ 129.232083333333009, 36.115833333333299, 0.0 ], [ 129.228472222221995, 36.1111111111111, 0.0 ], [ 129.230416666666997, 36.1036111111111, 0.0 ], [ 129.239166666666989, 36.099027777777792, 0.0 ], [ 129.246944444444011, 36.0995833333333, 0.0 ], [ 129.251111111110987, 36.097083333333302, 0.0 ], [ 129.253333333332989, 36.100416666666703, 0.0 ], [ 129.255833333332987, 36.1006944444444, 0.0 ], [ 129.264166666666995, 36.097361111111091, 0.0 ], [ 129.276666666667012, 36.096527777777808, 0.0 ], [ 129.277916666667011, 36.093888888888905, 0.0 ], [ 129.27625, 36.090555555555611, 0.0 ], [ 129.27875, 36.085833333333298, 0.0 ], [ 129.275416666667013, 36.079305555555599, 0.0 ], [ 129.270833333333002, 36.079583333333289, 0.0 ], [ 129.267777777778008, 36.077083333333299, 0.0 ], [ 129.264722222221991, 36.076805555555602, 0.0 ], [ 129.25625, 36.068055555555603, 0.0 ], [ 129.254722222222, 36.06402777777781, 0.0 ], [ 129.245277777778, 36.060138888888893, 0.0 ], [ 129.243194444443986, 36.058055555555597, 0.0 ], [ 129.242222222222011, 36.053472222222197, 0.0 ], [ 129.236111111111001, 36.051805555555596, 0.0 ], [ 129.234444444443994, 36.049305555555605, 0.0 ], [ 129.231666666666996, 36.049861111111106, 0.0 ], [ 129.2275, 36.047916666666701, 0.0 ], [ 129.224166666667003, 36.04375, 0.0 ], [ 129.204166666666993, 36.04319444444441, 0.0 ], [ 129.200833333333009, 36.040694444444398, 0.0 ], [ 129.19805555555601, 36.040694444444405, 0.0 ], [ 129.188611111110987, 36.031805555555607, 0.0 ], [ 129.179166666666987, 36.027361111111091, 0.0 ], [ 129.177083333333002, 36.031111111111109, 0.0 ], [ 129.179027777778003, 36.033888888888903, 0.0 ], [ 129.179305555555999, 36.04, 0.0 ], [ 129.176805555556001, 36.041944444444397, 0.0 ], [ 129.178472222222013, 36.045833333333292, 0.0 ], [ 129.17694444444399, 36.048194444444391, 0.0 ], [ 129.170833333333007, 36.04875, 0.0 ], [ 129.170694444443996, 36.053055555555595, 0.0 ], [ 129.164722222221997, 36.055416666666702, 0.0 ], [ 129.151388888888988, 36.054861111111101, 0.0 ], [ 129.149444444443986, 36.057083333333296, 0.0 ], [ 129.141388888888997, 36.057916666666692, 0.0 ], [ 129.134027777777987, 36.066388888888902, 0.0 ], [ 129.133472222221997, 36.074722222222199, 0.0 ], [ 129.128888888889009, 36.08069444444439, 0.0 ], [ 129.121111111110991, 36.07902777777781, 0.0 ], [ 129.111944444443992, 36.0798611111111, 0.0 ], [ 129.112361111110999, 36.082222222222207, 0.0 ], [ 129.110833333333005, 36.08375, 0.0 ], [ 129.100833333332986, 36.089027777777794, 0.0 ], [ 129.097916666667004, 36.093888888888898, 0.0 ], [ 129.095694444444007, 36.094722222222195, 0.0 ], [ 129.092361111110989, 36.101666666666695, 0.0 ], [ 129.093333333332993, 36.104583333333302, 0.0 ], [ 129.099583333332987, 36.106666666666698, 0.0 ], [ 129.104861111111006, 36.113611111111098, 0.0 ], [ 129.104722222221994, 36.116805555555601, 0.0 ], [ 129.111944444443992, 36.119027777777809, 0.0 ], [ 129.115277777778005, 36.124305555555594, 0.0 ], [ 129.119027777778001, 36.124722222222211, 0.0 ], [ 129.121666666667011, 36.132916666666695, 0.0 ], [ 129.127777777777993, 36.136805555555604, 0.0 ], [ 129.139027777778011, 36.139722222222197, 0.0 ], [ 129.142361111111001, 36.1452777777778, 0.0 ], [ 129.141805555556004, 36.15, 0.0 ], [ 129.14625, 36.1527777777778, 0.0 ], [ 129.145972222222014, 36.154444444444501, 0.0 ], [ 129.14875, 36.156944444444399, 0.0 ], [ 129.147916666666987, 36.159166666666707, 0.0 ], [ 129.150555555555997, 36.162638888888907, 0.0 ], [ 129.15805555555599, 36.16513888888889, 0.0 ], [ 129.167222222221994, 36.16375, 0.0 ], [ 129.172638888888997, 36.173055555555592, 0.0 ], [ 129.175972222221986, 36.175, 0.0 ], [ 129.174583333333004, 36.178333333333306, 0.0 ], [ 129.184722222222007, 36.182916666666699, 0.0 ], [ 129.188194444444008, 36.1869444444444, 0.0 ], [ 129.184305555555994, 36.1955555555556, 0.0 ], [ 129.1875, 36.195972222222203, 0.0 ], [ 129.202083333333007, 36.208055555555603, 0.0 ] ] ] } },
{ "type": "Feature", "properties": { "Name": "210107#02", "desc": "안계댐수로합류전 n to 210107#05", "area": 25.26, "perim": 32.91 }, "geometry": { "type": "Polygon", "coordinates": [ [ [ 129.272638888888991, 36.079722222222209, 0.0 ], [ 129.276666666667012, 36.07875, 0.0 ], [ 129.27944444444401, 36.074861111111105, 0.0 ], [ 129.286527777777991, 36.07, 0.0 ], [ 129.285138888889009, 36.066388888888902, 0.0 ], [ 129.286805555555986, 36.062777777777804, 0.0 ], [ 129.28388888888901, 36.062083333333305, 0.0 ], [ 129.280416666667008, 36.056944444444397, 0.0 ], [ 129.282916666667006, 36.053055555555609, 0.0 ], [ 129.282638888889011, 36.050277777777794, 0.0 ], [ 129.2775, 36.048472222222202, 0.0 ], [ 129.273472222222011, 36.043888888888894, 0.0 ], [ 129.27375, 36.0416666666667, 0.0 ], [ 129.27, 36.039861111111108, 0.0 ], [ 129.2675, 36.040694444444398, 0.0 ], [ 129.264166666666995, 36.0451388888889, 0.0 ], [ 129.259027777778016, 36.046666666666702, 0.0 ], [ 129.259027777778016, 36.043333333333294, 0.0 ], [ 129.25736111111101, 36.04138888888891, 0.0 ], [ 129.259027777778016, 36.039444444444399, 0.0 ], [ 129.255138888889007, 36.030833333333291, 0.0 ], [ 129.25652777777799, 36.026666666666699, 0.0 ], [ 129.259027777778016, 36.024722222222209, 0.0 ], [ 129.253472222222001, 36.019444444444396, 0.0 ], [ 129.249861111110988, 36.011944444444502, 0.0 ], [ 129.252361111110986, 36.009305555555599, 0.0 ], [ 129.25208333333299, 36.002777777777801, 0.0 ], [ 129.250972222222003, 36.0025, 0.0 ], [ 129.25180555555599, 35.999305555555601, 0.0 ], [ 129.246111111110991, 35.99875, 0.0 ], [ 129.24625, 36.001111111111101, 0.0 ], [ 129.240833333333001, 36.005416666666704, 0.0 ], [ 129.235277777778009, 36.005694444444401, 0.0 ], [ 129.23222222222202, 36.004861111111097, 0.0 ], [ 129.231666666666996, 36.003194444444397, 0.0 ], [ 129.228888888889003, 36.00375, 0.0 ], [ 129.226805555556012, 36.005138888888901, 0.0 ], [ 129.22625, 36.018055555555598, 0.0 ], [ 129.227916666666999, 36.028333333333308, 0.0 ], [ 129.225555555556014, 36.030416666666703, 0.0 ], [ 129.22055555555599, 36.030138888888906, 0.0 ], [ 129.218333333332993, 36.034305555555598, 0.0 ], [ 129.211111111110995, 36.035694444444403, 0.0 ], [ 129.207638888888994, 36.042916666666699, 0.0 ], [ 129.224166666667003, 36.04375, 0.0 ], [ 129.2275, 36.047916666666701, 0.0 ], [ 129.231666666666996, 36.049861111111106, 0.0 ], [ 129.234444444443994, 36.049305555555605, 0.0 ], [ 129.236111111111001, 36.051805555555596, 0.0 ], [ 129.242222222222011, 36.053472222222197, 0.0 ], [ 129.243194444443986, 36.058055555555597, 0.0 ], [ 129.245277777778, 36.060138888888893, 0.0 ], [ 129.254722222222, 36.06402777777781, 0.0 ], [ 129.25625, 36.068055555555603, 0.0 ], [ 129.264722222221991, 36.076805555555602, 0.0 ], [ 129.272638888888991, 36.079722222222209, 0.0 ] ] ] } },
{ "type": "Feature", "properties": { "Name": "210107#03", "desc": "안계댐여수로 n to 210107#04", "area": 6.89, "perim": 13.77 }, "geometry": { "type": "Polygon", "coordinates": [ [ [ 129.259027777778016, 36.046666666666702, 0.0 ], [ 129.264166666666995, 36.0451388888889, 0.0 ], [ 129.2675, 36.040694444444398, 0.0 ], [ 129.271111111110997, 36.039861111111108, 0.0 ], [ 129.279305555555993, 36.0325, 0.0 ], [ 129.276805555555995, 36.028611111111097, 0.0 ], [ 129.27875, 36.025, 0.0 ], [ 129.27472222222201, 36.020416666666698, 0.0 ], [ 129.271805555556, 36.019444444444403, 0.0 ], [ 129.270972222222014, 36.011388888888902, 0.0 ], [ 129.265555555556006, 36.00375, 0.0 ], [ 129.262916666666996, 36.003472222222207, 0.0 ], [ 129.258888888889004, 36.007638888888899, 0.0 ], [ 129.249861111110988, 36.010555555555598, 0.0 ], [ 129.253472222222001, 36.019444444444396, 0.0 ], [ 129.259027777778016, 36.024722222222209, 0.0 ], [ 129.25652777777799, 36.026666666666699, 0.0 ], [ 129.255138888889007, 36.030555555555608, 0.0 ], [ 129.259027777778016, 36.039444444444399, 0.0 ], [ 129.25736111111101, 36.040555555555606, 0.0 ], [ 129.259027777778016, 36.046666666666702, 0.0 ] ] ] } },
{ "type": "Feature", "properties": { "Name": "210107#04", "desc": "안계댐수로 n to 210107#05", "area": 0.88, "perim": 4.18 }, "geometry": { "type": "Polygon", "coordinates": [ [ [ 129.252361111110986, 36.009166666666708, 0.0 ], [ 129.260833333333011, 36.006527777777798, 0.0 ], [ 129.262916666666996, 36.003888888888902, 0.0 ], [ 129.262361111111005, 36.0025, 0.0 ], [ 129.256666666667002, 35.99847222222219, 0.0 ], [ 129.251944444444007, 35.998194444444401, 0.0 ], [ 129.250972222222003, 36.0025, 0.0 ], [ 129.25208333333299, 36.002777777777801, 0.0 ], [ 129.252361111110986, 36.009166666666708, 0.0 ] ] ] } },
{ "type": "Feature", "properties": { "Name": "210107#05", "desc": "기계천 n to 210108#07", "area": 3.21, "perim": 9.28 }, "geometry": { "type": "Polygon", "coordinates": [ [ [ 129.23222222222202, 36.004861111111097, 0.0 ], [ 129.240833333333001, 36.005416666666704, 0.0 ], [ 129.24625, 36.001111111111101, 0.0 ], [ 129.245694444444013, 35.999166666666703, 0.0 ], [ 129.247777777777998, 35.997916666666704, 0.0 ], [ 129.251666666667006, 35.999305555555608, 0.0 ], [ 129.251944444444007, 35.998194444444401, 0.0 ], [ 129.257083333332986, 35.99875, 0.0 ], [ 129.255416666667003, 35.9930555555556, 0.0 ], [ 129.25736111111101, 35.989722222222206, 0.0 ], [ 129.246944444444011, 35.98875, 0.0 ], [ 129.237222222221988, 35.99041666666669, 0.0 ], [ 129.227916666666999, 35.999166666666703, 0.0 ], [ 129.226805555556012, 36.005, 0.0 ], [ 129.231666666666996, 36.003194444444397, 0.0 ], [ 129.23222222222202, 36.004861111111097, 0.0 ] ] ] } },
{ "type": "Feature", "properties": { "Name": "210108#01", "desc": "남천합류전 n to 210108#02", "area": 1.74, "perim": 7.59 }, "geometry": { "type": "Polygon", "coordinates": [ [ [ 129.197083333333012, 35.830277777777809, 0.0 ], [ 129.199305555556009, 35.829583333333296, 0.0 ], [ 129.19875, 35.823333333333302, 0.0 ], [ 129.200416666666996, 35.81694444444441, 0.0 ], [ 129.198888888889002, 35.815694444444397, 0.0 ], [ 129.188611111110987, 35.819305555555609, 0.0 ], [ 129.176805555556001, 35.8205555555556, 0.0 ], [ 129.17694444444399, 35.827083333333299, 0.0 ], [ 129.191111111111013, 35.824305555555597, 0.0 ], [ 129.196805555556011, 35.828055555555601, 0.0 ], [ 129.197083333333012, 35.830277777777809, 0.0 ] ] ] } },
{ "type": "Feature", "properties": { "Name": "210108#02", "desc": "경주시(서천교)", "area": 2.23, "perim": 8.14 }, "geometry": { "type": "Polygon", "coordinates": [ [ [ 129.200416666666996, 35.838055555555613, 0.0 ], [ 129.202916666666994, 35.8375, 0.0 ], [ 129.202361111111003, 35.833055555555603, 0.0 ], [ 129.2, 35.832916666666705, 0.0 ], [ 129.199305555556009, 35.829583333333296, 0.0 ], [ 129.197222222221995, 35.830416666666707, 0.0 ], [ 129.196805555556011, 35.828055555555601, 0.0 ], [ 129.191111111111013, 35.824305555555597, 0.0 ], [ 129.175138888888995, 35.828055555555601, 0.0 ], [ 129.175555555556002, 35.834861111111103, 0.0 ], [ 129.179722222222011, 35.833472222222198, 0.0 ], [ 129.189722222222002, 35.834027777777798, 0.0 ], [ 129.200416666666996, 35.838055555555613, 0.0 ] ] ] } },
{ "type": "Feature", "properties": { "Name": "210108#03", "desc": "북천합류전 n to 210108#04", "area": 16.55, "perim": 19.37 }, "geometry": { "type": "Polygon", "coordinates": [ [ [ 129.181527777778001, 35.870833333333302, 0.0 ], [ 129.195555555556012, 35.867083333333298, 0.0 ], [ 129.205416666666991, 35.858333333333299, 0.0 ], [ 129.20347222222199, 35.855833333333308, 0.0 ], [ 129.206805555556002, 35.855, 0.0 ], [ 129.207083333333003, 35.839166666666706, 0.0 ], [ 129.199166666666997, 35.8368055555556, 0.0 ], [ 129.196666666666999, 35.837638888888897, 0.0 ], [ 129.193888888889006, 35.834583333333299, 0.0 ], [ 129.179722222222011, 35.833472222222198, 0.0 ], [ 129.1725, 35.835416666666703, 0.0 ], [ 129.16361111111101, 35.832361111111098, 0.0 ], [ 129.156944444444008, 35.838472222222201, 0.0 ], [ 129.151666666667012, 35.838472222222208, 0.0 ], [ 129.15125, 35.8475, 0.0 ], [ 129.148472222222011, 35.850277777777798, 0.0 ], [ 129.14875, 35.859861111111094, 0.0 ], [ 129.156944444444008, 35.8645833333333, 0.0 ], [ 129.159166666667005, 35.862916666666706, 0.0 ], [ 129.161944444444003, 35.864305555555603, 0.0 ], [ 129.170277777778011, 35.862083333333302, 0.0 ], [ 129.173888888888996, 35.859861111111094, 0.0 ], [ 129.177638888888993, 35.869166666666707, 0.0 ], [ 129.181527777778001, 35.870833333333302, 0.0 ] ] ] } },
{ "type": "Feature", "properties": { "Name": "210108#04", "desc": "경주시(모아리)", "area": 111.07, "perim": 67.9 }, "geometry": { "type": "Polygon", "coordinates": [ [ [ 129.149027777778002, 35.934444444444402, 0.0 ], [ 129.152083333332996, 35.9325, 0.0 ], [ 129.153055555555994, 35.929305555555601, 0.0 ], [ 129.156944444444008, 35.932916666666692, 0.0 ], [ 129.159444444444006, 35.93125, 0.0 ], [ 129.16277777777799, 35.931805555555592, 0.0 ], [ 129.165277777777987, 35.92847222222219, 0.0 ], [ 129.171944444443994, 35.924861111111099, 0.0 ], [ 129.180555555555998, 35.924861111111106, 0.0 ], [ 129.194166666667002, 35.91125, 0.0 ], [ 129.200555555556008, 35.914305555555607, 0.0 ], [ 129.208055555556001, 35.924305555555598, 0.0 ], [ 129.22055555555599, 35.925694444444403, 0.0 ], [ 129.22611111111101, 35.92513888888891, 0.0 ], [ 129.229722222221994, 35.919861111111103, 0.0 ], [ 129.24, 35.92125, 0.0 ], [ 129.2425, 35.923472222222195, 0.0 ], [ 129.245, 35.919583333333307, 0.0 ], [ 129.250277777777995, 35.919305555555603, 0.0 ], [ 129.253194444444006, 35.914444444444406, 0.0 ], [ 129.258888888889004, 35.910694444444403, 0.0 ], [ 129.260694444443999, 35.911111111111097, 0.0 ], [ 129.263194444443997, 35.915277777777803, 0.0 ], [ 129.260694444443999, 35.92, 0.0 ], [ 129.261944444443998, 35.92125, 0.0 ], [ 129.268055555556003, 35.920416666666704, 0.0 ], [ 129.269027777778007, 35.917222222222208, 0.0 ], [ 129.271111111110997, 35.915972222222202, 0.0 ], [ 129.274444444443986, 35.917361111111106, 0.0 ], [ 129.28388888888901, 35.915138888888904, 0.0 ], [ 129.285, 35.916527777777794, 0.0 ], [ 129.296111111111003, 35.917083333333302, 0.0 ], [ 129.303333333333001, 35.91180555555561, 0.0 ], [ 129.306388888888989, 35.912361111111096, 0.0 ], [ 129.310833333332994, 35.910416666666691, 0.0 ], [ 129.313611111110987, 35.905972222222211, 0.0 ], [ 129.31902777777799, 35.902777777777807, 0.0 ], [ 129.31263888888904, 35.898333333333291, 0.0 ], [ 129.309027777777999, 35.888055555555603, 0.0 ], [ 129.311527777778025, 35.885277777777809, 0.0 ], [ 129.310972222222034, 35.883333333333304, 0.0 ], [ 129.30513888888899, 35.881944444444407, 0.0 ], [ 129.308472222222008, 35.88055555555561, 0.0 ], [ 129.308194444444013, 35.877222222222194, 0.0 ], [ 129.31069444444401, 35.875277777777796, 0.0 ], [ 129.307916666667012, 35.868055555555593, 0.0 ], [ 129.304583333332999, 35.866944444444393, 0.0 ], [ 129.307916666667012, 35.864722222222198, 0.0 ], [ 129.30875, 35.859444444444399, 0.0 ], [ 129.303888888888991, 35.855416666666699, 0.0 ], [ 129.300972222221986, 35.855555555555597, 0.0 ], [ 129.3, 35.845972222222201, 0.0 ], [ 129.298611111111001, 35.848472222222199, 0.0 ], [ 129.288333333332986, 35.84819444444441, 0.0 ], [ 129.28527777777802, 35.85041666666671, 0.0 ], [ 129.2825, 35.8495833333333, 0.0 ], [ 129.278888888889014, 35.85125, 0.0 ], [ 129.278055555555994, 35.854861111111092, 0.0 ], [ 129.267777777778008, 35.860694444444398, 0.0 ], [ 129.261666666666997, 35.867083333333298, 0.0 ], [ 129.256666666667002, 35.868194444444399, 0.0 ], [ 129.249444444444009, 35.873194444444408, 0.0 ], [ 129.244444444444014, 35.872916666666683, 0.0 ], [ 129.244027777778001, 35.87055555555559, 0.0 ], [ 129.240694444443989, 35.867777777777803, 0.0 ], [ 129.24263888888899, 35.865555555555602, 0.0 ], [ 129.2425, 35.859305555555608, 0.0 ], [ 129.231388888889001, 35.859861111111101, 0.0 ], [ 129.228611111111007, 35.858194444444401, 0.0 ], [ 129.2275, 35.859861111111094, 0.0 ], [ 129.218611111110988, 35.859861111111101, 0.0 ], [ 129.214166666667012, 35.857638888888893, 0.0 ], [ 129.206388888888995, 35.861805555555598, 0.0 ], [ 129.203333333333006, 35.86125, 0.0 ], [ 129.203611111111002, 35.859305555555608, 0.0 ], [ 129.195555555556012, 35.867083333333298, 0.0 ], [ 129.181944444444014, 35.8709722222222, 0.0 ], [ 129.177638888888993, 35.869166666666707, 0.0 ], [ 129.173888888888996, 35.859861111111094, 0.0 ], [ 129.161944444444003, 35.864305555555603, 0.0 ], [ 129.159166666667005, 35.862916666666706, 0.0 ], [ 129.156944444444008, 35.8645833333333, 0.0 ], [ 129.14888888888899, 35.859861111111094, 0.0 ], [ 129.139166666666995, 35.86375, 0.0 ], [ 129.135972222221994, 35.8680555555556, 0.0 ], [ 129.138194444443997, 35.870277777777808, 0.0 ], [ 129.135694444443999, 35.876666666666715, 0.0 ], [ 129.13708333333301, 35.8830555555556, 0.0 ], [ 129.13375, 35.889166666666711, 0.0 ], [ 129.127222222222002, 35.89125, 0.0 ], [ 129.122638888889014, 35.895277777777792, 0.0 ], [ 129.119722222222009, 35.90069444444439, 0.0 ], [ 129.115555555556, 35.901805555555605, 0.0 ], [ 129.110138888888997, 35.9125, 0.0 ], [ 129.115277777778005, 35.917083333333302, 0.0 ], [ 129.118333333332998, 35.916805555555598, 0.0 ], [ 129.11875, 35.919722222222191, 0.0 ], [ 129.121388888888987, 35.922361111111094, 0.0 ], [ 129.126944444444007, 35.921527777777797, 0.0 ], [ 129.130277777777991, 35.923472222222202, 0.0 ], [ 129.135, 35.931527777777802, 0.0 ], [ 129.149027777778002, 35.934444444444402, 0.0 ] ] ] } },
{ "type": "Feature", "properties": { "Name": "210108#05", "desc": "칠평천합류전 n to 210108#06", "area": 36.89, "perim": 33.71 }, "geometry": { "type": "Polygon", "coordinates": [ [ [ 129.239861111110997, 35.978333333333303, 0.0 ], [ 129.241805555555999, 35.978194444444405, 0.0 ], [ 129.244166666667013, 35.972916666666698, 0.0 ], [ 129.24736111111099, 35.971944444444404, 0.0 ], [ 129.2475, 35.969305555555607, 0.0 ], [ 129.249861111110988, 35.969166666666709, 0.0 ], [ 129.251666666667006, 35.962361111111093, 0.0 ], [ 129.253333333332989, 35.96125, 0.0 ], [ 129.258333333333013, 35.962083333333297, 0.0 ], [ 129.26208333333301, 35.959027777777806, 0.0 ], [ 129.264861111111003, 35.947777777777802, 0.0 ], [ 129.266388888888997, 35.944861111111102, 0.0 ], [ 129.269583333333003, 35.9433333333333, 0.0 ], [ 129.267361111111001, 35.940277777777794, 0.0 ], [ 129.26625, 35.933333333333302, 0.0 ], [ 129.260138888889031, 35.928333333333299, 0.0 ], [ 129.259027777778016, 35.921944444444399, 0.0 ], [ 129.263194444443997, 35.9161111111111, 0.0 ], [ 129.260694444443999, 35.911111111111097, 0.0 ], [ 129.255, 35.9126388888889, 0.0 ], [ 129.250277777777995, 35.919305555555603, 0.0 ], [ 129.245, 35.919583333333307, 0.0 ], [ 129.2425, 35.923472222222195, 0.0 ], [ 129.24, 35.92125, 0.0 ], [ 129.229722222221994, 35.919861111111103, 0.0 ], [ 129.22611111111101, 35.92513888888891, 0.0 ], [ 129.22055555555599, 35.925694444444403, 0.0 ], [ 129.208055555556001, 35.924305555555598, 0.0 ], [ 129.200555555556008, 35.914305555555607, 0.0 ], [ 129.194166666667002, 35.91125, 0.0 ], [ 129.184722222222007, 35.922083333333298, 0.0 ], [ 129.179583333332999, 35.924861111111099, 0.0 ], [ 129.18013888888899, 35.931666666666707, 0.0 ], [ 129.182638888888988, 35.932777777777801, 0.0 ], [ 129.182916666667012, 35.938333333333304, 0.0 ], [ 129.185972222222006, 35.942222222222199, 0.0 ], [ 129.183333333332996, 35.943194444444401, 0.0 ], [ 129.182638888888988, 35.945277777777797, 0.0 ], [ 129.186805555555992, 35.94944444444441, 0.0 ], [ 129.18569444444401, 35.950277777777799, 0.0 ], [ 129.186527777777997, 35.953055555555601, 0.0 ], [ 129.190833333332989, 35.95625, 0.0 ], [ 129.196944444444, 35.957361111111098, 0.0 ], [ 129.205555555556003, 35.965694444444402, 0.0 ], [ 129.211944444443986, 35.967083333333299, 0.0 ], [ 129.216388888889014, 35.972083333333302, 0.0 ], [ 129.221111111110986, 35.969027777777804, 0.0 ], [ 129.223888888889007, 35.969027777777804, 0.0 ], [ 129.224583333332987, 35.966388888888908, 0.0 ], [ 129.228055555556011, 35.964305555555597, 0.0 ], [ 129.234444444443994, 35.96625, 0.0 ], [ 129.235694444443993, 35.9727777777778, 0.0 ], [ 129.239861111110997, 35.978333333333303, 0.0 ] ] ] } },
{ "type": "Feature", "properties": { "Name": "210108#06", "desc": "기계천합류전 n to 210108#07", "area": 3.68, "perim": 11.61 }, "geometry": { "type": "Polygon", "coordinates": [ [ [ 129.237361111110999, 35.990277777777791, 0.0 ], [ 129.252361111110986, 35.98875, 0.0 ], [ 129.253472222222001, 35.983055555555595, 0.0 ], [ 129.25208333333299, 35.975833333333306, 0.0 ], [ 129.256666666667002, 35.971805555555598, 0.0 ], [ 129.26125, 35.971527777777801, 0.0 ], [ 129.261805555556009, 35.966111111111097, 0.0 ], [ 129.26375, 35.963055555555592, 0.0 ], [ 129.26208333333301, 35.959027777777806, 0.0 ], [ 129.258333333333013, 35.962083333333297, 0.0 ], [ 129.253333333332989, 35.96125, 0.0 ], [ 129.251666666667006, 35.962361111111093, 0.0 ], [ 129.249861111110988, 35.969166666666709, 0.0 ], [ 129.2475, 35.969305555555607, 0.0 ], [ 129.24736111111099, 35.971944444444404, 0.0 ], [ 129.242361111110995, 35.974722222222198, 0.0 ], [ 129.242083333332999, 35.9802777777778, 0.0 ], [ 129.235416666666993, 35.981944444444402, 0.0 ], [ 129.237361111110999, 35.990277777777791, 0.0 ] ] ] } },
{ "type": "Feature", "properties": { "Name": "210108#07", "desc": "경주시(강동대교)", "area": 3.89, "perim": 10.11 }, "geometry": { "type": "Polygon", "coordinates": [ [ [ 129.263472222221992, 36.003888888888902, 0.0 ], [ 129.27069444444399, 36.001111111111101, 0.0 ], [ 129.26875, 35.9919444444444, 0.0 ], [ 129.269861111110998, 35.987222222222201, 0.0 ], [ 129.26875, 35.983611111111102, 0.0 ], [ 129.26375, 35.978611111111107, 0.0 ], [ 129.262638888889001, 35.9725, 0.0 ], [ 129.256666666667002, 35.971805555555598, 0.0 ], [ 129.25208333333299, 35.975833333333306, 0.0 ], [ 129.253472222222001, 35.983055555555595, 0.0 ], [ 129.252361111110986, 35.98875, 0.0 ], [ 129.25736111111101, 35.989722222222206, 0.0 ], [ 129.255416666667003, 35.9930555555556, 0.0 ], [ 129.257083333332986, 35.998888888888906, 0.0 ], [ 129.263472222221992, 36.003888888888902, 0.0 ] ] ] } },
{ "type": "Feature", "properties": { "Name": "210109#01", "desc": "경주시(국당리)", "area": 49.62, "perim": 41.84 }, "geometry": { "type": "Polygon", "coordinates": [ [ [ 129.278472222222007, 36.024722222222209, 0.0 ], [ 129.28388888888901, 36.0231944444444, 0.0 ], [ 129.288333333332986, 36.01930555555559, 0.0 ], [ 129.297361111111002, 36.007222222222204, 0.0 ], [ 129.295694444443996, 36.003611111111098, 0.0 ], [ 129.297916666666993, 36.001666666666708, 0.0 ], [ 129.295694444443996, 35.998611111111103, 0.0 ], [ 129.29625, 35.990277777777813, 0.0 ], [ 129.292916666666997, 35.985277777777803, 0.0 ], [ 129.292916666666997, 35.982222222222198, 0.0 ], [ 129.30194444444399, 35.979027777777802, 0.0 ], [ 129.306527777778001, 35.974444444444401, 0.0 ], [ 129.308194444444013, 35.969722222222202, 0.0 ], [ 129.312361111110988, 35.968333333333298, 0.0 ], [ 129.313472222222003, 35.960555555555601, 0.0 ], [ 129.319583333332986, 35.958055555555603, 0.0 ], [ 129.31875, 35.954166666666701, 0.0 ], [ 129.320416666667001, 35.953333333333298, 0.0 ], [ 129.316527777777992, 35.946944444444398, 0.0 ], [ 129.317916666667003, 35.94305555555561, 0.0 ], [ 129.325, 35.937916666666709, 0.0 ], [ 129.328055555556006, 35.938194444444399, 0.0 ], [ 129.333472222222014, 35.930416666666702, 0.0 ], [ 129.330138888888996, 35.926111111111105, 0.0 ], [ 129.336805555555998, 35.916944444444397, 0.0 ], [ 129.334027777778005, 35.91111111111109, 0.0 ], [ 129.333888888888993, 35.905138888888899, 0.0 ], [ 129.322222222221995, 35.905138888888892, 0.0 ], [ 129.320555555556012, 35.903194444444402, 0.0 ], [ 129.3175, 35.903194444444409, 0.0 ], [ 129.313194444444008, 35.906388888888898, 0.0 ], [ 129.311388888889013, 35.910138888888902, 0.0 ], [ 129.306388888888989, 35.912361111111096, 0.0 ], [ 129.303333333333001, 35.91180555555561, 0.0 ], [ 129.296111111111003, 35.917083333333302, 0.0 ], [ 129.285, 35.916527777777794, 0.0 ], [ 129.28388888888901, 35.915138888888904, 0.0 ], [ 129.274444444443986, 35.917361111111106, 0.0 ], [ 129.271111111110997, 35.915972222222202, 0.0 ], [ 129.269027777778007, 35.917222222222208, 0.0 ], [ 129.268055555556003, 35.920416666666704, 0.0 ], [ 129.259027777778016, 35.921944444444399, 0.0 ], [ 129.260138888889031, 35.928333333333299, 0.0 ], [ 129.26625, 35.933333333333302, 0.0 ], [ 129.267361111111001, 35.940277777777794, 0.0 ], [ 129.269583333333003, 35.9425, 0.0 ], [ 129.26625, 35.945, 0.0 ], [ 129.263194444443997, 35.9513888888889, 0.0 ], [ 129.264027777778011, 35.954722222222202, 0.0 ], [ 129.26208333333301, 35.959166666666697, 0.0 ], [ 129.26375, 35.963055555555592, 0.0 ], [ 129.260972222221994, 35.969444444444399, 0.0 ], [ 129.26375, 35.978611111111107, 0.0 ], [ 129.26875, 35.983611111111102, 0.0 ], [ 129.269861111110998, 35.987222222222201, 0.0 ], [ 129.26875, 35.9919444444444, 0.0 ], [ 129.270972222222014, 36.0, 0.0 ], [ 129.265416666666994, 36.005277777777799, 0.0 ], [ 129.270416666666989, 36.01, 0.0 ], [ 129.271805555556, 36.019444444444403, 0.0 ], [ 129.27472222222201, 36.020416666666698, 0.0 ], [ 129.278472222222007, 36.024722222222209, 0.0 ] ] ] } },
{ "type": "Feature", "properties": { "Name": "210109#02", "desc": "포항시(형산교)", "area": 86.93, "perim": 53.82 }, "geometry": { "type": "Polygon", "coordinates": [ [ [ 129.28388888888901, 36.062083333333305, 0.0 ], [ 129.290555555556011, 36.062083333333305, 0.0 ], [ 129.295833333333007, 36.05875, 0.0 ], [ 129.30513888888899, 36.049166666666707, 0.0 ], [ 129.306944444444014, 36.043472222222199, 0.0 ], [ 129.314444444444007, 36.044305555555603, 0.0 ], [ 129.316666666667004, 36.040972222222187, 0.0 ], [ 129.326666666666995, 36.042638888888909, 0.0 ], [ 129.334444444443989, 36.041527777777802, 0.0 ], [ 129.33875, 36.031666666666702, 0.0 ], [ 129.344027777777995, 36.028055555555603, 0.0 ], [ 129.347083333332989, 36.023055555555608, 0.0 ], [ 129.347222222222001, 36.019583333333301, 0.0 ], [ 129.357777777778011, 36.014027777777798, 0.0 ], [ 129.363194444443991, 36.021111111111104, 0.0 ], [ 129.365694444443989, 36.022083333333292, 0.0 ], [ 129.368888888889018, 36.017083333333296, 0.0 ], [ 129.373472222222006, 36.016944444444405, 0.0 ], [ 129.370138888888988, 36.012222222222199, 0.0 ], [ 129.375138888889012, 36.0080555555556, 0.0 ], [ 129.374027777777997, 36.006111111111096, 0.0 ], [ 129.375277777777995, 36.00430555555559, 0.0 ], [ 129.379722222222, 36.005972222222205, 0.0 ], [ 129.380833333332987, 36.0040277777778, 0.0 ], [ 129.385972222221994, 36.002777777777801, 0.0 ], [ 129.384583333333012, 35.998333333333299, 0.0 ], [ 129.386527777778014, 35.996944444444509, 0.0 ], [ 129.384583333333012, 35.994444444444397, 0.0 ], [ 129.384861111111007, 35.992222222222196, 0.0 ], [ 129.392222222221989, 35.98875, 0.0 ], [ 129.396805555556028, 35.983333333333299, 0.0 ], [ 129.395416666666989, 35.97888888888891, 0.0 ], [ 129.389861111111003, 35.97305555555559, 0.0 ], [ 129.390138888888998, 35.965555555555603, 0.0 ], [ 129.393472222221988, 35.964444444444403, 0.0 ], [ 129.393472222221988, 35.95972222222219, 0.0 ], [ 129.388194444443997, 35.957777777777807, 0.0 ], [ 129.389305555556007, 35.956666666666706, 0.0 ], [ 129.384583333333012, 35.9519444444445, 0.0 ], [ 129.385138888889003, 35.949722222222199, 0.0 ], [ 129.38152777777799, 35.948055555555598, 0.0 ], [ 129.38125, 35.9444444444444, 0.0 ], [ 129.37680555555599, 35.941666666666691, 0.0 ], [ 129.374305555555992, 35.933888888888902, 0.0 ], [ 129.369722222222009, 35.930138888888905, 0.0 ], [ 129.356388888889001, 35.93263888888891, 0.0 ], [ 129.35027777777799, 35.92875, 0.0 ], [ 129.34583333333299, 35.933194444444396, 0.0 ], [ 129.34166666666701, 35.930972222222209, 0.0 ], [ 129.333055555556001, 35.930416666666702, 0.0 ], [ 129.328055555556006, 35.938194444444399, 0.0 ], [ 129.325, 35.937916666666709, 0.0 ], [ 129.317916666667003, 35.94305555555561, 0.0 ], [ 129.316527777777992, 35.946944444444398, 0.0 ], [ 129.320416666667001, 35.953333333333298, 0.0 ], [ 129.31875, 35.954166666666701, 0.0 ], [ 129.319583333332986, 35.958055555555603, 0.0 ], [ 129.313472222222003, 35.960555555555601, 0.0 ], [ 129.312361111110988, 35.968333333333298, 0.0 ], [ 129.308194444444013, 35.969722222222202, 0.0 ], [ 129.306527777778001, 35.974444444444401, 0.0 ], [ 129.30194444444399, 35.979027777777802, 0.0 ], [ 129.292916666666997, 35.982222222222198, 0.0 ], [ 129.292916666666997, 35.985277777777803, 0.0 ], [ 129.29625, 35.990277777777813, 0.0 ], [ 129.295694444443996, 35.998611111111103, 0.0 ], [ 129.297916666666993, 36.001666666666708, 0.0 ], [ 129.295694444443996, 36.003611111111098, 0.0 ], [ 129.297361111111002, 36.007222222222204, 0.0 ], [ 129.288333333332986, 36.01930555555559, 0.0 ], [ 129.28388888888901, 36.0231944444444, 0.0 ], [ 129.27875, 36.024722222222202, 0.0 ], [ 129.276805555555995, 36.028611111111097, 0.0 ], [ 129.279305555555993, 36.0325, 0.0 ], [ 129.27069444444399, 36.04, 0.0 ], [ 129.27375, 36.0416666666667, 0.0 ], [ 129.273472222222011, 36.043888888888894, 0.0 ], [ 129.2775, 36.048472222222202, 0.0 ], [ 129.282638888889011, 36.050277777777794, 0.0 ], [ 129.282916666667006, 36.053055555555609, 0.0 ], [ 129.280416666667008, 36.056944444444397, 0.0 ], [ 129.28388888888901, 36.062083333333305, 0.0 ] ] ] } },
{ "type": "Feature", "properties": { "Name": "210109#03", "desc": "형산강하류 n to 000000#01", "area": 3.32, "perim": 10.16 }, "geometry": { "type": "Polygon", "coordinates": [ [ [ 129.382916666667001, 36.031388888888898, 0.0 ], [ 129.388194444443997, 36.029444444444508, 0.0 ], [ 129.384861111111007, 36.0225, 0.0 ], [ 129.384583333333012, 36.013055555555603, 0.0 ], [ 129.38125, 36.005138888888901, 0.0 ], [ 129.379722222222, 36.005972222222205, 0.0 ], [ 129.375833333332992, 36.004027777777793, 0.0 ], [ 129.374027777777997, 36.006111111111096, 0.0 ], [ 129.375416666667007, 36.0075, 0.0 ], [ 129.374583333332993, 36.00888888888889, 0.0 ], [ 129.370138888888988, 36.012222222222199, 0.0 ], [ 129.373472222222006, 36.016944444444405, 0.0 ], [ 129.368888888889018, 36.017083333333296, 0.0 ], [ 129.365694444443989, 36.022083333333292, 0.0 ], [ 129.373472222222006, 36.023611111111101, 0.0 ], [ 129.371944444444011, 36.029027777777792, 0.0 ], [ 129.382916666667001, 36.031388888888898, 0.0 ] ] ] } }
]
}
