{
  "type": "FeatureCollection",
  "name": "20_낙동강_특보지점",
  "crs": {
    "type": "name",
    "properties": {
      "name": "urn:ogc:def:crs:EPSG::5186"
    }
  },
  "features": [
    {
      "type": "Feature",
      "properties": {
        "Name": "태백시(문화교)",
        "desc": "200101#01",
        "lon": 379340.26,
        "lat": 501583.853
      },
      "geometry": {
        "type": "Point",
        "coordinates": [
          379340.26031524275,
          501583.85332594544,
          0.0
        ]
      }
    },
    {
      "type": "Feature",
      "properties": {
        "Name": "봉화군(분천교)",
        "desc": "200103#03",
        "lon": 383244.73,
        "lat": 483282.796
      },
      "geometry": {
        "type": "Point",
        "coordinates": [
          383244.7300795242,
          483282.7962238355,
          0.0
        ]
      }
    },
    {
      "type": "Feature",
      "properties": {
        "Name": "영양군(청암교)",
        "desc": "200205#01",
        "lon": 386575.664,
        "lat": 446339.567
      },
      "geometry": {
        "type": "Point",
        "coordinates": [
          386575.6638362383,
          446339.5666781283,
          0.0
        ]
      }
    },
    {
      "type": "Feature",
      "properties": {
        "Name": "안동시(묵계교)",
        "desc": "200214#02",
        "lon": 371428.757,
        "lat": 427611.573
      },
      "geometry": {
        "type": "Point",
        "coordinates": [
          371428.7573857263,
          427611.57340077317,
          0.0
        ]
      }
    },
    {
      "type": "Feature",
      "properties": {
        "Name": "안동시(운산리)",
        "desc": "200303#01",
        "lon": 348791.579,
        "lat": 432527.361
      },
      "geometry": {
        "type": "Point",
        "coordinates": [
          348791.5791662629,
          432527.36094443453,
          0.0
        ]
      }
    },
    {
      "type": "Feature",
      "properties": {
        "Name": "예천군(구담교)",
        "desc": "200306#01",
        "lon": 330989.55,
        "lat": 438899.224
      },
      "geometry": {
        "type": "Point",
        "coordinates": [
          330989.5499978598,
          438899.2240635681,
          0.0
        ]
      }
    },
    {
      "type": "Feature",
      "properties": {
        "Name": "봉화군(봉화대교)",
        "desc": "200402#07",
        "lon": 354396.168,
        "lat": 477959.876
      },
      "geometry": {
        "type": "Point",
        "coordinates": [
          354396.1684199313,
          477959.8761464643,
          0.0
        ]
      }
    },
    {
      "type": "Feature",
      "properties": {
        "Name": "영주시(월호교)",
        "desc": "200407#01",
        "lon": 344750.372,
        "lat": 463912.901
      },
      "geometry": {
        "type": "Point",
        "coordinates": [
          344750.3716324788,
          463912.9013143433,
          0.0
        ]
      }
    },
    {
      "type": "Feature",
      "properties": {
        "Name": "예천군(신예천교)",
        "desc": "200412#03",
        "lon": 329510.124,
        "lat": 451210.812
      },
      "geometry": {
        "type": "Point",
        "coordinates": [
          329510.12350978446,
          451210.81206540036,
          0.0
        ]
      }
    },
    {
      "type": "Feature",
      "properties": {
        "Name": "예천군(산양교)",
        "desc": "200416#02",
        "lon": 312800.495,
        "lat": 446596.652
      },
      "geometry": {
        "type": "Point",
        "coordinates": [
          312800.4950521449,
          446596.65167995694,
          0.0
        ]
      }
    },
    {
      "type": "Feature",
      "properties": {
        "Name": "예천군(회룡교)",
        "desc": "200417#03",
        "lon": 318081.657,
        "lat": 443954.27
      },
      "geometry": {
        "type": "Point",
        "coordinates": [
          318081.6573581202,
          443954.2698091344,
          0.0
        ]
      }
    },
    {
      "type": "Feature",
      "properties": {
        "Name": "상주시(이안교)",
        "desc": "200506#03",
        "lon": 303768.841,
        "lat": 439083.348
      },
      "geometry": {
        "type": "Point",
        "coordinates": [
          303768.8406650646,
          439083.34801852365,
          0.0
        ]
      }
    },
    {
      "type": "Feature",
      "properties": {
        "Name": "문경시(김용리)",
        "desc": "200507#01",
        "lon": 308830.846,
        "lat": 444048.071
      },
      "geometry": {
        "type": "Point",
        "coordinates": [
          308830.8457324403,
          444048.0706962803,
          0.0
        ]
      }
    },
    {
      "type": "Feature",
      "properties": {
        "Name": "상주시(화계교)",
        "desc": "200601#02",
        "lon": 306104.314,
        "lat": 425145.339
      },
      "geometry": {
        "type": "Point",
        "coordinates": [
          306104.31392773805,
          425145.3387282566,
          0.0
        ]
      }
    },
    {
      "type": "Feature",
      "properties": {
        "Name": "상주시(후천교)",
        "desc": "200602#01",
        "lon": 303899.298,
        "lat": 426166.821
      },
      "geometry": {
        "type": "Point",
        "coordinates": [
          303899.29760672036,
          426166.8210714803,
          0.0
        ]
      }
    },
    {
      "type": "Feature",
      "properties": {
        "Name": "예천군(상풍교)",
        "desc": "200702#01",
        "lon": 313685.925,
        "lat": 434121.196
      },
      "geometry": {
        "type": "Point",
        "coordinates": [
          313685.92534383107,
          434121.1958562707,
          0.0
        ]
      }
    },
    {
      "type": "Feature",
      "properties": {
        "Name": "군위군(무성리)",
        "desc": "200805#01",
        "lon": 340641.364,
        "lat": 400630.464
      },
      "geometry": {
        "type": "Point",
        "coordinates": [
          340641.36352831684,
          400630.46397589246,
          0.0
        ]
      }
    },
    {
      "type": "Feature",
      "properties": {
        "Name": "의성군(덕은교)",
        "desc": "200806#04",
        "lon": 344511.682,
        "lat": 411393.58
      },
      "geometry": {
        "type": "Point",
        "coordinates": [
          344511.68198628246,
          411393.57972371625,
          0.0
        ]
      }
    },
    {
      "type": "Feature",
      "properties": {
        "Name": "의성군(장송교)",
        "desc": "200809#01",
        "lon": 336558.596,
        "lat": 415520.178
      },
      "geometry": {
        "type": "Point",
        "coordinates": [
          336558.59555582545,
          415520.1776909438,
          0.0
        ]
      }
    },
    {
      "type": "Feature",
      "properties": {
        "Name": "의성군(낙단교)",
        "desc": "200902#01",
        "lon": 316784.221,
        "lat": 418499.844
      },
      "geometry": {
        "type": "Point",
        "coordinates": [
          316784.2208449232,
          418499.84440436726,
          0.0
        ]
      }
    },
    {
      "type": "Feature",
      "properties": {
        "Name": "김천시(김천교)",
        "desc": "201005#02",
        "lon": 301783.513,
        "lat": 391859.379
      },
      "geometry": {
        "type": "Point",
        "coordinates": [
          301783.51320139325,
          391859.37944891513,
          0.0
        ]
      }
    },
    {
      "type": "Feature",
      "properties": {
        "Name": "구미시(양포교)",
        "desc": "201102#01",
        "lon": 328616.238,
        "lat": 394093.441
      },
      "geometry": {
        "type": "Point",
        "coordinates": [
          328616.2380725965,
          394093.44086721935,
          0.0
        ]
      }
    },
    {
      "type": "Feature",
      "properties": {
        "Name": "칠곡군(호국의다리)",
        "desc": "201104#01",
        "lon": 325706.635,
        "lat": 378974.54
      },
      "geometry": {
        "type": "Point",
        "coordinates": [
          325706.6354833644,
          378974.5396004652,
          0.0
        ]
      }
    },
    {
      "type": "Feature",
      "properties": {
        "Name": "영천시(단포교)",
        "desc": "201202#04",
        "lon": 377556.694,
        "lat": 377432.95
      },
      "geometry": {
        "type": "Point",
        "coordinates": [
          377556.69446770044,
          377432.9502562578,
          0.0
        ]
      }
    },
    {
      "type": "Feature",
      "properties": {
        "Name": "영천시(영동교)",
        "desc": "201206#01",
        "lon": 374846.945,
        "lat": 376299.267
      },
      "geometry": {
        "type": "Point",
        "coordinates": [
          374846.94547541754,
          376299.267170078,
          0.0
        ]
      }
    },
    {
      "type": "Feature",
      "properties": {
        "Name": "영천시(금창교)",
        "desc": "201207#01",
        "lon": 369265.229,
        "lat": 371934.408
      },
      "geometry": {
        "type": "Point",
        "coordinates": [
          369265.2292468167,
          371934.4080720839,
          0.0
        ]
      }
    },
    {
      "type": "Feature",
      "properties": {
        "Name": "경산시(압량교)",
        "desc": "201209#02",
        "lon": 359568.746,
        "lat": 363088.481
      },
      "geometry": {
        "type": "Point",
        "coordinates": [
          359568.7459541638,
          363088.4814986262,
          0.0
        ]
      }
    },
    {
      "type": "Feature",
      "properties": {
        "Name": "대구시(신암동)",
        "desc": "201214#01",
        "lon": 347624.276,
        "lat": 367320.892
      },
      "geometry": {
        "type": "Point",
        "coordinates": [
          347624.27559563867,
          367320.89197968435,
          0.0
        ]
      }
    },
    {
      "type": "Feature",
      "properties": {
        "Name": "대구시(성북교)",
        "desc": "201216#01",
        "lon": 343835.289,
        "lat": 367350.8
      },
      "geometry": {
        "type": "Point",
        "coordinates": [
          343835.2888911683,
          367350.80025066255,
          0.0
        ]
      }
    },
    {
      "type": "Feature",
      "properties": {
        "Name": "고령군(회천교)",
        "desc": "201303#04",
        "lon": 315680.667,
        "lat": 348716.929
      },
      "geometry": {
        "type": "Point",
        "coordinates": [
          315680.6671622469,
          348716.9290338734,
          0.0
        ]
      }
    },
    {
      "type": "Feature",
      "properties": {
        "Name": "고령군(귀원교)",
        "desc": "201306#01",
        "lon": 312185.727,
        "lat": 342814.812
      },
      "geometry": {
        "type": "Point",
        "coordinates": [
          312185.7274515945,
          342814.8119908938,
          0.0
        ]
      }
    },
    {
      "type": "Feature",
      "properties": {
        "Name": "대구시(성하리)",
        "desc": "201404#01",
        "lon": 329592.86,
        "lat": 346257.769
      },
      "geometry": {
        "type": "Point",
        "coordinates": [
          329592.8604421696,
          346257.7692845675,
          0.0
        ]
      }
    },
    {
      "type": "Feature",
      "properties": {
        "Name": "거창군(남하교)",
        "desc": "201505#01",
        "lon": 285180.471,
        "lat": 342021.956
      },
      "geometry": {
        "type": "Point",
        "coordinates": [
          285180.4706989392,
          342021.95590449194,
          0.0
        ]
      }
    },
    {
      "type": "Feature",
      "properties": {
        "Name": "합천군(황강교)",
        "desc": "201603#02",
        "lon": 317089.966,
        "lat": 331379.233
      },
      "geometry": {
        "type": "Point",
        "coordinates": [
          317089.9662020391,
          331379.2331109512,
          0.0
        ]
      }
    },
    {
      "type": "Feature",
      "properties": {
        "Name": "합천군(적포교)",
        "desc": "201701#02",
        "lon": 323352.846,
        "lat": 326531.043
      },
      "geometry": {
        "type": "Point",
        "coordinates": [
          323352.8457090957,
          326531.04327156115,
          0.0
        ]
      }
    },
    {
      "type": "Feature",
      "properties": {
        "Name": "함양군(안의교)",
        "desc": "201802#01",
        "lon": 273700.881,
        "lat": 337203.472
      },
      "geometry": {
        "type": "Point",
        "coordinates": [
          273700.8812491255,
          337203.4717559783,
          0.0
        ]
      }
    },
    {
      "type": "Feature",
      "properties": {
        "Name": "함양군(화촌리)",
        "desc": "201805#02",
        "lon": 271809.645,
        "lat": 318879.421
      },
      "geometry": {
        "type": "Point",
        "coordinates": [
          271809.64522099786,
          318879.4206947282,
          0.0
        ]
      }
    },
    {
      "type": "Feature",
      "properties": {
        "Name": "산청군(경호교)",
        "desc": "201806#03",
        "lon": 279394.1,
        "lat": 313826.829
      },
      "geometry": {
        "type": "Point",
        "coordinates": [
          279394.09966573835,
          313826.82878994284,
          0.0
        ]
      }
    },
    {
      "type": "Feature",
      "properties": {
        "Name": "진주시(옥산교)",
        "desc": "201902#02",
        "lon": 305356.857,
        "lat": 285827.775
      },
      "geometry": {
        "type": "Point",
        "coordinates": [
          305356.85745662637,
          285827.77530384716,
          0.0
        ]
      }
    },
    {
      "type": "Feature",
      "properties": {
        "Name": "의령군(정암교)",
        "desc": "201905#02",
        "lon": 317794.786,
        "lat": 302596.078
      },
      "geometry": {
        "type": "Point",
        "coordinates": [
          317794.7858999029,
          302596.07782548293,
          0.0
        ]
      }
    },
    {
      "type": "Feature",
      "properties": {
        "Name": "의령군(공단교)",
        "desc": "201907#04",
        "lon": 315363.621,
        "lat": 303027.021
      },
      "geometry": {
        "type": "Point",
        "coordinates": [
          315363.62111421215,
          303027.02066019276,
          0.0
        ]
      }
    },
    {
      "type": "Feature",
      "properties": {
        "Name": "함안군(서촌리)",
        "desc": "201909#02",
        "lon": 327340.351,
        "lat": 304791.351
      },
      "geometry": {
        "type": "Point",
        "coordinates": [
          327340.35057935084,
          304791.35111820756,
          0.0
        ]
      }
    },
    {
      "type": "Feature",
      "properties": {
        "Name": "함안군(계내리)",
        "desc": "202001#01",
        "lon": 334680.287,
        "lat": 310632.316
      },
      "geometry": {
        "type": "Point",
        "coordinates": [
          334680.2872848819,
          310632.31578778115,
          0.0
        ]
      }
    },
    {
      "type": "Feature",
      "properties": {
        "Name": "청도군(매전교)",
        "desc": "202102#02",
        "lon": 368955.088,
        "lat": 343465.551
      },
      "geometry": {
        "type": "Point",
        "coordinates": [
          368955.0878318978,
          343465.5505440385,
          0.0
        ]
      }
    },
    {
      "type": "Feature",
      "properties": {
        "Name": "청도군(원리)",
        "desc": "202104#01",
        "lon": 359731.431,
        "lat": 337282.301
      },
      "geometry": {
        "type": "Point",
        "coordinates": [
          359731.4313138189,
          337282.3006425853,
          0.0
        ]
      }
    },
    {
      "type": "Feature",
      "properties": {
        "Name": "밀양시(금곡리)",
        "desc": "202107#02",
        "lon": 366883.843,
        "lat": 325048.292
      },
      "geometry": {
        "type": "Point",
        "coordinates": [
          366883.84324806265,
          325048.2922309444,
          0.0
        ]
      }
    },
    {
      "type": "Feature",
      "properties": {
        "Name": "밀양시(용평동)",
        "desc": "202108#03",
        "lon": 361519.086,
        "lat": 323346.447
      },
      "geometry": {
        "type": "Point",
        "coordinates": [
          361519.08616461453,
          323346.446782864,
          0.0
        ]
      }
    },
    {
      "type": "Feature",
      "properties": {
        "Name": "밀양시(삼랑진교)",
        "desc": "202201#01",
        "lon": 365531.159,
        "lat": 310900.847
      },
      "geometry": {
        "type": "Point",
        "coordinates": [
          365531.15888189466,
          310900.8473090043,
          0.0
        ]
      }
    },
    {
      "type": "Feature",
      "properties": {
        "Name": "양산시(양산교)",
        "desc": "202204#01",
        "lon": 385099.68,
        "lat": 308630.435
      },
      "geometry": {
        "type": "Point",
        "coordinates": [
          385099.6795103471,
          308630.43469397066,
          0.0
        ]
      }
    },
    {
      "type": "Feature",
      "properties": {
        "Name": "부산시(구포대교)",
        "desc": "202205#01",
        "lon": 381370.251,
        "lat": 291809.992
      },
      "geometry": {
        "type": "Point",
        "coordinates": [
          381370.2513087009,
          291809.9915502222,
          0.0
        ]
      }
    },
    {
      "type": "Feature",
      "properties": {
        "Name": "김해시(정천교)",
        "desc": "202206#01",
        "lon": 366951.667,
        "lat": 291439.913
      },
      "geometry": {
        "type": "Point",
        "coordinates": [
          366951.666925663,
          291439.91329395067,
          0.0
        ]
      }
    }
  ]
}